"STATION","DATE","LATITUDE","LONGITUDE","ELEVATION","NAME","REPORT_TYPE","SOURCE","HourlyAltimeterSetting","HourlyDewPointTemperature","HourlyDryBulbTemperature","HourlyPrecipitation","HourlyPresentWeatherType","HourlyPressureChange","HourlyPressureTendency","HourlyRelativeHumidity","HourlySkyConditions","HourlySeaLevelPressure","HourlyStationPressure","HourlyVisibility","HourlyWetBulbTemperature","HourlyWindDirection","HourlyWindGustSpeed","HourlyWindSpeed","Sunrise","Sunset","DailyAverageDewPointTemperature","DailyAverageDryBulbTemperature","DailyAverageRelativeHumidity","DailyAverageSeaLevelPressure","DailyAverageStationPressure","DailyAverageWetBulbTemperature","DailyAverageWindSpeed","DailyCoolingDegreeDays","DailyDepartureFromNormalAverageTemperature","DailyHeatingDegreeDays","DailyMaximumDryBulbTemperature","DailyMinimumDryBulbTemperature","DailyPeakWindDirection","DailyPeakWindSpeed","DailyPrecipitation","DailySnowDepth","DailySnowfall","DailySustainedWindDirection","DailySustainedWindSpeed","DailyWeather","MonthlyAverageRH","MonthlyDaysWithGT001Precip","MonthlyDaysWithGT010Precip","MonthlyDaysWithGT32Temp","MonthlyDaysWithGT90Temp","MonthlyDaysWithLT0Temp","MonthlyDaysWithLT32Temp","MonthlyDepartureFromNormalAverageTemperature","MonthlyDepartureFromNormalCoolingDegreeDays","MonthlyDepartureFromNormalHeatingDegreeDays","MonthlyDepartureFromNormalMaximumTemperature","MonthlyDepartureFromNormalMinimumTemperature","MonthlyDepartureFromNormalPrecipitation","MonthlyDewpointTemperature","MonthlyGreatestPrecip","MonthlyGreatestPrecipDate","MonthlyGreatestSnowDepth","MonthlyGreatestSnowDepthDate","MonthlyGreatestSnowfall","MonthlyGreatestSnowfallDate","MonthlyMaxSeaLevelPressureValue","MonthlyMaxSeaLevelPressureValueDate","MonthlyMaxSeaLevelPressureValueTime","MonthlyMaximumTemperature","MonthlyMeanTemperature","MonthlyMinSeaLevelPressureValue","MonthlyMinSeaLevelPressureValueDate","MonthlyMinSeaLevelPressureValueTime","MonthlyMinimumTemperature","MonthlySeaLevelPressure","MonthlyStationPressure","MonthlyTotalLiquidPrecipitation","MonthlyTotalSnowfall","MonthlyWetBulb","AWND","CDSD","CLDD","DSNW","HDSD","HTDD","DYTS","DYHF","NormalsCoolingDegreeDay","NormalsHeatingDegreeDay","ShortDurationEndDate005","ShortDurationEndDate010","ShortDurationEndDate015","ShortDurationEndDate020","ShortDurationEndDate030","ShortDurationEndDate045","ShortDurationEndDate060","ShortDurationEndDate080","ShortDurationEndDate100","ShortDurationEndDate120","ShortDurationEndDate150","ShortDurationEndDate180","ShortDurationPrecipitationValue005","ShortDurationPrecipitationValue010","ShortDurationPrecipitationValue015","ShortDurationPrecipitationValue020","ShortDurationPrecipitationValue030","ShortDurationPrecipitationValue045","ShortDurationPrecipitationValue060","ShortDurationPrecipitationValue080","ShortDurationPrecipitationValue100","ShortDurationPrecipitationValue120","ShortDurationPrecipitationValue150","ShortDurationPrecipitationValue180","REM","BackupDirection","BackupDistance","BackupDistanceUnit","BackupElements","BackupElevation","BackupEquipment","BackupLatitude","BackupLongitude","BackupName","WindEquipmentChangeDate"
"65319099999","2005-01-01T01:00:00","10.3166667","1.3833333","461.0","NATITINGOU, BN","FM-12","4","","41","77","","","","9","27","BKN:05 256","29.89","28.40","4.97","57","040","","5","","","","","","","","","","","","","","","","","","","","","","","","","","","","","","","","","","","","","","","","","","","","","","","","","","","","","","","","","","","","","","","","","","","","","","","","","","","","","","","","","","","","","","","","","","","SYN082AAXX  01004 65319 33958 50404 10250 20048 39617 40122 80002 333 0//00 58025 85076;","","","","","","","","","",""
"65319099999","2005-01-01T07:00:00","10.3166667","1.3833333","461.0","NATITINGOU, BN","FM-12","4","","39","68","","","","9","35","","29.91","28.39","4.97","53","020","","5","","","","","","","","","","","","","","","","","","","","","","","","","","","","","","","","","","","","","","","","","","","","","","","","","","","","","","","","","","","","","","","","","","","","","","","","","","","","","","","","","","","","","","","","","","","SYN100AAXX  01064 65319 32958 50204 10198 20040 39614 40127 80002 333 01400 20195 50534 55097 58024 85076;","","","","","","","","","",""
"65319099999","2005-01-01T19:00:00","10.3166667","1.3833333","461.0","NATITINGOU, BN","FM-12","4","","55","86","","","","9","34","BKN:05 256","29.90","28.38","4.97","67","360","","2","","","","","","","","","","","","","","","","","","","","","","","","","","","","","","","","","","","","","","","","","","","","","","","","","","","","","","","","","","","","","","","","","","","","","","","","","","","","","","","","","","","","","","","","","","","SYN082AAXX  01184 65319 32958 53602 10300 20126 39611 40124 80002 333 10354 58025 85076;","","","","","","","","","",""
"65319099999","2005-01-02T13:00:00","10.3166667","1.3833333","461.0","NATITINGOU, BN","FM-12","4","","46","90","","","","9","22","BKN:05 256","29.92","28.42","6.21","64","040","","11","","","","","","","","","","","","","","","","","","","","","","","","","","","","","","","","","","","","","","","","","","","","","","","","","","","","","","","","","","","","","","","","","","","","","","","","","","","","","","","","","","","","","","","","","","","SYN082AAXX  02124 65319 32960 50410 10320 20080 39623 40132 80002 333 0//00 58002 85076;","","","","","","","","","",""
"65319099999","2005-01-02T19:00:00","10.3166667","1.3833333","461.0","NATITINGOU, BN","FM-12","4","","49","85","","","","9","29","BKN:05 256","29.89","28.37","6.21","64","360","","7","","","","","","","","","","","","","","","","","","","","","","","","","","","","","","","","","","","","","","","","","","","","","","","","","","","","","","","","","","","","","","","","","","","","","","","","","","","","","","","","","","","","","","","","","","","SYN082AAXX  02184 65319 32960 53606 10295 20096 39608 40121 80002 333 10343 59003 85076;","","","","","","","","","",""
"65319099999","2005-01-03T01:00:00","10.3166667","1.3833333","461.0","NATITINGOU, BN","FM-12","4","","42","73","","","","9","33","BKN:05 256","29.92","28.42","6.21","56","000","","0","","","","","","","","","","","","","","","","","","","","","","","","","","","","","","","","","","","","","","","","","","","","","","","","","","","","","","","","","","","","","","","","","","","","","","","","","","","","","","","","","","","","","","","","","","","SYN082AAXX  03004 65319 33960 50000 10230 20058 39624 40133 80002 333 0//00 59002 85076;","","","","","","","","","",""
"65319099999","2005-01-04T07:00:00","10.3166667","1.3833333","461.0","NATITINGOU, BN","FM-12","4","","43","71","","","","9","37","","29.86","28.35","4.97","56","000","","0","","","","","","","","","","","","","","","","","","","","","","","","","","","","","","","","","","","","","","","","","","","","","","","","","","","","","","","","","","","","","","","","","","","","","","","","","","","","","","","","","","","","","","","","","","","SYN100AAXX  04064 65319 32958 70000 10215 20062 39601 40113 80008 333 01700 20205 50724 55095 59009 87276;","","","","","","","","","",""
"65319099999","2005-01-04T13:00:00","10.3166667","1.3833333","461.0","NATITINGOU, BN","FM-12","4","","47","87","","||HZ","","9","25","BKN:05 256","29.87","28.37","1.86","63","360","","5","","","","","","","","","","","","","","","","","","","","","","","","","","","","","","","","","","","","","","","","","","","","","","","","","","","","","","","","","","","","","","","","","","","","","","","","","","","","","","","","","","","","","","","","","","","SYN088AAXX  04124 65319 31930 53604 10308 20086 39607 40116 70522 80002 333 0//00 58001 85076;","","","","","","","","","",""
"65319099999","2005-01-04T17:00:00","10.3166667","1.3833333","461.0","NATITINGOU, BN","FM-12","4","","46","74","","","","9","37","BKN:05 256","29.87","28.38","4.97","58","000","","0","","","","","","","","","","","","","","","","","","","","","","","","","","","","","","","","","","","","","","","","","","","","","","","","","","","","","","","","","","","","","","","","","","","","","","","","","","","","","","","","","","","","","","","","","","","SYN082AAXX  0416/ 65319 33958 50000 10235 20079 39609 40116 80002 333 0//00 59015 85076;","","","","","","","","","",""
"65319099999","2005-01-04T19:00:00","10.3166667","1.3833333","461.0","NATITINGOU, BN","FM-12","4","","64","84","","","","9","51","BKN:05 256","29.85","28.34","4.97","71","000","","0","","","","","","","","","","","","","","","","","","","","","","","","","","","","","","","","","","","","","","","","","","","","","","","","","","","","","","","","","","","","","","","","","","","","","","","","","","","","","","","","","","","","","","","","","","","SYN082AAXX  04184 65319 32958 50000 10291 20180 39596 40107 80002 333 10342 58010 85076;","","","","","","","","","",""
"65319099999","2005-01-05T01:00:00","10.3166667","1.3833333","461.0","NATITINGOU, BN","FM-12","4","","48","75","","","","9","38","BKN:05 256","29.91","28.41","4.97","60","000","","0","","","","","","","","","","","","","","","","","","","","","","","","","","","","","","","","","","","","","","","","","","","","","","","","","","","","","","","","","","","","","","","","","","","","","","","","","","","","","","","","","","","","","","","","","","","SYN082AAXX  05004 65319 33958 50000 10240 20089 39620 40129 80002 333 0//00 58011 85076;","","","","","","","","","",""
"65319099999","2005-01-05T07:00:00","10.3166667","1.3833333","461.0","NATITINGOU, BN","FM-12","4","","49","71","","","","9","46","","29.88","28.37","4.97","59","040","","7","","","","","","","","","","","","","","","","","","","","","","","","","","","","","","","","","","","","","","","","","","","","","","","","","","","","","","","","","","","","","","","","","","","","","","","","","","","","","","","","","","","","","","","","","","","SYN100AAXX  05064 65319 32958 50406 10218 20096 39607 40119 80002 333 01700 20213 50694 55090 58006 85076;","","","","","","","","","",""
"65319099999","2005-01-05T13:00:00","10.3166667","1.3833333","461.0","NATITINGOU, BN","FM-12","4","","50","87","","||HZ","","9","28","BKN:05 256","29.90","28.40","2.49","65","080","","7","","","","","","","","","","","","","","","","","","","","","","","","","","","","","","","","","","","","","","","","","","","","","","","","","","","","","","","","","","","","","","","","","","","","","","","","","","","","","","","","","","","","","","","","","","","SYN088AAXX  05124 65319 31940 50806 10305 20100 39617 40126 70522 80002 333 0//00 58010 85076;","","","","","","","","","",""
"65319099999","2005-01-05T19:00:00","10.3166667","1.3833333","461.0","NATITINGOU, BN","FM-12","4","","59","85","","","","","41","","29.85","28.35","2.49","68","020","","5","","","","","","","","","","","","","","","","","","","","","","","","","","","","","","","","","","","","","","","","","","","","","","","","","","","","","","","","","","","","","","","","","","","","","","","","","","","","","","","","","","","","","","","","","","","SYN084AAXX  05184 65319 31540 50204 10292 20148 39599 40110 801380002 333 10330 58083-576;","","","","","","","","","",""
"65319099999","2005-01-06T01:00:00","10.3166667","1.3833333","461.0","NATITINGOU, BN","FM-12","4","","47","73","","","","9","39","BKN:05 256","29.91","28.40","4.97","58","000","","0","","","","","","","","","","","","","","","","","","","","","","","","","","","","","","","","","","","","","","","","","","","","","","","","","","","","","","","","","","","","","","","","","","","","","","","","","","","","","","","","","","","","","","","","","","","SYN082AAXX  06004 65319 33958 50000 10230 20084 39619 40129 80002 333 0//00 59001 85076;","","","","","","","","","",""
"65319099999","2005-01-06T07:00:00","10.3166667","1.3833333","461.0","NATITINGOU, BN","FM-12","4","","41","68","","||HZ","","9","38","","29.93","28.41","1.86","54","040","","7","","","","","","","","","","","","","","","","","","","","","","","","","","","","","","","","","","","","","","","","","","","","","","","","","","","","","","","","","","","","","","","","","","","","","","","","","","","","","","","","","","","","","","","","","","","SYN106AAXX  06064 65319 31930 50406 10200 20052 39620 40134 70522 80002 333 01800 20200 50754 55088 58013 85076;","","","","","","","","","",""
"65319099999","2005-01-06T13:00:00","10.3166667","1.3833333","461.0","NATITINGOU, BN","FM-12","4","","51","85","","||HZ","","9","31","BKN:05 256","29.91","28.40","1.86","64","080","","7","","","","","","","","","","","","","","","","","","","","","","","","","","","","","","","","","","","","","","","","","","","","","","","","","","","","","","","","","","","","","","","","","","","","","","","","","","","","","","","","","","","","","","","","","","","SYN088AAXX  06124 65319 31930 50806 10296 20106 39619 40129 70522 80002 333 0//00 58002 85076;","","","","","","","","","",""
"65319099999","2005-01-06T19:00:00","10.3166667","1.3833333","461.0","NATITINGOU, BN","FM-12","4","","56","82","","||HZ","","9","41","BKN:05 256","29.89","28.37","2.49","66","020","","7","","","","","","","","","","","","","","","","","","","","","","","","","","","","","","","","","","","","","","","","","","","","","","","","","","","","","","","","","","","","","","","","","","","","","","","","","","","","","","","","","","","","","","","","","","","SYN088AAXX  06184 65319 31940 50206 10278 20134 39607 40121 70522 80002 333 10327 58008 85076;","","","","","","","","","",""
"65319099999","2005-01-07T01:00:00","10.3166667","1.3833333","461.0","NATITINGOU, BN","FM-12","4","","42","72","","||HZ","","9","34","BKN:05 256","29.91","28.40","2.49","56","040","","7","","","","","","","","","","","","","","","","","","","","","","","","","","","","","","","","","","","","","","","","","","","","","","","","","","","","","","","","","","","","","","","","","","","","","","","","","","","","","","","","","","","","","","","","","","","SYN088AAXX  07004 65319 31940 50406 10222 20056 39616 40127 70522 80002 333 0//00 59003 85076;","","","","","","","","","",""
"65319099999","2005-01-07T07:00:00","10.3166667","1.3833333","461.0","NATITINGOU, BN","FM-12","4","","40","67","","||HZ","","9","37","","29.90","28.38","1.86","53","020","","9","","","","","","","","","","","","","","","","","","","","","","","","","","","","","","","","","","","","","","","","","","","","","","","","","","","","","","","","","","","","","","","","","","","","","","","","","","","","","","","","","","","","","","","","","","","SYN106AAXX  07064 65319 31930 50208 10197 20044 39610 40125 70522 80002 333 01800 20191 50614 55091 59010 85076;","","","","","","","","","",""
"65319099999","2005-01-07T13:00:00","10.3166667","1.3833333","461.0","NATITINGOU, BN","FM-12","4","","45","81","","||DU","","9","29","BKN:07 256","29.91","28.39","0.12","61","080","","5","","","","","","","","","","","","","","","","","","","","","","","","","","","","","","","","","","","","","","","","","","","","","","","","","","","","","","","","","","","","","","","","","","","","","","","","","","","","","","","","","","","","","","","","","","","SYN088AAXX  07124 65319 31902 70804 10272 20074 39614 40128 70644 80008 333 0//00 59005 87276;","","","","","","","","","",""
"65319099999","2005-01-07T19:00:00","10.3166667","1.3833333","461.0","NATITINGOU, BN","FM-12","4","","49","79","","||DU","","9","35","BKN:07 256","29.87","28.35","0.12","61","000","","0","","","","","","","","","","","","","","","","","","","","","","","","","","","","","","","","","","","","","","","","","","","","","","","","","","","","","","","","","","","","","","","","","","","","","","","","","","","","","","","","","","","","","","","","","","","SYN088AAXX  07184 65319 31902 70000 10260 20092 39600 40114 70644 80008 333 10300 59007 87276;","","","","","","","","","",""
"65319099999","2005-01-08T01:00:00","10.3166667","1.3833333","461.0","NATITINGOU, BN","FM-12","4","","37","69","","||DU","","9","31","BKN:05 256","29.92","28.40","1.24","53","360","","5","","","","","","","","","","","","","","","","","","","","","","","","","","","","","","","","","","","","","","","","","","","","","","","","","","","","","","","","","","","","","","","","","","","","","","","","","","","","","","","","","","","","","","","","","","","SYN088AAXX  08004 65319 31920 53604 10207 20030 39617 40132 706// 80002 333 0//00 58001 85076;","","","","","","","","","",""
"65319099999","2005-01-08T07:00:00","10.3166667","1.3833333","461.0","NATITINGOU, BN","FM-12","4","","33","64","","||DU","","9","32","","29.93","28.40","1.24","49","080","","2","","","","","","","","","","","","","","","","","","","","","","","","","","","","","","","","","","","","","","","","","","","","","","","","","","","","","","","","","","","","","","","","","","","","","","","","","","","","","","","","","","","","","","","","","","","SYN106AAXX  08064 65319 31920 50802 10178 20007 39617 40135 70622 80002 333 01700 20175 50834 55035 58007 85076;","","","","","","","","","",""
"65319099999","2005-01-08T13:00:00","10.3166667","1.3833333","461.0","NATITINGOU, BN","FM-12","4","","37","80","","||DU","","9","22","BKN:05 256","29.92","28.40","0.12","57","060","","7","","","","","","","","","","","","","","","","","","","","","","","","","","","","","","","","","","","","","","","","","","","","","","","","","","","","","","","","","","","","","","","","","","","","","","","","","","","","","","","","","","","","","","","","","","","SYN088AAXX  08124 65319 31902 50606 10265 20028 39616 40132 70644 80002 333 0//00 58002 85076;","","","","","","","","","",""
"65319099999","2005-01-08T19:00:00","10.3166667","1.3833333","461.0","NATITINGOU, BN","FM-12","4","","47","79","","||HZ","","9","33","BKN:05 256","29.85","28.33","0.25","61","000","","0","","","","","","","","","","","","","","","","","","","","","","","","","","","","","","","","","","","","","","","","","","","","","","","","","","","","","","","","","","","","","","","","","","","","","","","","","","","","","","","","","","","","","","","","","","","SYN088AAXX  08184 65319 31904 50000 10260 20086 39592 40109 70544 80002 333 10300 59008 85076;","","","","","","","","","",""
"65319099999","2005-01-09T01:00:00","10.3166667","1.3833333","461.0","NATITINGOU, BN","FM-12","4","","36","68","","||HZ","","9","31","BKN:05 256","29.90","28.38","0.19","52","040","","7","","","","","","","","","","","","","","","","","","","","","","","","","","","","","","","","","","","","","","","","","","","","","","","","","","","","","","","","","","","","","","","","","","","","","","","","","","","","","","","","","","","","","","","","","","","SYN088AAXX  09004 65319 31903 50406 10200 20022 39609 40124 705// 80002 333 0//00 59008 85076;","","","","","","","","","",""
"65319099999","2005-01-10T01:00:00","10.3166667","1.3833333","461.0","NATITINGOU, BN","FM-12","4","","36","68","","||HZ","","9","31","BKN:05 256","29.88","28.36","0.19","52","360","","5","","","","","","","","","","","","","","","","","","","","","","","","","","","","","","","","","","","","","","","","","","","","","","","","","","","","","","","","","","","","","","","","","","","","","","","","","","","","","","","","","","","","","","","","","","","SYN088AAXX  10004 65319 31903 53604 10200 20023 39605 40120 705// 80002 333 0//00 59004 85076;","","","","","","","","","",""
"65319099999","2005-01-10T07:00:00","10.3166667","1.3833333","461.0","NATITINGOU, BN","FM-12","4","","38","64","","||HZ","","9","38","","29.88","28.37","0.12","51","000","","0","","","","","","","","","","","","","","","","","","","","","","","","","","","","","","","","","","","","","","","","","","","","","","","","","","","","","","","","","","","","","","","","","","","","","","","","","","","","","","","","","","","","","","","","","","","SYN106AAXX  10064 65319 31902 50000 10180 20035 39607 40120 70544 80002 333 01500 20175 51354 55090 58004 85076;","","","","","","","","","",""
"65319099999","2005-01-10T13:00:00","10.3166667","1.3833333","461.0","NATITINGOU, BN","FM-12","4","","44","81","","||HZ","","9","27","BKN:05 256","29.92","28.39","0.37","60","020","","5","","","","","","","","","","","","","","","","","","","","","","","","","","","","","","","","","","","","","","","","","","","","","","","","","","","","","","","","","","","","","","","","","","","","","","","","","","","","","","","","","","","","","","","","","","","SYN088AAXX  10124 65319 31906 50204 10273 20068 39615 40131 70544 80002 333 0//00 58018 85076;","","","","","","","","","",""
"65319099999","2005-01-10T19:00:00","10.3166667","1.3833333","461.0","NATITINGOU, BN","FM-12","4","","51","79","","||HZ","","9","37","BKN:05 256","29.85","28.33","0.50","62","000","","0","","","","","","","","","","","","","","","","","","","","","","","","","","","","","","","","","","","","","","","","","","","","","","","","","","","","","","","","","","","","","","","","","","","","","","","","","","","","","","","","","","","","","","","","","","","SYN088AAXX  10184 65319 31908 50000 10261 20103 39593 40110 70544 80002 333 10306 58008 85076;","","","","","","","","","",""
"65319099999","2005-01-11T01:00:00","10.3166667","1.3833333","461.0","NATITINGOU, BN","FM-12","4","","39","69","","||HZ","","9","34","BKN:05 256","29.93","28.40","0.50","53","040","","5","","","","","","","","","","","","","","","","","","","","","","","","","","","","","","","","","","","","","","","","","","","","","","","","","","","","","","","","","","","","","","","","","","","","","","","","","","","","","","","","","","","","","","","","","","","SYN088AAXX  11004 65319 31908 50404 10204 20038 39619 40134 705// 80002 333 0//00 58014 85076;","","","","","","","","","",""
"65319099999","2005-01-11T07:00:00","10.3166667","1.3833333","461.0","NATITINGOU, BN","FM-12","4","","40","64","","||HZ","","9","42","","29.92","28.39","0.06","52","040","","5","","","","","","","","","","","","","","","","","","","","","","","","","","","","","","","","","","","","","","","","","","","","","","","","","","","","","","","","","","","","","","","","","","","","","","","","","","","","","","","","","","","","","","","","","","","SYN106AAXX  11064 65319 31901 50404 10177 20044 39615 40133 70544 80002 333 01600 20171 51004 55079 58008 85076;","","","","","","","","","",""
"65319099999","2005-01-11T13:00:00","10.3166667","1.3833333","461.0","NATITINGOU, BN","FM-12","4","","","79","","||HZ","","9","","BKN:05 256","29.93","28.40","0.06","","040","","7","","","","","","","","","","","","","","","","","","","","","","","","","","","","","","","","","","","","","","","","","","","","","","","","","","","","","","","","","","","","","","","","","","","","","","","","","","","","","","","","","","","","","","","","","","","SYN088AAXX  11124 65319 31901 50406 10260 20279 39618 40135 70544 80002 333 0//00 58003 85076;","","","","","","","","","",""
"65319099999","2005-01-11T19:00:00","10.3166667","1.3833333","461.0","NATITINGOU, BN","FM-12","4","","50","78","","||HZ","","9","38","BKN:05 256","29.91","28.37","0.19","62","000","","0","","","","","","","","","","","","","","","","","","","","","","","","","","","","","","","","","","","","","","","","","","","","","","","","","","","","","","","","","","","","","","","","","","","","","","","","","","","","","","","","","","","","","","","","","","","SYN088AAXX  11184 65319 31903 50000 10255 20101 39608 40127 70544 80002 333 10280 58015 85076;","","","","","","","","","",""
"65319099999","2005-01-12T01:00:00","10.3166667","1.3833333","461.0","NATITINGOU, BN","FM-12","4","","40","69","","||HZ","","9","35","BKN:05 256","29.92","28.40","0.19","54","020","","7","","","","","","","","","","","","","","","","","","","","","","","","","","","","","","","","","","","","","","","","","","","","","","","","","","","","","","","","","","","","","","","","","","","","","","","","","","","","","","","","","","","","","","","","","","","SYN088AAXX  12004 65319 31803 50206 10205 20046 39616 40132 705// 80002 333 0//00 59003 85076;","","","","","","","","","",""
"65319099999","2005-01-12T07:00:00","10.3166667","1.3833333","461.0","NATITINGOU, BN","FM-12","4","","38","64","","||HZ","","9","38","","29.95","28.41","0.06","51","040","","7","","","","","","","","","","","","","","","","","","","","","","","","","","","","","","","","","","","","","","","","","","","","","","","","","","","","","","","","","","","","","","","","","","","","","","","","","","","","","","","","","","","","","","","","","","","SYN106AAXX  12064 65319 31901 50406 10180 20034 39622 40141 70544 80002 333 01600 20176 50724 55001 58007 85076;","","","","","","","","","",""
"65319099999","2005-01-12T13:00:00","10.3166667","1.3833333","461.0","NATITINGOU, BN","FM-12","4","","53","81","","||HZ","","9","37","BKN:07 256","29.92","28.40","0.06","64","040","","9","","","","","","","","","","","","","","","","","","","","","","","","","","","","","","","","","","","","","","","","","","","","","","","","","","","","","","","","","","","","","","","","","","","","","","","","","","","","","","","","","","","","","","","","","","","SYN088AAXX  12124 65319 31901 70408 10275 20114 39617 40132 70544 80008 333 0//00 59001 87276;","","","","","","","","","",""
"65319099999","2005-01-12T19:00:00","10.3166667","1.3833333","461.0","NATITINGOU, BN","FM-12","4","","49","80","","||HZ","","9","34","BKN:07 256","29.89","28.35","0.06","62","000","","0","","","","","","","","","","","","","","","","","","","","","","","","","","","","","","","","","","","","","","","","","","","","","","","","","","","","","","","","","","","","","","","","","","","","","","","","","","","","","","","","","","","","","","","","","","","SYN088AAXX  12184 65319 31901 70000 10265 20092 39602 40122 70544 80008 333 10305 59006 87276;","","","","","","","","","",""
"65319099999","2005-01-13T01:00:00","10.3166667","1.3833333","461.0","NATITINGOU, BN","FM-12","4","","40","69","","||HZ","","9","34","BKN:05 256","29.93","28.41","0.19","54","020","","5","","","","","","","","","","","","","","","","","","","","","","","","","","","","","","","","","","","","","","","","","","","","","","","","","","","","","","","","","","","","","","","","","","","","","","","","","","","","","","","","","","","","","","","","","","","SYN088AAXX  13004 65319 31903 50204 10207 20043 39621 40136 705// 80002 333 0//00 58005 85076;","","","","","","","","","",""
"65319099999","2005-01-13T07:00:00","10.3166667","1.3833333","461.0","NATITINGOU, BN","FM-12","4","","34","64","","||DU","","9","32","","29.91","28.38","0.12","49","040","","5","","","","","","","","","","","","","","","","","","","","","","","","","","","","","","","","","","","","","","","","","","","","","","","","","","","","","","","","","","","","","","","","","","","","","","","","","","","","","","","","","","","","","","","","","","","SYN106AAXX  13064 65319 31902 60404 10180 20010 39610 40127 70644 80002 333 01200 20180 50654 55027 59012 85076;","","","","","","","","","",""
"65319099999","2005-01-13T13:00:00","10.3166667","1.3833333","461.0","NATITINGOU, BN","FM-12","4","","52","87","","||DU","","9","30","BKN:05 256","29.91","28.38","0.37","66","000","","0","","","","","","","","","","","","","","","","","","","","","","","","","","","","","","","","","","","","","","","","","","","","","","","","","","","","","","","","","","","","","","","","","","","","","","","","","","","","","","","","","","","","","","","","","","","SYN088AAXX  13124 65319 31906 50000 10303 20109 39610 40130 70644 80002 333 0//00 59007 85076;","","","","","","","","","",""
"65319099999","2005-01-13T19:00:00","10.3166667","1.3833333","461.0","NATITINGOU, BN","FM-12","4","","47","81","","||HZ","","9","30","BKN:05 256","29.83","28.33","0.75","61","360","","7","","","","","","","","","","","","","","","","","","","","","","","","","","","","","","","","","","","","","","","","","","","","","","","","","","","","","","","","","","","","","","","","","","","","","","","","","","","","","","","","","","","","","","","","","","","SYN088AAXX  13184 65319 31912 53606 10273 20084 39595 40103 70522 80002 333 10328 59007 85076;","","","","","","","","","",""
"65319099999","2005-01-14T01:00:00","10.3166667","1.3833333","461.0","NATITINGOU, BN","FM-12","4","","42","68","","||HZ","","9","39","BKN:05 256","29.94","28.41","1.24","54","020","","5","","","","","","","","","","","","","","","","","","","","","","","","","","","","","","","","","","","","","","","","","","","","","","","","","","","","","","","","","","","","","","","","","","","","","","","","","","","","","","","","","","","","","","","","","","","SYN088AAXX  14004 65319 31920 50204 10199 20056 39621 40140 705// 80002 333 0//00 58000 85076;","","","","","","","","","",""
"65319099999","2005-01-14T07:00:00","10.3166667","1.3833333","461.0","NATITINGOU, BN","FM-12","4","","35","63","","||HZ","","9","36","","29.88","28.35","1.86","49","020","","5","","","","","","","","","","","","","","","","","","","","","","","","","","","","","","","","","","","","","","","","","","","","","","","","","","","","","","","","","","","","","","","","","","","","","","","","","","","","","","","","","","","","","","","","","","","SYN106AAXX  14064 65319 31930 50204 10174 20019 39601 40118 70522 80002 333 01600 20169 50664 55063 59009 85076;","","","","","","","","","",""
"65319099999","2005-01-14T13:00:00","10.3166667","1.3833333","461.0","NATITINGOU, BN","FM-12","4","","49","85","","||HZ","","9","29","BKN:07 256","29.85","28.34","0.62","64","120","","9","","","","","","","","","","","","","","","","","","","","","","","","","","","","","","","","","","","","","","","","","","","","","","","","","","","","","","","","","","","","","","","","","","","","","","","","","","","","","","","","","","","","","","","","","","","SYN088AAXX  14124 65319 31910 71208 10295 20096 39596 40109 70522 80002 333 0//00 59014 87276;","","","","","","","","","",""
"65319099999","2005-01-14T19:00:00","10.3166667","1.3833333","461.0","NATITINGOU, BN","FM-12","4","","56","82","","||HZ","","9","40","BKN:05 256","29.81","28.29","0.62","66","000","","0","","","","","","","","","","","","","","","","","","","","","","","","","","","","","","","","","","","","","","","","","","","","","","","","","","","","","","","","","","","","","","","","","","","","","","","","","","","","","","","","","","","","","","","","","","","SYN088AAXX  14184 65319 31910 50000 10280 20132 39580 40096 70522 80002 333 10325 59015 85076;","","","","","","","","","",""
"65319099999","2005-01-15T01:00:00","10.3166667","1.3833333","461.0","NATITINGOU, BN","FM-12","4","","44","68","","||HZ","","9","42","BKN:05 256","29.84","28.33","1.86","55","340","","5","","","","","","","","","","","","","","","","","","","","","","","","","","","","","","","","","","","","","","","","","","","","","","","","","","","","","","","","","","","","","","","","","","","","","","","","","","","","","","","","","","","","","","","","","","","SYN088AAXX  15004 65319 31930 53404 10200 20066 39592 40104 705// 80002 333 0//00 59009 85076;","","","","","","","","","",""
"65319099999","2005-01-15T07:00:00","10.3166667","1.3833333","461.0","NATITINGOU, BN","FM-12","4","","42","67","","||HZ","","9","39","","29.84","28.32","1.86","54","020","","5","","","","","","","","","","","","","","","","","","","","","","","","","","","","","","","","","","","","","","","","","","","","","","","","","","","","","","","","","","","","","","","","","","","","","","","","","","","","","","","","","","","","","","","","","","","SYN106AAXX  15064 65319 31930 50204 10197 20054 39590 40105 70522 80002 333 01400 20183 50564 55033 59011 85076;","","","","","","","","","",""
"65319099999","2005-01-15T13:00:00","10.3166667","1.3833333","461.0","NATITINGOU, BN","FM-12","4","","57","89","","||HZ","","9","34","BKN:05 256","29.81","28.31","1.86","69","000","","0","","","","","","","","","","","","","","","","","","","","","","","","","","","","","","","","","","","","","","","","","","","","","","","","","","","","","","","","","","","","","","","","","","","","","","","","","","","","","","","","","","","","","","","","","","","SYN088AAXX  15124 65319 31930 50000 10315 20138 39586 40096 70522 80002 333 0//00 59010 85076;","","","","","","","","","",""
"65319099999","2005-01-15T19:00:00","10.3166667","1.3833333","461.0","NATITINGOU, BN","FM-12","4","","56","85","","||HZ","","9","38","BKN:05 256","29.77","28.26","1.86","67","000","","0","","","","","","","","","","","","","","","","","","","","","","","","","","","","","","","","","","","","","","","","","","","","","","","","","","","","","","","","","","","","","","","","","","","","","","","","","","","","","","","","","","","","","","","","","","","SYN088AAXX  15184 65319 31930 50000 10292 20134 39569 40081 70522 80002 333 10350 59011 85076;","","","","","","","","","",""
"65319099999","2005-01-16T01:00:00","10.3166667","1.3833333","461.0","NATITINGOU, BN","FM-12","4","","44","70","","||HZ","","9","40","BKN:05 256","29.80","28.30","3.73","56","000","","0","","","","","","","","","","","","","","","","","","","","","","","","","","","","","","","","","","","","","","","","","","","","","","","","","","","","","","","","","","","","","","","","","","","","","","","","","","","","","","","","","","","","","","","","","","","SYN088AAXX  16004 65319 31956 50000 10210 20068 39582 40091 705// 80002 333 0//00 59010 85076;","","","","","","","","","",""
"65319099999","2005-01-16T07:00:00","10.3166667","1.3833333","461.0","NATITINGOU, BN","FM-12","4","","42","69","","||HZ","","9","37","","29.79","28.28","3.73","55","020","","5","","","","","","","","","","","","","","","","","","","","","","","","","","","","","","","","","","","","","","","","","","","","","","","","","","","","","","","","","","","","","","","","","","","","","","","","","","","","","","","","","","","","","","","","","","","SYN106AAXX  16064 65319 31956 50204 10208 20056 39577 40088 70522 80002 333 01300 20200 50614 55074 59013 85076;","","","","","","","","","",""
"65319099999","2005-01-16T13:00:00","10.3166667","1.3833333","461.0","NATITINGOU, BN","FM-12","4","","44","85","","","","9","23","BKN:07 256","29.83","28.29","4.97","62","080","","5","","","","","","","","","","","","","","","","","","","","","","","","","","","","","","","","","","","","","","","","","","","","","","","","","","","","","","","","","","","","","","","","","","","","","","","","","","","","","","","","","","","","","","","","","","","SYN082AAXX  16124 65319 32958 70804 10297 20065 39581 40100 80008 333 0//00 59008 87276;","","","","","","","","","",""
"65319099999","2005-01-16T19:00:00","10.3166667","1.3833333","461.0","NATITINGOU, BN","FM-12","4","","67","77","","||HZ","","9","70","BKN:05 256","29.69","28.23","2.86","70","000","","0","","","","","","","","","","","","","","","","","","","","","","","","","","","","","","","","","","","","","","","","","","","","","","","","","","","","","","","","","","","","","","","","","","","","","","","","","","","","","","","","","","","","","","","","","","","SYN088AAXX  16184 65319 31946 50000 10250 20192 39561 40053 70522 80002 333 10332 59008 85076;","","","","","","","","","",""
"65319099999","2005-01-17T01:00:00","10.3166667","1.3833333","461.0","NATITINGOU, BN","FM-12","4","","46","67","","||HZ","","9","47","BKN:05 256","29.82","28.30","3.73","56","000","","0","","","","","","","","","","","","","","","","","","","","","","","","","","","","","","","","","","","","","","","","","","","","","","","","","","","","","","","","","","","","","","","","","","","","","","","","","","","","","","","","","","","","","","","","","","","SYN088AAXX  17004 65319 31956 50000 10194 20077 39585 40097 705// 80002 333 0//00 58003 85076;","","","","","","","","","",""
"65319099999","2005-01-17T07:00:00","10.3166667","1.3833333","461.0","NATITINGOU, BN","FM-12","4","","40","69","","||HZ","","9","35","","29.83","28.31","3.11","54","040","","5","","","","","","","","","","","","","","","","","","","","","","","","","","","","","","","","","","","","","","","","","","","","","","","","","","","","","","","","","","","","","","","","","","","","","","","","","","","","","","","","","","","","","","","","","","","SYN106AAXX  17064 65319 31950 50404 10206 20044 39587 40100 70522 80002 333 01400 20184 50664 55039 58010 85076;","","","","","","","","","",""
"65319099999","2005-01-17T13:00:00","10.3166667","1.3833333","461.0","NATITINGOU, BN","FM-12","4","","48","87","","||HZ","","9","26","BKN:05 256","29.86","","3.11","","020","","7","","","","","","","","","","","","","","","","","","","","","","","","","","","","","","","","","","","","","","","","","","","","","","","","","","","","","","","","","","","","","","","","","","","","","","","","","","","","","","","","","","","","","","","","","","","SYN088AAXX  17124 65319 31950 50206 10305 20090 39699 40111 70522 80002 333 0//00 58018 85076;","","","","","","","","","",""
"65319099999","2005-01-17T19:00:00","10.3166667","1.3833333","461.0","NATITINGOU, BN","FM-12","4","","52","84","","||HZ","","9","33","BKN:05 256","29.80","28.29","3.11","65","000","","0","","","","","","","","","","","","","","","","","","","","","","","","","","","","","","","","","","","","","","","","","","","","","","","","","","","","","","","","","","","","","","","","","","","","","","","","","","","","","","","","","","","","","","","","","","","SYN088AAXX  17184 65319 31950 50000 10290 20113 39581 40092 70522 80002 333 10342 58020 85076;","","","","","","","","","",""
"65319099999","2005-01-18T01:00:00","10.3166667","1.3833333","461.0","NATITINGOU, BN","FM-12","4","","41","74","","||HZ","","9","31","BKN:05 256","29.88","28.37","3.11","56","040","","7","","","","","","","","","","","","","","","","","","","","","","","","","","","","","","","","","","","","","","","","","","","","","","","","","","","","","","","","","","","","","","","","","","","","","","","","","","","","","","","","","","","","","","","","","","","SYN088AAXX  18004 65319 31950 50406 10235 20052 39608 40117 705// 80002 333 0//00 58013 85076;","","","","","","","","","",""
"65319099999","2005-01-18T07:00:00","10.3166667","1.3833333","461.0","NATITINGOU, BN","FM-12","4","","39","68","","||HZ","","9","34","","29.87","28.35","3.11","53","360","","7","","","","","","","","","","","","","","","","","","","","","","","","","","","","","","","","","","","","","","","","","","","","","","","","","","","","","","","","","","","","","","","","","","","","","","","","","","","","","","","","","","","","","","","","","","","SYN106AAXX  18064 65319 31950 53606 10200 20038 39602 40115 70522 80002 333 01400 20197 50704 55087 58015 85076;","","","","","","","","","",""
"65319099999","2005-01-18T13:00:00","10.3166667","1.3833333","461.0","NATITINGOU, BN","FM-12","4","","45","87","","||HZ","","9","23","BKN:05 256","29.86","28.36","3.11","63","120","","9","","","","","","","","","","","","","","","","","","","","","","","","","","","","","","","","","","","","","","","","","","","","","","","","","","","","","","","","","","","","","","","","","","","","","","","","","","","","","","","","","","","","","","","","","","","SYN088AAXX  18124 65319 31950 51208 10305 20073 39604 40113 70522 80002 333 0//00 58005 85076;","","","","","","","","","",""
"65319099999","2005-01-18T19:00:00","10.3166667","1.3833333","461.0","NATITINGOU, BN","FM-12","4","","51","84","","||HZ","","9","32","BKN:05 256","29.80","28.28","3.73","64","040","","2","","","","","","","","","","","","","","","","","","","","","","","","","","","","","","","","","","","","","","","","","","","","","","","","","","","","","","","","","","","","","","","","","","","","","","","","","","","","","","","","","","","","","","","","","","","SYN088AAXX  18184 65319 31956 50402 10288 20103 39578 40090 70522 80002 333 10330 59003 85076;","","","","","","","","","",""
"65319099999","2005-01-19T01:00:00","10.3166667","1.3833333","461.0","NATITINGOU, BN","FM-12","4","","47","69","","","","9","46","BKN:05 256","29.88","28.36","4.97","57","000","","0","","","","","","","","","","","","","","","","","","","","","","","","","","","","","","","","","","","","","","","","","","","","","","","","","","","","","","","","","","","","","","","","","","","","","","","","","","","","","","","","","","","","","","","","","","","SYN082AAXX  19004 65319 33958 50000 10207 20086 39605 40117 80002 333 0//00 59003 85076;","","","","","","","","","",""
"65319099999","2005-01-19T07:00:00","10.3166667","1.3833333","461.0","NATITINGOU, BN","FM-12","4","","38","68","","||HZ","","9","34","","29.84","28.33","3.73","53","040","","5","","","","","","","","","","","","","","","","","","","","","","","","","","","","","","","","","","","","","","","","","","","","","","","","","","","","","","","","","","","","","","","","","","","","","","","","","","","","","","","","","","","","","","","","","","","SYN106AAXX  19064 65319 31956 50404 10200 20036 39593 40106 70522 80002 333 01700 20185 50694 55095 59009 85076;","","","","","","","","","",""
"65319099999","2005-01-19T13:00:00","10.3166667","1.3833333","461.0","NATITINGOU, BN","FM-12","4","","47","89","","","","9","24","BKN:05 256","29.81","28.31","4.97","64","080","","5","","","","","","","","","","","","","","","","","","","","","","","","","","","","","","","","","","","","","","","","","","","","","","","","","","","","","","","","","","","","","","","","","","","","","","","","","","","","","","","","","","","","","","","","","","","SYN082AAXX  19124 65319 32958 50804 10316 20086 39586 40096 80002 333 0//00 59016 85076;","","","","","","","","","",""
"65319099999","2005-01-19T19:00:00","10.3166667","1.3833333","461.0","NATITINGOU, BN","FM-12","4","","65","84","","","","9","52","BKN:05 256","29.75","28.24","3.73","71","000","","0","","","","","","","","","","","","","","","","","","","","","","","","","","","","","","","","","","","","","","","","","","","","","","","","","","","","","","","","","","","","","","","","","","","","","","","","","","","","","","","","","","","","","","","","","","","SYN082AAXX  19184 65319 32956 50000 10290 20182 39563 40074 80002 333 10350 59015 85076;","","","","","","","","","",""
"65319099999","2005-01-20T01:00:00","10.3166667","1.3833333","461.0","NATITINGOU, BN","FM-12","4","","40","71","","","","9","32","BKN:05 256","29.80","28.30","4.97","55","020","","5","","","","","","","","","","","","","","","","","","","","","","","","","","","","","","","","","","","","","","","","","","","","","","","","","","","","","","","","","","","","","","","","","","","","","","","","","","","","","","","","","","","","","","","","","","","SYN082AAXX  20004 65319 33958 50204 10219 20042 39585 40093 80002 333 0//00 59020 85076;","","","","","","","","","",""
"65319099999","2005-01-20T07:00:00","10.3166667","1.3833333","461.0","NATITINGOU, BN","FM-12","4","","39","67","","","","9","36","","29.80","28.29","4.97","53","020","","5","","","","","","","","","","","","","","","","","","","","","","","","","","","","","","","","","","","","","","","","","","","","","","","","","","","","","","","","","","","","","","","","","","","","","","","","","","","","","","","","","","","","","","","","","","","SYN100AAXX  20064 65319 32958 50204 10194 20040 39579 40092 80002 333 01400 20182 50744 55102 59014 85076;","","","","","","","","","",""
"65319099999","2005-01-20T13:00:00","10.3166667","1.3833333","461.0","NATITINGOU, BN","FM-12","4","","45","90","","","","9","21","BKN:05 256","29.80","28.30","4.97","64","000","","0","","","","","","","","","","","","","","","","","","","","","","","","","","","","","","","","","","","","","","","","","","","","","","","","","","","","","","","","","","","","","","","","","","","","","","","","","","","","","","","","","","","","","","","","","","","SYN082AAXX  20124 65319 32958 50000 10320 20071 39582 40090 80002 333 0//00 59004 85076;","","","","","","","","","",""
"65319099999","2005-01-20T19:00:00","10.3166667","1.3833333","461.0","NATITINGOU, BN","FM-12","4","","55","86","","","","9","35","BKN:05 256","29.76","28.25","4.97","67","000","","0","","","","","","","","","","","","","","","","","","","","","","","","","","","","","","","","","","","","","","","","","","","","","","","","","","","","","","","","","","","","","","","","","","","","","","","","","","","","","","","","","","","","","","","","","","","SYN082AAXX  20184 65319 32958 50000 10300 20128 39567 40078 80002 333 10345 58004 85076;","","","","","","","","","",""
"65319099999","2005-01-21T01:00:00","10.3166667","1.3833333","461.0","NATITINGOU, BN","FM-12","4","","37","73","","","","9","27","BKN:05 256","29.82","28.32","4.97","54","360","","7","","","","","","","","","","","","","","","","","","","","","","","","","","","","","","","","","","","","","","","","","","","","","","","","","","","","","","","","","","","","","","","","","","","","","","","","","","","","","","","","","","","","","","","","","","","SYN082AAXX  21004 65319 33958 53606 10230 20028 39590 40098 80002 333 0//00 58005 85076;","","","","","","","","","",""
"65319099999","2005-01-21T07:00:00","10.3166667","1.3833333","461.0","NATITINGOU, BN","FM-12","4","","38","67","","","","9","35","","29.80","28.29","4.97","52","000","","0","","","","","","","","","","","","","","","","","","","","","","","","","","","","","","","","","","","","","","","","","","","","","","","","","","","","","","","","","","","","","","","","","","","","","","","","","","","","","","","","","","","","","","","","","","","SYN100AAXX  21064 65319 32958 50000 10192 20034 39580 40092 80002 333 01300 20187 50814 55099 58001 85076;","","","","","","","","","",""
"65319099999","2005-01-21T13:00:00","10.3166667","1.3833333","461.0","NATITINGOU, BN","FM-12","4","","51","91","","","","9","26","BKN:05 256","29.80","28.30","4.97","66","360","","7","","","","","","","","","","","","","","","","","","","","","","","","","","","","","","","","","","","","","","","","","","","","","","","","","","","","","","","","","","","","","","","","","","","","","","","","","","","","","","","","","","","","","","","","","","","SYN082AAXX  21124 65319 32958 53606 10330 20108 39584 40090 80002 333 0//00 58002 85076;","","","","","","","","","",""
"65319099999","2005-01-21T19:00:00","10.3166667","1.3833333","461.0","NATITINGOU, BN","FM-12","4","","52","87","","","","9","30","BKN:05 256","29.77","28.26","4.97","66","000","","0","","","","","","","","","","","","","","","","","","","","","","","","","","","","","","","","","","","","","","","","","","","","","","","","","","","","","","","","","","","","","","","","","","","","","","","","","","","","","","","","","","","","","","","","","","","SYN082AAXX  21184 65319 32958 50000 10305 20112 39571 40082 80002 333 10355 58004 85076;","","","","","","","","","",""
"65319099999","2005-01-22T01:00:00","10.3166667","1.3833333","461.0","NATITINGOU, BN","FM-12","4","","43","71","","","","9","37","BKN:07 256","29.83","28.33","4.97","56","000","","0","","","","","","","","","","","","","","","","","","","","","","","","","","","","","","","","","","","","","","","","","","","","","","","","","","","","","","","","","","","","","","","","","","","","","","","","","","","","","","","","","","","","","","","","","","","SYN082AAXX  22004 65319 33958 70000 10215 20062 39594 40102 80006 333 0//00 58004 87276;","","","","","","","","","",""
"65319099999","2005-01-22T07:00:00","10.3166667","1.3833333","461.0","NATITINGOU, BN","FM-12","4","","36","70","","","","9","29","","29.81","28.30","4.97","53","040","","11","","","","","","","","","","","","","","","","","","","","","","","","","","","","","","","","","","","","","","","","","","","","","","","","","","","","","","","","","","","","","","","","","","","","","","","","","","","","","","","","","","","","","","","","","","","SYN100AAXX  22064 65319 32958 50410 10210 20024 39584 40094 80002 333 01500 20207 50544 55107 58004 85076;","","","","","","","","","",""
"65319099999","2005-01-22T13:00:00","10.3166667","1.3833333","461.0","NATITINGOU, BN","FM-12","4","","47","87","","||HZ","","9","25","BKN:07 256","29.83","28.33","2.98","63","040","","7","","","","","","","","","","","","","","","","","","","","","","","","","","","","","","","","","","","","","","","","","","","","","","","","","","","","","","","","","","","","","","","","","","","","","","","","","","","","","","","","","","","","","","","","","","","SYN088AAXX  22124 65319 31948 70406 10304 20085 39592 40102 70522 80008 333 0//00 58008 87276;","","","","","","","","","",""
"65319099999","2005-01-22T19:00:00","10.3166667","1.3833333","461.0","NATITINGOU, BN","FM-12","4","","56","84","","||HZ","","9","38","BKN:07 256","29.77","28.26","3.73","66","000","","0","","","","","","","","","","","","","","","","","","","","","","","","","","","","","","","","","","","","","","","","","","","","","","","","","","","","","","","","","","","","","","","","","","","","","","","","","","","","","","","","","","","","","","","","","","","SYN088AAXX  22184 65319 31956 70000 10290 20133 39570 40081 70522 80008 333 10347 59001 87276;","","","","","","","","","",""
"65319099999","2005-01-23T01:00:00","10.3166667","1.3833333","461.0","NATITINGOU, BN","FM-12","4","","44","85","","||HZ","","9","24","BKN:05 256","29.88","28.38","3.73","62","020","","5","","","","","","","","","","","","","","","","","","","","","","","","","","","","","","","","","","","","","","","","","","","","","","","","","","","","","","","","","","","","","","","","","","","","","","","","","","","","","","","","","","","","","","","","","","","SYN088AAXX  23004 65319 31956 50204 10297 20069 39609 40119 705// 80002 333 0//00 58015 85076;","","","","","","","","","",""
"65319099999","2005-01-23T13:00:00","10.3166667","1.3833333","461.0","NATITINGOU, BN","FM-12","4","","56","90","","||HZ","","9","32","BKN:05 256","29.87","28.37","3.73","68","000","","0","","","","","","","","","","","","","","","","","","","","","","","","","","","","","","","","","","","","","","","","","","","","","","","","","","","","","","","","","","","","","","","","","","","","","","","","","","","","","","","","","","","","","","","","","","","SYN088AAXX  23124 65319 31956 50000 10320 20132 39606 40114 70522 80002 333 0//00 58014 85076;","","","","","","","","","",""
"65319099999","2005-01-23T19:00:00","10.3166667","1.3833333","461.0","NATITINGOU, BN","FM-12","4","","59","87","","||HZ","","9","38","BKN:05 256","29.80","28.30","3.11","69","000","","0","","","","","","","","","","","","","","","","","","","","","","","","","","","","","","","","","","","","","","","","","","","","","","","","","","","","","","","","","","","","","","","","","","","","","","","","","","","","","","","","","","","","","","","","","","","SYN088AAXX  23184 65319 31950 50000 10305 20148 39582 40093 70522 80002 333 10350 58012 85076;","","","","","","","","","",""
"65319099999","2005-01-24T01:00:00","10.3166667","1.3833333","461.0","NATITINGOU, BN","FM-12","4","","46","72","","||HZ","","9","38","BKN:05 256","29.86","28.36","3.11","58","000","","0","","","","","","","","","","","","","","","","","","","","","","","","","","","","","","","","","","","","","","","","","","","","","","","","","","","","","","","","","","","","","","","","","","","","","","","","","","","","","","","","","","","","","","","","","","","SYN088AAXX  24004 65319 31950 50000 10225 20076 39603 40111 705// 80002 333 0//00 59006 85076;","","","","","","","","","",""
"65319099999","2005-01-24T07:00:00","10.3166667","1.3833333","461.0","NATITINGOU, BN","FM-12","4","","47","66","","||HZ","","9","50","","29.86","28.35","3.11","56","000","","0","","","","","","","","","","","","","","","","","","","","","","","","","","","","","","","","","","","","","","","","","","","","","","","","","","","","","","","","","","","","","","","","","","","","","","","","","","","","","","","","","","","","","","","","","","","SYN106AAXX  24064 65319 31950 50000 10190 20084 39601 40113 70522 80002 333 01800 20190 50744 55093 59011 85076;","","","","","","","","","",""
"65319099999","2005-01-24T19:00:00","10.3166667","1.3833333","461.0","NATITINGOU, BN","FM-12","4","","65","87","","||HZ","","9","48","BKN:05 256","29.81","28.30","3.73","72","000","","0","","","","","","","","","","","","","","","","","","","","","","","","","","","","","","","","","","","","","","","","","","","","","","","","","","","","","","","","","","","","","","","","","","","","","","","","","","","","","","","","","","","","","","","","","","","SYN088AAXX  24184 65319 31956 50000 10307 20184 39585 40096 70522 80002 333 10365 58003 85076;","","","","","","","","","",""
"65319099999","2005-01-25T01:00:00","10.3166667","1.3833333","461.0","NATITINGOU, BN","FM-12","4","","49","74","","||HZ","","9","41","BKN:05 256","29.84","28.35","3.73","60","000","","0","","","","","","","","","","","","","","","","","","","","","","","","","","","","","","","","","","","","","","","","","","","","","","","","","","","","","","","","","","","","","","","","","","","","","","","","","","","","","","","","","","","","","","","","","","","SYN088AAXX  25004 65319 31956 50000 10234 20092 39599 40105 705// 80002 333 0//00 59004 85076;","","","","","","","","","",""
"65319099999","2005-01-25T07:00:00","10.3166667","1.3833333","461.0","NATITINGOU, BN","FM-12","4","","45","72","","||HZ","","9","38","","29.84","28.33","3.73","57","000","","0","","","","","","","","","","","","","","","","","","","","","","","","","","","","","","","","","","","","","","","","","","","","","","","","","","","","","","","","","","","","","","","","","","","","","","","","","","","","","","","","","","","","","","","","","","","SYN106AAXX  25064 65319 31956 50000 10220 20070 39595 40104 70522 80002 333 01400 20215 50784 55093 59006 85076;","","","","","","","","","",""
"65319099999","2005-01-25T19:00:00","10.3166667","1.3833333","461.0","NATITINGOU, BN","FM-12","4","","63","87","","||HZ","","9","45","SCT:04 108","29.82","28.32","3.11","71","000","","0","","","","","","","","","","","","","","","","","","","","","","","","","","","","","","","","","","","","","","","","","","","","","","","","","","","","","","","","","","","","","","","","","","","","","","","","","","","","","","","","","","","","","","","","","","","SYN094AAXX  25184 65319 31950 70000 10305 20173 39590 40099 70522 84032 333 10373 58005 84361 84076;","","","","","","","","","",""
"65319099999","2005-01-26T01:00:00","10.3166667","1.3833333","461.0","NATITINGOU, BN","FM-12","4","","50","77","","||HZ","","9","40","SCT:04 108","29.88","28.38","3.73","61","000","","0","","","","","","","","","","","","","","","","","","","","","","","","","","","","","","","","","","","","","","","","","","","","","","","","","","","","","","","","","","","","","","","","","","","","","","","","","","","","","","","","","","","","","","","","","","","SYN094AAXX  26004 65319 31956 70000 10249 20102 39612 40117 705// 83032 333 0//00 58013 84361 85076;","","","","","","","","","",""
"65319099999","2005-01-26T13:00:00","10.3166667","1.3833333","461.0","NATITINGOU, BN","FM-12","4","","46","96","","||HZ","","9","18","BKN:05 256","29.83","28.34","3.73","66","120","","14","","","","","","","","","","","","","","","","","","","","","","","","","","","","","","","","","","","","","","","","","","","","","","","","","","","","","","","","","","","","","","","","","","","","","","","","","","","","","","","","","","","","","","","","","","","SYN088AAXX  26124 65319 31956 51212 10357 20076 39598 40101 70522 80002 333 0//00 59010 85076;","","","","","","","","","",""
"65319099999","2005-01-26T19:00:00","10.3166667","1.3833333","461.0","NATITINGOU, BN","FM-12","4","","59","91","","||HZ","","9","34","BKN:05 108","29.76","28.27","3.73","70","000","","0","","","","","","","","","","","","","","","","","","","","","","","","","","","","","","","","","","","","","","","","","","","","","","","","","","","","","","","","","","","","","","","","","","","","","","","","","","","","","","","","","","","","","","","","","","","SYN094AAXX  26184 65319 31956 70000 10330 20150 39572 40077 70522 85032 333 10380 58018 85361 83076;","","","","","","","","","",""
"65319099999","2005-01-27T01:00:00","10.3166667","1.3833333","461.0","NATITINGOU, BN","FM-12","4","","51","76","","","","9","43","BKN:05 256","29.80","28.32","4.97","61","000","","0","","","","","","","","","","","","","","","","","","","","","","","","","","","","","","","","","","","","","","","","","","","","","","","","","","","","","","","","","","","","","","","","","","","","","","","","","","","","","","","","","","","","","","","","","","","SYN082AAXX  27004 65319 33958 50000 10242 20108 39589 40092 80002 333 0//00 59023 85076;","","","","","","","","","",""
"65319099999","2005-01-27T07:00:00","10.3166667","1.3833333","461.0","NATITINGOU, BN","FM-12","4","","50","71","","","","9","47","","29.78","28.31","4.97","59","000","","0","","","","","","","","","","","","","","","","","","","","","","","","","","","","","","","","","","","","","","","","","","","","","","","","","","","","","","","","","","","","","","","","","","","","","","","","","","","","","","","","","","","","","","","","","","","SYN100AAXX  27064 65319 32958 50000 10215 20098 39586 40083 80002 333 01900 20210 50674 55094 59013 85076;","","","","","","","","","",""
"65319099999","2005-01-27T13:00:00","10.3166667","1.3833333","461.0","NATITINGOU, BN","FM-12","4","","68","95","","","","9","41","BKN:05 256","29.78","28.29","4.97","76","220","","5","","","","","","","","","","","","","","","","","","","","","","","","","","","","","","","","","","","","","","","","","","","","","","","","","","","","","","","","","","","","","","","","","","","","","","","","","","","","","","","","","","","","","","","","","","","SYN082AAXX  27124 65319 32958 52204 10352 20200 39580 40084 80002 333 0//00 59018 85076;","","","","","","","","","",""
"65319099999","2005-01-28T07:00:00","10.3166667","1.3833333","461.0","NATITINGOU, BN","FM-12","4","","69","74","","||RA","","9","84","FEW:02 13 FEW:01 30 BKN:07 108","29.80","28.31","4.97","71","000","","0","","","","","","","","","","","","","","","","","","","","","","","","","","","","","","","","","","","","","","","","","","","","","","","","","","","","","","","","","","","","","","","","","","","","","","","","","","","","","","","","","","","","","","","","","","","SYN136AAXX  28064 65319 11458 70000 10235 20206 39586 40091 60044 76196 8297/ 333 01800 20230 50514 55074 58000 82613 81930 87461 94947 95837;","","","","","","","","","",""
"65319099999","2005-01-28T13:00:00","10.3166667","1.3833333","461.0","NATITINGOU, BN","FM-12","4","","69","81","","","","9","68","BKN:07 108","29.85","28.35","4.97","73","360","","5","","","","","","","","","","","","","","","","","","","","","","","","","","","","","","","","","","","","","","","","","","","","","","","","","","","","","","","","","","","","","","","","","","","","","","","","","","","","","","","","","","","","","","","","","","","SYN094AAXX  28124 65319 11958 73604 10272 20207 39601 40109 69921 70266 8703/ 333 0//00 58021 87361;","","","","","","","","","",""
"65319099999","2005-01-28T19:00:00","10.3166667","1.3833333","461.0","NATITINGOU, BN","FM-12","4","","67","82","","","","9","60","BKN:07 108","29.78","28.27","4.97","72","000","","0","","","","","","","","","","","","","","","","","","","","","","","","","","","","","","","","","","","","","","","","","","","","","","","","","","","","","","","","","","","","","","","","","","","","","","","","","","","","","","","","","","","","","","","","","","","SYN088AAXX  28184 65319 12958 70000 10280 20195 39574 40083 60042 8703/ 333 10312 58019 87361;","","","","","","","","","",""
"65319099999","2005-01-29T07:00:00","10.3166667","1.3833333","461.0","NATITINGOU, BN","FM-12","4","","58","70","","","","9","66","","29.82","28.30","6.21","63","000","","0","","","","","","","","","","","","","","","","","","","","","","","","","","","","","","","","","","","","","","","","","","","","","","","","","","","","","","","","","","","","","","","","","","","","","","","","","","","","","","","","","","","","","","","","","","","SYN106AAXX  29064 65319 12960 70000 10210 20144 39585 40097 69924 8703/ 333 02051 20206 50254 55016 59001 87361;","","","","","","","","","",""
"65319099999","2005-01-29T19:00:00","10.3166667","1.3833333","461.0","NATITINGOU, BN","FM-12","4","","55","89","","","","9","32","BKN:05 108","29.74","28.24","4.97","68","360","","2","","","","","","","","","","","","","","","","","","","","","","","","","","","","","","","","","","","","","","","","","","","","","","","","","","","","","","","","","","","","","","","","","","","","","","","","","","","","","","","","","","","","","","","","","","","SYN088AAXX  29184 65319 32958 73602 10315 20128 39564 40072 85032 333 10360 59010 85361 83076;","","","","","","","","","",""
"65319099999","2005-01-30T01:00:00","10.3166667","1.3833333","461.0","NATITINGOU, BN","FM-12","4","","49","77","","","","9","37","BKN:05 256","29.79","28.30","4.97","61","360","","5","","","","","","","","","","","","","","","","","","","","","","","","","","","","","","","","","","","","","","","","","","","","","","","","","","","","","","","","","","","","","","","","","","","","","","","","","","","","","","","","","","","","","","","","","","","SYN082AAXX  30004 65319 33958 53604 10250 20092 39585 40089 80002 333 0//00 59005 85076;","","","","","","","","","",""
"65319099999","2005-01-30T07:00:00","10.3166667","1.3833333","461.0","NATITINGOU, BN","FM-12","4","","42","73","","","","9","33","","29.80","28.30","4.97","56","360","","7","","","","","","","","","","","","","","","","","","","","","","","","","","","","","","","","","","","","","","","","","","","","","","","","","","","","","","","","","","","","","","","","","","","","","","","","","","","","","","","","","","","","","","","","","","","SYN100AAXX  30064 65319 32958 53606 10230 20058 39584 40092 80002 333 01900 20225 50754 55059 59001 85076;","","","","","","","","","",""
"65319099999","2005-01-30T13:00:00","10.3166667","1.3833333","461.0","NATITINGOU, BN","FM-12","4","","46","94","","","","9","19","BKN:05 256","29.78","28.29","4.97","65","080","","5","","","","","","","","","","","","","","","","","","","","","","","","","","","","","","","","","","","","","","","","","","","","","","","","","","","","","","","","","","","","","","","","","","","","","","","","","","","","","","","","","","","","","","","","","","","SYN082AAXX  30124 65319 32958 50804 10345 20080 39581 40083 80002 333 0//00 58000 85076;","","","","","","","","","",""
"65319099999","2005-01-30T19:00:00","10.3166667","1.3833333","461.0","NATITINGOU, BN","FM-12","4","","54","90","","","","9","29","BKN:05 256","29.67","28.24","4.97","67","000","","0","","","","","","","","","","","","","","","","","","","","","","","","","","","","","","","","","","","","","","","","","","","","","","","","","","","","","","","","","","","","","","","","","","","","","","","","","","","","","","","","","","","","","","","","","","","SYN082AAXX  30184 65319 32958 50000 10322 20122 39564 40046 80002 333 10365 58000 85076;","","","","","","","","","",""
"65319099999","2005-01-31T01:00:00","10.3166667","1.3833333","461.0","NATITINGOU, BN","FM-12","4","","46","76","","","","9","35","BKN:05 256","29.77","28.28","4.97","59","040","","5","","","","","","","","","","","","","","","","","","","","","","","","","","","","","","","","","","","","","","","","","","","","","","","","","","","","","","","","","","","","","","","","","","","","","","","","","","","","","","","","","","","","","","","","","","","SYN082AAXX  31004 65319 33958 50404 10247 20080 39577 40080 80002 333 0//00 59008 85076;","","","","","","","","","",""
"65319099999","2005-01-31T07:00:00","10.3166667","1.3833333","461.0","NATITINGOU, BN","FM-12","4","","43","75","","","","9","31","","29.74","28.25","4.97","57","000","","0","","","","","","","","","","","","","","","","","","","","","","","","","","","","","","","","","","","","","","","","","","","","","","","","","","","","","","","","","","","","","","","","","","","","","","","","","","","","","","","","","","","","","","","","","","","SYN100AAXX  31064 65319 32958 50000 10240 20060 39567 40072 80002 333 01700 20235 50914 55096 59017 85076;","","","","","","","","","",""
"65319099999","2005-01-31T13:00:00","10.3166667","1.3833333","461.0","NATITINGOU, BN","FM-12","4","","41","96","","","","9","15","BKN:05 256","29.78","28.30","4.97","64","360","","7","","","","","","","","","","","","","","","","","","","","","","","","","","","","","","","","","","","","","","","","","","","","","","","","","","","","","","","","","","","","","","","","","","","","","","","","","","","","","","","","","","","","","","","","","","","SYN082AAXX  31124 65319 32958 53606 10357 20050 39582 40085 80002 333 0//00 58001 85076;","","","","","","","","","",""
"65319099999","2005-01-31T19:00:00","10.3166667","1.3833333","461.0","NATITINGOU, BN","FM-12","4","","57","91","","","","9","32","BKN:05 256","29.73","28.25","4.97","69","000","","0","","","","","","","","","","","","","","","","","","","","","","","","","","","","","","","","","","","","","","","","","","","","","","","","","","","","","","","","","","","","","","","","","","","","","","","","","","","","","","","","","","","","","","","","","","","SYN082AAXX  31184 65319 32958 50000 10329 20139 39565 40069 80002 333 10376 58001 85076;","","","","","","","","","",""
"65319099999","2005-02-01T01:00:00","10.3166667","1.3833333","461.0","NATITINGOU, BN","FM-12","4","","49","75","","","","9","40","BKN:05 256","29.80","28.32","4.97","60","000","","0","","","","","","","","","","","","","","","","","","","","","","","","","","","","","","","","","","","","","","","","","","","","","","","","","","","","","","","","","","","","","","","","","","","","","","","","","","","","","","","","","","","","","","","","","","","SYN082AAXX  01004 65319 33958 50000 10239 20095 39589 40092 80002 333 0//00 58012 85076;","","","","","","","","","",""
"65319099999","2005-02-01T07:00:00","10.3166667","1.3833333","461.0","NATITINGOU, BN","FM-12","4","","37","74","","","","9","26","","29.78","28.29","6.21","55","020","","5","","","","","","","","","","","","","","","","","","","","","","","","","","","","","","","","","","","","","","","","","","","","","","","","","","","","","","","","","","","","","","","","","","","","","","","","","","","","","","","","","","","","","","","","","","","SYN100AAXX  01064 65319 32960 70204 10234 20029 39580 40085 80006 333 01900 20222 50894 55093 58013 87276;","","","","","","","","","",""
"65319099999","2005-02-01T13:00:00","10.3166667","1.3833333","461.0","NATITINGOU, BN","FM-12","4","","41","93","","||HZ","","9","16","BKN:05 256","29.77","28.28","3.73","63","040","","11","","","","","","","","","","","","","","","","","","","","","","","","","","","","","","","","","","","","","","","","","","","","","","","","","","","","","","","","","","","","","","","","","","","","","","","","","","","","","","","","","","","","","","","","","","","SYN088AAXX  01124 65319 31956 50410 10340 20048 39577 40081 70522 80002 333 0//00 59005 85076;","","","","","","","","","",""
"65319099999","2005-02-01T19:00:00","10.3166667","1.3833333","461.0","NATITINGOU, BN","FM-12","4","","54","90","","||HZ","","9","29","BKN:05 256","29.71","28.22","3.73","67","000","","0","","","","","","","","","","","","","","","","","","","","","","","","","","","","","","","","","","","","","","","","","","","","","","","","","","","","","","","","","","","","","","","","","","","","","","","","","","","","","","","","","","","","","","","","","","","SYN088AAXX  01184 65319 31956 50000 10325 20120 39556 40061 70522 80002 333 10362 59009 85076;","","","","","","","","","",""
"65319099999","2005-02-02T01:00:00","10.3166667","1.3833333","461.0","NATITINGOU, BN","FM-12","4","","49","78","","||HZ","","9","37","BKN:05 256","29.75","28.27","3.11","61","000","","0","","","","","","","","","","","","","","","","","","","","","","","","","","","","","","","","","","","","","","","","","","","","","","","","","","","","","","","","","","","","","","","","","","","","","","","","","","","","","","","","","","","","","","","","","","","SYN088AAXX  02004 65319 31950 50000 10255 20096 39574 40076 705// 80002 333 0//00 59015 85076;","","","","","","","","","",""
"65319099999","2005-02-02T07:00:00","10.3166667","1.3833333","461.0","NATITINGOU, BN","FM-12","4","","49","76","","||HZ","","9","39","","29.76","28.27","3.11","60","360","","5","","","","","","","","","","","","","","","","","","","","","","","","","","","","","","","","","","","","","","","","","","","","","","","","","","","","","","","","","","","","","","","","","","","","","","","","","","","","","","","","","","","","","","","","","","","SYN106AAXX  02064 65319 31950 53604 10243 20096 39573 40078 70522 80002 333 01700 20232 50794 55095 59007 85076;","","","","","","","","","",""
"65319099999","2005-02-02T13:00:00","10.3166667","1.3833333","461.0","NATITINGOU, BN","FM-12","4","","47","95","","||HZ","","9","19","BKN:05 256","29.76","28.27","2.49","66","080","","9","","","","","","","","","","","","","","","","","","","","","","","","","","","","","","","","","","","","","","","","","","","","","","","","","","","","","","","","","","","","","","","","","","","","","","","","","","","","","","","","","","","","","","","","","","","SYN088AAXX  02124 65319 31940 50808 10348 20083 39575 40077 70522 80002 333 0//00 59002 85076;","","","","","","","","","",""
"65319099999","2005-02-02T19:00:00","10.3166667","1.3833333","461.0","NATITINGOU, BN","FM-12","4","","65","93","","||HZ","","9","41","BKN:05 256","29.72","28.24","2.49","74","000","","0","","","","","","","","","","","","","","","","","","","","","","","","","","","","","","","","","","","","","","","","","","","","","","","","","","","","","","","","","","","","","","","","","","","","","","","","","","","","","","","","","","","","","","","","","","","SYN088AAXX  02184 65319 31940 50000 10337 20185 39562 40066 70522 80002 333 10372 58006 85076;","","","","","","","","","",""
"65319099999","2005-02-03T01:00:00","10.3166667","1.3833333","461.0","NATITINGOU, BN","FM-12","4","","53","79","","||HZ","","9","40","BKN:05 256","29.76","28.27","3.11","63","000","","0","","","","","","","","","","","","","","","","","","","","","","","","","","","","","","","","","","","","","","","","","","","","","","","","","","","","","","","","","","","","","","","","","","","","","","","","","","","","","","","","","","","","","","","","","","","SYN088AAXX  03004 65319 31950 50000 10260 20115 39575 40077 705// 80002 333 0//00 58001 85076;","","","","","","","","","",""
"65319099999","2005-02-03T07:00:00","10.3166667","1.3833333","461.0","NATITINGOU, BN","FM-12","4","","52","75","","||HZ","","9","45","","29.77","28.28","1.24","61","000","","0","","","","","","","","","","","","","","","","","","","","","","","","","","","","","","","","","","","","","","","","","","","","","","","","","","","","","","","","","","","","","","","","","","","","","","","","","","","","","","","","","","","","","","","","","","","SYN106AAXX  03064 65319 31920 50000 10237 20112 39576 40081 70522 80002 333 01700 20235 50764 55078 58003 85076;","","","","","","","","","",""
"65319099999","2005-02-03T13:00:00","10.3166667","1.3833333","461.0","NATITINGOU, BN","FM-12","4","","54","97","","||HZ","","9","23","BKN:05 256","29.76","28.28","0.50","69","000","","0","","","","","","","","","","","","","","","","","","","","","","","","","","","","","","","","","","","","","","","","","","","","","","","","","","","","","","","","","","","","","","","","","","","","","","","","","","","","","","","","","","","","","","","","","","","SYN088AAXX  03124 65319 31908 50000 10360 20120 39576 40077 70544 80002 333 0//00 58001 85076;","","","","","","","","","",""
"65319099999","2005-02-03T19:00:00","10.3166667","1.3833333","461.0","NATITINGOU, BN","FM-12","4","","59","93","","||HZ","","9","32","BKN:05 256","29.72","28.23","1.86","71","280","","5","","","","","","","","","","","","","","","","","","","","","","","","","","","","","","","","","","","","","","","","","","","","","","","","","","","","","","","","","","","","","","","","","","","","","","","","","","","","","","","","","","","","","","","","","","","SYN088AAXX  03184 65319 31930 52804 10340 20151 39561 40065 70522 80002 333 10382 59001 85076;","","","","","","","","","",""
"65319099999","2005-02-04T01:00:00","10.3166667","1.3833333","461.0","NATITINGOU, BN","FM-12","4","","55","82","","||HZ","","9","39","BKN:05 256","29.76","28.28","2.49","65","000","","0","","","","","","","","","","","","","","","","","","","","","","","","","","","","","","","","","","","","","","","","","","","","","","","","","","","","","","","","","","","","","","","","","","","","","","","","","","","","","","","","","","","","","","","","","","","SYN088AAXX  04004 65319 31940 50000 10278 20127 39578 40077 705// 80002 333 0//00 58003 85076;","","","","","","","","","",""
"65319099999","2005-02-04T07:00:00","10.3166667","1.3833333","461.0","NATITINGOU, BN","FM-12","4","","63","77","","||HZ","","9","62","","29.76","28.28","2.49","68","180","","5","","","","","","","","","","","","","","","","","","","","","","","","","","","","","","","","","","","","","","","","","","","","","","","","","","","","","","","","","","","","","","","","","","","","","","","","","","","","","","","","","","","","","","","","","","","SYN106AAXX  04064 65319 31940 51804 10250 20172 39576 40079 70522 80002 333 02200 20245 50614 55048 58000 85076;","","","","","","","","","",""
"65319099999","2005-02-04T13:00:00","10.3166667","1.3833333","461.0","NATITINGOU, BN","FM-12","4","","62","94","","||HZ","","9","34","BKN:05 256","29.75","28.28","3.11","72","180","","5","","","","","","","","","","","","","","","","","","","","","","","","","","","","","","","","","","","","","","","","","","","","","","","","","","","","","","","","","","","","","","","","","","","","","","","","","","","","","","","","","","","","","","","","","","","SYN088AAXX  04124 65319 31950 51804 10345 20164 39576 40076 70522 80002 333 0//00 58000 85076;","","","","","","","","","",""
"65319099999","2005-02-04T19:00:00","10.3166667","1.3833333","461.0","NATITINGOU, BN","FM-12","4","","63","94","","||HZ","","9","35","BKN:05 256","29.70","28.22","3.11","73","000","","0","","","","","","","","","","","","","","","","","","","","","","","","","","","","","","","","","","","","","","","","","","","","","","","","","","","","","","","","","","","","","","","","","","","","","","","","","","","","","","","","","","","","","","","","","","","SYN088AAXX  04184 65319 31950 50000 10345 20170 39556 40057 70522 80002 333 10376 59005 85076;","","","","","","","","","",""
"65319099999","2005-02-05T01:00:00","10.3166667","1.3833333","461.0","NATITINGOU, BN","FM-12","4","","56","81","","||HZ","","9","42","BKN:05 256","29.75","28.27","3.11","65","000","","0","","","","","","","","","","","","","","","","","","","","","","","","","","","","","","","","","","","","","","","","","","","","","","","","","","","","","","","","","","","","","","","","","","","","","","","","","","","","","","","","","","","","","","","","","","","SYN088AAXX  05004 65319 31950 50000 10275 20136 39573 40073 705// 80002 333 0//00 59005 85076;","","","","","","","","","",""
"65319099999","2005-02-05T07:00:00","10.3166667","1.3833333","461.0","NATITINGOU, BN","FM-12","4","","50","77","","","","9","39","","29.73","28.25","3.11","61","000","","0","","","","","","","","","","","","","","","","","","","","","","","","","","","","","","","","","","","","","","","","","","","","","","","","","","","","","","","","","","","","","","","","","","","","","","","","","","","","","","","","","","","","","","","","","","","SYN106AAXX  05064 65319 31950 50000 10250 20102 39566 40069 72522 80002 333 02200 20245 50754 55075 59010 85076;","","","","","","","","","",""
"65319099999","2005-02-05T19:00:00","10.3166667","1.3833333","461.0","NATITINGOU, BN","FM-12","4","","59","94","","||HZ","","9","31","BKN:05 256","29.65","28.17","3.73","71","000","","0","","","","","","","","","","","","","","","","","","","","","","","","","","","","","","","","","","","","","","","","","","","","","","","","","","","","","","","","","","","","","","","","","","","","","","","","","","","","","","","","","","","","","","","","","","","SYN088AAXX  05184 65319 31956 50000 10345 20150 39540 40041 70522 80002 333 10395 58025 85076;","","","","","","","","","",""
"65319099999","2005-02-06T01:00:00","10.3166667","1.3833333","461.0","NATITINGOU, BN","FM-12","4","","55","81","","||HZ","","9","41","BKN:05 256","29.71","28.24","3.73","65","000","","0","","","","","","","","","","","","","","","","","","","","","","","","","","","","","","","","","","","","","","","","","","","","","","","","","","","","","","","","","","","","","","","","","","","","","","","","","","","","","","","","","","","","","","","","","","","SYN088AAXX  06004 65319 31956 50000 10272 20128 39563 40061 705// 80002 333 0//00 59010 85076;","","","","","","","","","",""
"65319099999","2005-02-06T07:00:00","10.3166667","1.3833333","461.0","NATITINGOU, BN","FM-12","4","","51","77","","||HZ","","9","40","","29.71","28.23","3.73","62","000","","0","","","","","","","","","","","","","","","","","","","","","","","","","","","","","","","","","","","","","","","","","","","","","","","","","","","","","","","","","","","","","","","","","","","","","","","","","","","","","","","","","","","","","","","","","","","SYN106AAXX  06064 65319 31956 50000 10250 20106 39559 40060 70522 80002 333 02000 20250 50924 55087 59007 85076;","","","","","","","","","",""
"65319099999","2005-02-06T13:00:00","10.3166667","1.3833333","461.0","NATITINGOU, BN","FM-12","4","","52","99","","||HZ","","9","21","BKN:05 256","29.73","28.26","","69","360","","9","","","","","","","","","","","","","","","","","","","","","","","","","","","","","","","","","","","","","","","","","","","","","","","","","","","","","","","","","","","","","","","","","","","","","","","","","","","","","","","","","","","","","","","","","","","SYN088AAXX  06124 65319 31955 53608 10370 20112 39570 40069 70522 80002 333 0//00 58010 85076;","","","","","","","","","",""
"65319099999","2005-02-06T19:00:00","10.3166667","1.3833333","461.0","NATITINGOU, BN","FM-12","4","","63","92","","||HZ","","9","37","BKN:07 256","29.78","28.22","3.73","72","000","","0","","","","","","","","","","","","","","","","","","","","","","","","","","","","","","","","","","","","","","","","","","","","","","","","","","","","","","","","","","","","","","","","","","","","","","","","","","","","","","","","","","","","","","","","","","","SYN088AAXX  06184 65319 31956 70000 10336 20170 39556 40084 70522 80006 333 10393 58016 87276;","","","","","","","","","",""
"65319099999","2005-02-07T01:00:00","10.3166667","1.3833333","461.0","NATITINGOU, BN","FM-12","4","","53","78","","||HZ","","9","42","BKN:05 256","29.76","28.28","3.73","63","000","","0","","","","","","","","","","","","","","","","","","","","","","","","","","","","","","","","","","","","","","","","","","","","","","","","","","","","","","","","","","","","","","","","","","","","","","","","","","","","","","","","","","","","","","","","","","","SYN088AAXX  07004 65319 31956 50000 10255 20117 39578 40078 705// 80002 333 0//00 58015 85076;","","","","","","","","","",""
"65319099999","2005-02-07T07:00:00","10.3166667","1.3833333","461.0","NATITINGOU, BN","FM-12","4","","65","73","","","","9","75","","29.77","28.28","4.97","68","000","","0","","","","","","","","","","","","","","","","","","","","","","","","","","","","","","","","","","","","","","","","","","","","","","","","","","","","","","","","","","","","","","","","","","","","","","","","","","","","","","","","","","","","","","","","","","","SYN100AAXX  07064 65319 32958 70000 10229 20183 39577 40082 80006 333 02000 20225 50684 55053 58018 87276;","","","","","","","","","",""
"65319099999","2005-02-07T13:00:00","10.3166667","1.3833333","461.0","NATITINGOU, BN","FM-12","4","","68","93","","","","9","43","BKN:05 256","29.80","28.31","4.97","76","300","","5","","","","","","","","","","","","","","","","","","","","","","","","","","","","","","","","","","","","","","","","","","","","","","","","","","","","","","","","","","","","","","","","","","","","","","","","","","","","","","","","","","","","","","","","","","","SYN082AAXX  07124 65319 32958 53004 10340 20198 39587 40090 80002 333 0//00 58017 85076;","","","","","","","","","",""
"65319099999","2005-02-07T19:00:00","10.3166667","1.3833333","461.0","NATITINGOU, BN","FM-12","4","","65","93","","","","9","40","BKN:05 256","29.76","28.27","4.97","74","000","","0","","","","","","","","","","","","","","","","","","","","","","","","","","","","","","","","","","","","","","","","","","","","","","","","","","","","","","","","","","","","","","","","","","","","","","","","","","","","","","","","","","","","","","","","","","","SYN082AAXX  07184 65319 32958 50000 10338 20184 39573 40078 80002 333 10366 58017 85076;","","","","","","","","","",""
"65319099999","2005-02-08T01:00:00","10.3166667","1.3833333","461.0","NATITINGOU, BN","FM-12","4","","70","81","","","","9","71","BKN:05 256","29.81","28.32","4.97","73","000","","0","","","","","","","","","","","","","","","","","","","","","","","","","","","","","","","","","","","","","","","","","","","","","","","","","","","","","","","","","","","","","","","","","","","","","","","","","","","","","","","","","","","","","","","","","","","SYN082AAXX  08004 65319 33958 50000 10270 20212 39591 40094 80002 333 0//00 58013 85076;","","","","","","","","","",""
"65319099999","2005-02-08T04:00:00","10.3166667","1.3833333","461.0","NATITINGOU, BN","FM-12","4","","65","79","","","","9","63","BKN:05 256","29.76","28.28","4.97","70","000","","0","","","","","","","","","","","","","","","","","","","","","","","","","","","","","","","","","","","","","","","","","","","","","","","","","","","","","","","","","","","","","","","","","","","","","","","","","","","","","","","","","","","","","","","","","","","SYN076AAXX  08034 65319 42958 50000 10260 20184 30576 40077 80002 333 58010 85076;","","","","","","","","","",""
"65319099999","2005-02-08T07:00:00","10.3166667","1.3833333","461.0","NATITINGOU, BN","FM-12","4","","49","76","","","","9","38","","29.78","28.29","4.97","60","000","","0","","","","","","","","","","","","","","","","","","","","","","","","","","","","","","","","","","","","","","","","","","","","","","","","","","","","","","","","","","","","","","","","","","","","","","","","","","","","","","","","","","","","","","","","","","","SYN100AAXX  08064 65319 32958 50000 10245 20094 39581 40086 80002 333 01900 20240 50684 55087 58004 85076;","","","","","","","","","",""
"65319099999","2005-02-08T13:00:00","10.3166667","1.3833333","461.0","NATITINGOU, BN","FM-12","4","","53","96","","","","9","24","BKN:05 256","29.77","28.29","4.97","69","120","","5","","","","","","","","","","","","","","","","","","","","","","","","","","","","","","","","","","","","","","","","","","","","","","","","","","","","","","","","","","","","","","","","","","","","","","","","","","","","","","","","","","","","","","","","","","","SYN082AAXX  08124 65319 32958 51204 10355 20119 39581 40081 80002 333 0//00 59006 85076;","","","","","","","","","",""
"65319099999","2005-02-08T19:00:00","10.3166667","1.3833333","461.0","NATITINGOU, BN","FM-12","4","","53","92","","","","9","26","SCT:03 108","","","4.97","","000","","0","","","","","","","","","","","","","","","","","","","","","","","","","","","","","","","","","","","","","","","","","","","","","","","","","","","","","","","","","","","","","","","","","","","","","","","","","","","","","","","","","","","","","","","","","","","SYN087AAXX  08184 65319 32958 50000 10335 20116 3561 40065 83032 333 10380 59012 83361 85076;","","","","","","","","","",""
"65319099999","2005-02-09T01:00:00","10.3166667","1.3833333","461.0","NATITINGOU, BN","FM-12","4","","47","82","","","","9","30","BKN:05 256","29.78","28.30","4.97","62","000","","0","","","","","","","","","","","","","","","","","","","","","","","","","","","","","","","","","","","","","","","","","","","","","","","","","","","","","","","","","","","","","","","","","","","","","","","","","","","","","","","","","","","","","","","","","","","SYN082AAXX  09004 65319 33958 50000 10280 20086 39583 40083 80002 333 0//00 59008 85076;","","","","","","","","","",""
"65319099999","2005-02-09T07:00:00","10.3166667","1.3833333","461.0","NATITINGOU, BN","FM-12","4","","52","77","","","","9","42","FEW:02 13","29.78","28.29","4.97","62","000","","0","","","","","","","","","","","","","","","","","","","","","","","","","","","","","","","","","","","","","","","","","","","","","","","","","","","","","","","","","","","","","","","","","","","","","","","","","","","","","","","","","","","","","","","","","","","SYN106AAXX  09064 65319 32458 70000 10250 20112 39581 40085 82532 333 02200 20255 50974 55083 58000 82613 85361;","","","","","","","","","",""
"65319099999","2005-02-09T13:00:00","10.3166667","1.3833333","461.0","NATITINGOU, BN","FM-12","4","","55","98","","","","9","23","SCT:04 108","29.79","28.31","6.21","70","360","","7","","","","","","","","","","","","","","","","","","","","","","","","","","","","","","","","","","","","","","","","","","","","","","","","","","","","","","","","","","","","","","","","","","","","","","","","","","","","","","","","","","","","","","","","","","","SYN088AAXX  09124 65319 32960 73606 10368 20126 39588 40087 84032 333 0//00 58007 84361 85076;","","","","","","","","","",""
"65319099999","2005-02-09T19:00:00","10.3166667","1.3833333","461.0","NATITINGOU, BN","FM-12","4","","62","92","","||HZ","","9","37","BKN:07 256","29.72","28.24","4.97","72","000","","0","","","","","","","","","","","","","","","","","","","","","","","","","","","","","","","","","","","","","","","","","","","","","","","","","","","","","","","","","","","","","","","","","","","","","","","","","","","","","","","","","","","","","","","","","","","SYN088AAXX  09184 65319 31958 70000 10336 20168 39563 40066 70522 80008 333 10377 58002 87276;","","","","","","","","","",""
"65319099999","2005-02-10T01:00:00","10.3166667","1.3833333","461.0","NATITINGOU, BN","FM-12","4","","52","77","","||HZ","","9","42","BKN:05 256","29.72","28.25","2.49","62","000","","0","","","","","","","","","","","","","","","","","","","","","","","","","","","","","","","","","","","","","","","","","","","","","","","","","","","","","","","","","","","","","","","","","","","","","","","","","","","","","","","","","","","","","","","","","","","SYN088AAXX  10004 65319 31940 50000 10250 20112 39568 40066 705// 80002 333 0//00 59015 85076;","","","","","","","","","",""
"65319099999","2005-02-10T07:00:00","10.3166667","1.3833333","461.0","NATITINGOU, BN","FM-12","4","","53","74","","||HZ","","9","48","","29.78","28.29","2.49","62","000","","0","","","","","","","","","","","","","","","","","","","","","","","","","","","","","","","","","","","","","","","","","","","","","","","","","","","","","","","","","","","","","","","","","","","","","","","","","","","","","","","","","","","","","","","","","","","SYN106AAXX  10064 65319 31940 50000 10231 20116 39580 40085 70522 80002 333 02200 20229 50764 55089 59001 85076;","","","","","","","","","",""
"65319099999","2005-02-10T13:00:00","10.3166667","1.3833333","461.0","NATITINGOU, BN","FM-12","4","","50","98","","||HZ","","9","20","BKN:05 256","29.73","28.26","3.11","68","060","","7","","","","","","","","","","","","","","","","","","","","","","","","","","","","","","","","","","","","","","","","","","","","","","","","","","","","","","","","","","","","","","","","","","","","","","","","","","","","","","","","","","","","","","","","","","","SYN088AAXX  10124 65319 31950 50606 10365 20098 39570 40069 70522 80002 333 0//00 59018 85076;","","","","","","","","","",""
"65319099999","2005-02-10T19:00:00","10.3166667","1.3833333","461.0","NATITINGOU, BN","FM-12","4","","61","94","","||HZ","","9","32","BKN:05 256","29.69","28.20","3.11","72","000","","0","","","","","","","","","","","","","","","","","","","","","","","","","","","","","","","","","","","","","","","","","","","","","","","","","","","","","","","","","","","","","","","","","","","","","","","","","","","","","","","","","","","","","","","","","","","SYN088AAXX  10184 65319 31950 50000 10347 20159 39550 40053 70522 80002 333 10390 59013 85076;","","","","","","","","","",""
"65319099999","2005-02-11T01:00:00","10.3166667","1.3833333","461.0","NATITINGOU, BN","FM-12","4","","53","81","","||HZ","","9","37","BKN:05 256","29.74","28.27","3.11","64","000","","0","","","","","","","","","","","","","","","","","","","","","","","","","","","","","","","","","","","","","","","","","","","","","","","","","","","","","","","","","","","","","","","","","","","","","","","","","","","","","","","","","","","","","","","","","","","SYN088AAXX  11004 65319 31950 50000 10275 20114 39573 40072 705// 80002 333 0//00 58005 85076;","","","","","","","","","",""
"65319099999","2005-02-11T07:00:00","10.3166667","1.3833333","461.0","NATITINGOU, BN","FM-12","4","","46","79","","||HZ","","9","32","","29.75","28.27","3.73","60","360","","7","","","","","","","","","","","","","","","","","","","","","","","","","","","","","","","","","","","","","","","","","","","","","","","","","","","","","","","","","","","","","","","","","","","","","","","","","","","","","","","","","","","","","","","","","","","SYN106AAXX  11064 65319 31956 73606 10260 20079 39574 40076 70522 80006 333 01900 20245 50814 55095 59006 87276;","","","","","","","","","",""
"65319099999","2005-02-11T13:00:00","10.3166667","1.3833333","461.0","NATITINGOU, BN","FM-12","4","","45","97","","||HZ","","9","17","BKN:07 256","29.74","28.27","3.73","66","080","","5","","","","","","","","","","","","","","","","","","","","","","","","","","","","","","","","","","","","","","","","","","","","","","","","","","","","","","","","","","","","","","","","","","","","","","","","","","","","","","","","","","","","","","","","","","","SYN088AAXX  11124 65319 31956 70804 10362 20071 39573 40072 70522 80008 333 0//00 58003 87276;","","","","","","","","","",""
"65319099999","2005-02-11T19:00:00","10.3166667","1.3833333","461.0","NATITINGOU, BN","FM-12","4","","56","96","","||HZ","","9","26","BKN:05 256","29.70","28.23","3.11","70","000","","0","","","","","","","","","","","","","","","","","","","","","","","","","","","","","","","","","","","","","","","","","","","","","","","","","","","","","","","","","","","","","","","","","","","","","","","","","","","","","","","","","","","","","","","","","","","SYN088AAXX  11184 65319 31950 50000 10355 20131 39559 40059 70522 80002 333 10385 58009 85076;","","","","","","","","","",""
"65319099999","2005-02-12T01:00:00","10.3166667","1.3833333","461.0","NATITINGOU, BN","FM-12","4","","52","82","","||HZ","","9","36","BKN:05 256","29.78","28.30","2.49","64","000","","0","","","","","","","","","","","","","","","","","","","","","","","","","","","","","","","","","","","","","","","","","","","","","","","","","","","","","","","","","","","","","","","","","","","","","","","","","","","","","","","","","","","","","","","","","","","SYN088AAXX  12004 65319 31940 50000 10278 20112 39583 40083 705// 80002 333 0//00 58010 85076;","","","","","","","","","",""
"65319099999","2005-02-12T07:00:00","10.3166667","1.3833333","461.0","NATITINGOU, BN","FM-12","4","","50","84","","||HZ","","9","31","","29.78","28.30","2.49","64","000","","0","","","","","","","","","","","","","","","","","","","","","","","","","","","","","","","","","","","","","","","","","","","","","","","","","","","","","","","","","","","","","","","","","","","","","","","","","","","","","","","","","","","","","","","","","","","SYN106AAXX  12064 65319 31940 50000 10290 20100 39584 40083 70522 80002 333 01600 20275 50884 55066 58010 85076;","","","","","","","","","",""
"65319099999","2005-02-12T12:00:00","10.3166667","1.3833333","461.0","NATITINGOU, BN","FM-12","4","","43","97","","||HZ","","9","15","BKN:05 256","29.77","28.30","0.62","65","080","","7","","","","","","","","","","","","","","","","","","","","","","","","","","","","","","","","","","","","","","","","","","","","","","","","","","","","","","","","","","","","","","","","","","","","","","","","","","","","","","","","","","","","","","","","","","","SYN088AAXX  12114 65319 31910 50806 10361 20060 39582 40082 70522 80002 333 0//00 58009 85076;","","","","","","","","","",""
"65319099999","2005-02-12T13:00:00","10.3166667","1.3833333","461.0","NATITINGOU, BN","FM-12","4","","43","97","","||HZ","","9","15","BKN:05 256","29.77","28.30","0.62","65","080","","7","","","","","","","","","","","","","","","","","","","","","","","","","","","","","","","","","","","","","","","","","","","","","","","","","","","","","","","","","","","","","","","","","","","","","","","","","","","","","","","","","","","","","","","","","","","SYN088AAXX  12124 65319 31910 50806 10361 20060 39582 40082 70522 80002 333 0//00 58009 85076;","","","","","","","","","",""
"65319099999","2005-02-12T19:00:00","10.3166667","1.3833333","461.0","NATITINGOU, BN","FM-12","4","","60","94","","||HZ","","9","32","BKN:05 256","29.70","28.23","1.24","71","000","","0","","","","","","","","","","","","","","","","","","","","","","","","","","","","","","","","","","","","","","","","","","","","","","","","","","","","","","","","","","","","","","","","","","","","","","","","","","","","","","","","","","","","","","","","","","","SYN088AAXX  12184 65319 31920 50000 10347 20157 39560 40058 70522 80002 333 10387 58001 85076;","","","","","","","","","",""
"65319099999","2005-02-13T01:00:00","10.3166667","1.3833333","461.0","NATITINGOU, BN","FM-12","4","","40","84","","||HZ","","9","21","BKN:05 256","29.78","28.31","1.86","60","040","","5","","","","","","","","","","","","","","","","","","","","","","","","","","","","","","","","","","","","","","","","","","","","","","","","","","","","","","","","","","","","","","","","","","","","","","","","","","","","","","","","","","","","","","","","","","","SYN088AAXX  13004 65319 31930 50404 10290 20046 39587 40086 705// 80002 333 0//00 58004 85076;","","","","","","","","","",""
"65319099999","2005-02-13T07:00:00","10.3166667","1.3833333","461.0","NATITINGOU, BN","FM-12","4","","41","79","","||HZ","","9","25","","29.79","28.31","0.56","58","040","","9","","","","","","","","","","","","","","","","","","","","","","","","","","","","","","","","","","","","","","","","","","","","","","","","","","","","","","","","","","","","","","","","","","","","","","","","","","","","","","","","","","","","","","","","","","","SYN106AAXX  13064 65319 31909 50408 10262 20048 39587 40089 70544 80002 333 02400 20257 51454 55052 58003 85076;","","","","","","","","","",""
"65319099999","2005-02-13T13:00:00","10.3166667","1.3833333","461.0","NATITINGOU, BN","FM-12","4","","41","93","","||HZ","","9","16","BKN:05 256","29.79","28.31","0.31","63","120","","11","","","","","","","","","","","","","","","","","","","","","","","","","","","","","","","","","","","","","","","","","","","","","","","","","","","","","","","","","","","","","","","","","","","","","","","","","","","","","","","","","","","","","","","","","","","SYN088AAXX  13124 65319 31905 51210 10340 20048 39587 40087 70544 80002 333 0//00 58005 85076;","","","","","","","","","",""
"65319099999","2005-02-13T19:00:00","10.3166667","1.3833333","461.0","NATITINGOU, BN","FM-12","4","","53","91","","||HZ","","9","27","BKN:05 256","29.70","28.21","0.50","67","040","","5","","","","","","","","","","","","","","","","","","","","","","","","","","","","","","","","","","","","","","","","","","","","","","","","","","","","","","","","","","","","","","","","","","","","","","","","","","","","","","","","","","","","","","","","","","","SYN088AAXX  13184 65319 31908 50404 10330 20116 39554 40056 70544 80002 333 10367 59006 85076;","","","","","","","","","",""
"65319099999","2005-02-14T01:00:00","10.3166667","1.3833333","461.0","NATITINGOU, BN","FM-12","4","","46","79","","||HZ","","9","32","BKN:05 256","29.75","28.26","0.50","60","000","","0","","","","","","","","","","","","","","","","","","","","","","","","","","","","","","","","","","","","","","","","","","","","","","","","","","","","","","","","","","","","","","","","","","","","","","","","","","","","","","","","","","","","","","","","","","","SYN088AAXX  14004 65319 31908 50000 10260 20078 39571 40073 705// 80002 333 0//00 59016 85076;","","","","","","","","","",""
"65319099999","2005-02-14T07:00:00","10.3166667","1.3833333","461.0","NATITINGOU, BN","FM-12","4","","40","75","","||HZ","","9","28","","29.76","28.27","0.50","56","000","","0","","","","","","","","","","","","","","","","","","","","","","","","","","","","","","","","","","","","","","","","","","","","","","","","","","","","","","","","","","","","","","","","","","","","","","","","","","","","","","","","","","","","","","","","","","","SYN106AAXX  14064 65319 31908 50000 10240 20045 39573 40078 70544 80002 333 02300 20230 50984 55072 59014 85076;","","","","","","","","","",""
"65319099999","2005-02-14T13:00:00","10.3166667","1.3833333","461.0","NATITINGOU, BN","FM-12","4","","46","92","","||HZ","","9","20","BKN:05 256","29.76","28.27","0.50","65","120","","7","","","","","","","","","","","","","","","","","","","","","","","","","","","","","","","","","","","","","","","","","","","","","","","","","","","","","","","","","","","","","","","","","","","","","","","","","","","","","","","","","","","","","","","","","","","SYN088AAXX  14124 65319 31908 51206 10335 20078 39573 40078 70544 80002 333 0//00 59014 85076;","","","","","","","","","",""
"65319099999","2005-02-14T19:00:00","10.3166667","1.3833333","461.0","NATITINGOU, BN","FM-12","4","","57","90","","||HZ","","9","33","BKN:07 256","29.70","28.21","0.50","69","000","","0","","","","","","","","","","","","","","","","","","","","","","","","","","","","","","","","","","","","","","","","","","","","","","","","","","","","","","","","","","","","","","","","","","","","","","","","","","","","","","","","","","","","","","","","","","","SYN088AAXX  14184 65319 31908 70000 10322 20138 39553 40058 70544 80008 333 10367 59001 87276;","","","","","","","","","",""
"65319099999","2005-02-15T07:00:00","10.3166667","1.3833333","461.0","NATITINGOU, BN","FM-12","4","","33","73","","||HZ","","9","22","","29.75","28.25","3.73","53","000","","0","","","","","","","","","","","","","","","","","","","","","","","","","","","","","","","","","","","","","","","","","","","","","","","","","","","","","","","","","","","","","","","","","","","","","","","","","","","","","","","","","","","","","","","","","","","SYN106AAXX  15064 65319 31956 50000 10230 20004 39567 40073 70522 80002 333 01900 20220 50904 55067 59006 85076;","","","","","","","","","",""
"65319099999","2005-02-15T13:00:00","10.3166667","1.3833333","461.0","NATITINGOU, BN","FM-12","4","","43","93","","||HZ","","9","17","BKN:05 256","29.74","28.25","3.73","64","360","","7","","","","","","","","","","","","","","","","","","","","","","","","","","","","","","","","","","","","","","","","","","","","","","","","","","","","","","","","","","","","","","","","","","","","","","","","","","","","","","","","","","","","","","","","","","","SYN088AAXX  15124 65319 31956 53606 10340 20060 39568 40070 70522 80002 333 0//00 59005 85076;","","","","","","","","","",""
"65319099999","2005-02-15T19:00:00","10.3166667","1.3833333","461.0","NATITINGOU, BN","FM-12","4","","53","90","","||HZ","","9","29","BKN:05 256","29.70","28.27","2.49","67","020","","5","","","","","","","","","","","","","","","","","","","","","","","","","","","","","","","","","","","","","","","","","","","","","","","","","","","","","","","","","","","","","","","","","","","","","","","","","","","","","","","","","","","","","","","","","","","SYN088AAXX  15184 65319 31940 50204 10323 20119 39572 40058 70522 80002 333 10369 59001 85076;","","","","","","","","","",""
"65319099999","2005-02-16T01:00:00","10.3166667","1.3833333","461.0","NATITINGOU, BN","FM-12","4","","43","73","","||HZ","","9","34","BKN:05 256","29.78","28.29","2.49","57","000","","0","","","","","","","","","","","","","","","","","","","","","","","","","","","","","","","","","","","","","","","","","","","","","","","","","","","","","","","","","","","","","","","","","","","","","","","","","","","","","","","","","","","","","","","","","","","SYN088AAXX  16004 65319 31940 50000 10228 20060 39579 40084 705// 80002 333 0//00 59006 85076;","","","","","","","","","",""
"65319099999","2005-02-16T07:00:00","10.3166667","1.3833333","461.0","NATITINGOU, BN","FM-12","4","","39","74","","||HZ","","9","28","","29.74","28.25","2.49","55","040","","5","","","","","","","","","","","","","","","","","","","","","","","","","","","","","","","","","","","","","","","","","","","","","","","","","","","","","","","","","","","","","","","","","","","","","","","","","","","","","","","","","","","","","","","","","","","SYN106AAXX  16064 65319 31940 50404 10234 20038 39565 40070 70522 80002 333 01800 20200 50934 55088 59002 85076;","","","","","","","","","",""
"65319099999","2005-02-16T13:00:00","10.3166667","1.3833333","461.0","NATITINGOU, BN","FM-12","4","","49","96","","||HZ","","9","20","BKN:05 256","29.76","28.27","3.11","67","200","","5","","","","","","","","","","","","","","","","","","","","","","","","","","","","","","","","","","","","","","","","","","","","","","","","","","","","","","","","","","","","","","","","","","","","","","","","","","","","","","","","","","","","","","","","","","","SYN088AAXX  16124 65319 31950 52004 10355 20092 39573 40077 70522 80002 333 0//00 58005 85076;","","","","","","","","","",""
"65319099999","2005-02-16T19:00:00","10.3166667","1.3833333","461.0","NATITINGOU, BN","FM-12","4","","57","93","","||HZ","","9","29","BKN:05 256","29.69","28.20","3.11","70","000","","0","","","","","","","","","","","","","","","","","","","","","","","","","","","","","","","","","","","","","","","","","","","","","","","","","","","","","","","","","","","","","","","","","","","","","","","","","","","","","","","","","","","","","","","","","","","SYN088AAXX  16184 65319 31950 50000 10340 20138 39550 40054 70522 80002 333 10383 59002 85076;","","","","","","","","","",""
"65319099999","2005-02-17T01:00:00","10.3166667","1.3833333","461.0","NATITINGOU, BN","FM-12","4","","50","75","","||HZ","","9","41","BKN:05 256","29.77","28.29","3.11","60","000","","0","","","","","","","","","","","","","","","","","","","","","","","","","","","","","","","","","","","","","","","","","","","","","","","","","","","","","","","","","","","","","","","","","","","","","","","","","","","","","","","","","","","","","","","","","","","SYN088AAXX  17004 65319 31950 50000 10240 20098 39579 40081 705// 80002 333 0//00 58000 85076;","","","","","","","","","",""
"65319099999","2005-02-17T06:00:00","10.3166667","1.3833333","461.0","NATITINGOU, BN","FM-12","4","","47","72","","||HZ","","9","41","","29.78","28.29","3.73","58","000","","0","","","","","","","","","","","","","","","","","","","","","","","","","","","","","","","","","","","","","","","","","","","","","","","","","","","","","","","","","","","","","","","","","","","","","","","","","","","","","","","","","","","","","","","","","","","SYN106AAXX  17054 65319 31956 50000 10220 20082 39580 40086 70522 80002 333 01700 20215 50984 55090 58015 85076;","","","","","","","","","",""
"65319099999","2005-02-17T13:00:00","10.3166667","1.3833333","461.0","NATITINGOU, BN","FM-12","4","","65","96","","||HZ","","9","36","BKN:05 256","29.79","28.31","3.73","75","180","","5","","","","","","","","","","","","","","","","","","","","","","","","","","","","","","","","","","","","","","","","","","","","","","","","","","","","","","","","","","","","","","","","","","","","","","","","","","","","","","","","","","","","","","","","","","","SYN088AAXX  17124 65319 31956 51804 10355 20184 39586 40089 70522 80002 333 0//00 58013 85076;","","","","","","","","","",""
"65319099999","2005-02-17T19:00:00","10.3166667","1.3833333","461.0","NATITINGOU, BN","FM-12","4","","67","95","","||HZ","","9","40","BKN:05 256","29.69","28.20","3.73","75","000","","0","","","","","","","","","","","","","","","","","","","","","","","","","","","","","","","","","","","","","","","","","","","","","","","","","","","","","","","","","","","","","","","","","","","","","","","","","","","","","","","","","","","","","","","","","","","SYN088AAXX  17184 65319 31956 50000 10350 20196 39550 40054 70522 80002 333 10387 58000 85076;","","","","","","","","","",""
"65319099999","2005-02-18T07:00:00","10.3166667","1.3833333","461.0","NATITINGOU, BN","FM-12","4","","60","74","","||HZ","","9","61","","29.75","28.26","3.73","65","000","","0","","","","","","","","","","","","","","","","","","","","","","","","","","","","","","","","","","","","","","","","","","","","","","","","","","","","","","","","","","","","","","","","","","","","","","","","","","","","","","","","","","","","","","","","","","","SYN106AAXX  18064 65319 31956 50000 10235 20154 39571 40074 70522 80002 333 01700 20235 50514 55089 59009 85076;","","","","","","","","","",""
"65319099999","2005-02-18T13:00:00","10.3166667","1.3833333","461.0","NATITINGOU, BN","FM-12","4","","65","97","","||HZ","","9","35","BKN:05 256","29.74","28.26","3.73","75","200","","5","","","","","","","","","","","","","","","","","","","","","","","","","","","","","","","","","","","","","","","","","","","","","","","","","","","","","","","","","","","","","","","","","","","","","","","","","","","","","","","","","","","","","","","","","","","SYN088AAXX  18124 65319 31956 52004 10363 20183 39571 40071 70522 80002 333 0//00 59015 85076;","","","","","","","","","",""
"65319099999","2005-02-18T19:00:00","10.3166667","1.3833333","461.0","NATITINGOU, BN","FM-12","4","","62","99","","||HZ","","9","29","BKN:05 256","29.70","28.28","3.73","74","000","","0","","","","","","","","","","","","","","","","","","","","","","","","","","","","","","","","","","","","","","","","","","","","","","","","","","","","","","","","","","","","","","","","","","","","","","","","","","","","","","","","","","","","","","","","","","","SYN088AAXX  18184 65319 31956 50000 10375 20166 39577 40059 70522 80002 333 10397 58005 85076;","","","","","","","","","",""
"65319099999","2005-02-19T01:00:00","10.3166667","1.3833333","461.0","NATITINGOU, BN","FM-12","4","","63","82","","||HZ","","9","54","BKN:05 256","29.73","28.26","3.73","70","000","","0","","","","","","","","","","","","","","","","","","","","","","","","","","","","","","","","","","","","","","","","","","","","","","","","","","","","","","","","","","","","","","","","","","","","","","","","","","","","","","","","","","","","","","","","","","","SYN088AAXX  19004 65319 31956 50000 10276 20174 39569 40067 705// 80002 333 0//00 58003 85076;","","","","","","","","","",""
"65319099999","2005-02-19T07:00:00","10.3166667","1.3833333","461.0","NATITINGOU, BN","FM-12","4","","62","78","","||HZ","","9","57","","29.72","28.30","3.73","68","000","","0","","","","","","","","","","","","","","","","","","","","","","","","","","","","","","","","","","","","","","","","","","","","","","","","","","","","","","","","","","","","","","","","","","","","","","","","","","","","","","","","","","","","","","","","","","","SYN106AAXX  19064 65319 31956 50000 10258 20167 39585 40066 70522 80002 333 02000 20250 50654 55092 59006 85076;","","","","","","","","","",""
"65319099999","2005-02-19T13:00:00","10.3166667","1.3833333","461.0","NATITINGOU, BN","FM-12","4","","76","97","","","","9","51","BKN:05 256","29.73","28.26","4.97","81","220","","13","","","","","","","","","","","","","","","","","","","","","","","","","","","","","","","","","","","","","","","","","","","","","","","","","","","","","","","","","","","","","","","","","","","","","","","","","","","","","","","","","","","","","","","","","","","SYN082AAXX  19124 65319 32958 52211 10360 20242 39570 40069 80002 333 0//00 59001 85076;","","","","","","","","","",""
"65319099999","2005-02-19T19:00:00","10.3166667","1.3833333","461.0","NATITINGOU, BN","FM-12","4","","67","86","","","","9","54","FEW:02 13 BKN:05 20","29.67","28.18","4.97","73","000","","0","","","","","","","","","","","","","","","","","","","","","","","","","","","","","","","","","","","","","","","","","","","","","","","","","","","","","","","","","","","","","","","","","","","","","","","","","","","","","","","","","","","","","","","","","","","SYN100AAXX  19184 65319 32458 70000 10300 20196 39543 40047 86802 333 10380 59014 82613 85820 94919 95839;","","","","","","","","","",""
"65319099999","2005-02-20T01:00:00","10.3166667","1.3833333","461.0","NATITINGOU, BN","FM-12","4","","69","74","","","","9","86","BKN:07 108","29.84","28.34","4.97","71","140","","5","","","","","","","","","","","","","","","","","","","","","","","","","","","","","","","","","","","","","","","","","","","","","","","","","","","","","","","","","","","","","","","","","","","","","","","","","","","","","","","","","","","","","","","","","","","SYN094AAXX  20004 65319 11958 71404 10232 20207 39598 40104 60051 70096 8707/ 333 0//52 58029 87361;","","","","","","","","","",""
"65319099999","2005-02-20T07:00:00","10.3166667","1.3833333","461.0","NATITINGOU, BN","FM-12","4","","71","74","","","","9","89","","29.80","28.29","4.97","72","000","","0","","","","","","","","","","","","","","","","","","","","","","","","","","","","","","","","","","","","","","","","","","","","","","","","","","","","","","","","","","","","","","","","","","","","","","","","","","","","","","","","","","","","","","","","","","","SYN112AAXX  20064 65319 11958 70000 10233 20214 39581 40090 60084 70266 8707/ 333 01854 20220 50594 55085 58016 87361;","","","","","","","","","",""
"65319099999","2005-02-20T13:00:00","10.3166667","1.3833333","461.0","NATITINGOU, BN","FM-12","4","","72","83","","","","9","68","BKN:07 108","29.78","28.28","4.97","75","020","","5","","","","","","","","","","","","","","","","","","","","","","","","","","","","","","","","","","","","","","","","","","","","","","","","","","","","","","","","","","","","","","","","","","","","","","","","","","","","","","","","","","","","","","","","","","","SYN082AAXX  20124 65319 32958 50204 10285 20220 39576 40085 8707/ 333 0//00 58006 87361;","","","","","","","","","",""
"65319099999","2005-02-20T19:00:00","10.3166667","1.3833333","461.0","NATITINGOU, BN","FM-12","4","","67","83","","","","9","59","BKN:07 108","29.72","28.22","4.97","72","000","","0","","","","","","","","","","","","","","","","","","","","","","","","","","","","","","","","","","","","","","","","","","","","","","","","","","","","","","","","","","","","","","","","","","","","","","","","","","","","","","","","","","","","","","","","","","","SYN082AAXX  20184 65319 32958 70000 10285 20196 39556 40064 8703/ 333 10300 58013 87361;","","","","","","","","","",""
"65319099999","2005-02-21T07:00:00","10.3166667","1.3833333","461.0","NATITINGOU, BN","FM-12","4","","66","71","","","","9","85","","29.80","28.30","4.97","68","000","","0","","","","","","","","","","","","","","","","","","","","","","","","","","","","","","","","","","","","","","","","","","","","","","","","","","","","","","","","","","","","","","","","","","","","","","","","","","","","","","","","","","","","","","","","","","","SYN100AAXX  21064 65319 32958 70000 10217 20191 39582 40093 8703/ 333 02100 20215 50214 55003 58001 87361;","","","","","","","","","",""
"65319099999","2005-02-21T13:00:00","10.3166667","1.3833333","461.0","NATITINGOU, BN","FM-12","4","","57","92","","","","9","31","FEW:01 13","29.81","28.32","4.97","69","340","","5","","","","","","","","","","","","","","","","","","","","","","","","","","","","","","","","","","","","","","","","","","","","","","","","","","","","","","","","","","","","","","","","","","","","","","","","","","","","","","","","","","","","","","","","","","","SYN088AAXX  21124 65319 32958 73404 10335 20139 39589 40094 81506 333 0//00 58013 81613 87276;","","","","","","","","","",""
"65319099999","2005-02-21T19:00:00","10.3166667","1.3833333","461.0","NATITINGOU, BN","FM-12","4","","62","90","","","","9","40","BKN:07 256","29.75","28.26","4.97","71","000","","0","","","","","","","","","","","","","","","","","","","","","","","","","","","","","","","","","","","","","","","","","","","","","","","","","","","","","","","","","","","","","","","","","","","","","","","","","","","","","","","","","","","","","","","","","","","SYN082AAXX  21184 65319 32958 70000 10321 20169 39569 40076 80008 333 10356 58013 87276;","","","","","","","","","",""
"65319099999","2005-02-22T01:00:00","10.3166667","1.3833333","461.0","NATITINGOU, BN","FM-12","4","","54","82","","","","9","37","BKN:05 256","29.80","28.32","4.97","65","340","","5","","","","","","","","","","","","","","","","","","","","","","","","","","","","","","","","","","","","","","","","","","","","","","","","","","","","","","","","","","","","","","","","","","","","","","","","","","","","","","","","","","","","","","","","","","","SYN082AAXX  22004 65319 33958 53404 10280 20121 39591 40093 80002 333 0//00 58020 85076;","","","","","","","","","",""
"65319099999","2005-02-22T07:00:00","10.3166667","1.3833333","461.0","NATITINGOU, BN","FM-12","4","","51","77","","","","9","41","FEW:01 108","29.83","28.34","4.97","62","020","","5","","","","","","","","","","","","","","","","","","","","","","","","","","","","","","","","","","","","","","","","","","","","","","","","","","","","","","","","","","","","","","","","","","","","","","","","","","","","","","","","","","","","","","","","","","","SYN106AAXX  22064 65319 32958 70204 10251 20108 39596 40102 81036 333 02000 20246 50834 55087 58014 81361 87276;","","","","","","","","","",""
"65319099999","2005-02-22T13:00:00","10.3166667","1.3833333","461.0","NATITINGOU, BN","FM-12","4","","43","91","","||HZ","","9","18","SCT:03 108","29.82","28.34","3.73","63","040","","14","","","","","","","","","","","","","","","","","","","","","","","","","","","","","","","","","","","","","","","","","","","","","","","","","","","","","","","","","","","","","","","","","","","","","","","","","","","","","","","","","","","","","","","","","","","SYN094AAXX  22124 65319 31956 70412 10330 20060 39596 40099 70522 83032 333 0//00 58007 83361 85076;","","","","","","","","","",""
"65319099999","2005-02-22T19:00:00","10.3166667","1.3833333","461.0","NATITINGOU, BN","FM-12","4","","61","91","","||HZ","","9","36","BKN:05 256","29.76","28.27","3.73","71","000","","0","","","","","","","","","","","","","","","","","","","","","","","","","","","","","","","","","","","","","","","","","","","","","","","","","","","","","","","","","","","","","","","","","","","","","","","","","","","","","","","","","","","","","","","","","","","SYN088AAXX  22184 65319 31956 50000 10330 20160 39575 40079 70522 80002 333 10360 58006 85076;","","","","","","","","","",""
"65319099999","2005-02-23T01:00:00","10.3166667","1.3833333","461.0","NATITINGOU, BN","FM-12","4","","66","78","","","","9","67","BKN:05 256","29.82","28.33","4.97","70","000","","0","","","","","","","","","","","","","","","","","","","","","","","","","","","","","","","","","","","","","","","","","","","","","","","","","","","","","","","","","","","","","","","","","","","","","","","","","","","","","","","","","","","","","","","","","","","SYN082AAXX  23004 65319 33958 50000 10255 20190 39594 40098 80002 333 0//00 58003 85076;","","","","","","","","","",""
"65319099999","2005-02-23T07:00:00","10.3166667","1.3833333","461.0","NATITINGOU, BN","FM-12","4","","59","74","","","","9","58","","29.80","28.31","4.97","65","000","","0","","","","","","","","","","","","","","","","","","","","","","","","","","","","","","","","","","","","","","","","","","","","","","","","","","","","","","","","","","","","","","","","","","","","","","","","","","","","","","","","","","","","","","","","","","","SYN100AAXX  23064 65319 32958 50000 10235 20148 39586 40091 80002 333 02200 20230 50834 55062 59010 85076;","","","","","","","","","",""
"65319099999","2005-02-23T13:00:00","10.3166667","1.3833333","461.0","NATITINGOU, BN","FM-12","4","","56","99","","","","9","24","BKN:05 256","29.76","28.28","4.97","71","360","","9","","","","","","","","","","","","","","","","","","","","","","","","","","","","","","","","","","","","","","","","","","","","","","","","","","","","","","","","","","","","","","","","","","","","","","","","","","","","","","","","","","","","","","","","","","","SYN082AAXX  23124 65319 32958 53608 10370 20132 39578 40078 80002 333 0//00 59018 85076;","","","","","","","","","",""
"65319099999","2005-02-23T19:00:00","10.3166667","1.3833333","461.0","NATITINGOU, BN","FM-12","4","","63","97","","||HZ","","9","33","BKN:05 256","29.69","28.21","3.73","74","000","","0","","","","","","","","","","","","","","","","","","","","","","","","","","","","","","","","","","","","","","","","","","","","","","","","","","","","","","","","","","","","","","","","","","","","","","","","","","","","","","","","","","","","","","","","","","","SYN088AAXX  23184 65319 31956 50000 10360 20172 39553 40054 70522 80002 333 10390 59022 85076;","","","","","","","","","",""
"65319099999","2005-02-24T01:00:00","10.3166667","1.3833333","461.0","NATITINGOU, BN","FM-12","4","","62","82","","","","9","50","BKN:05 256","29.77","28.30","4.97","69","000","","0","","","","","","","","","","","","","","","","","","","","","","","","","","","","","","","","","","","","","","","","","","","","","","","","","","","","","","","","","","","","","","","","","","","","","","","","","","","","","","","","","","","","","","","","","","","SYN082AAXX  24004 65319 33958 50000 10278 20164 39582 40081 80002 333 0//00 59012 85076;","","","","","","","","","",""
"65319099999","2005-02-24T07:00:00","10.3166667","1.3833333","461.0","NATITINGOU, BN","FM-12","4","","56","79","","","","9","46","","29.82","28.28","4.97","65","000","","0","","","","","","","","","","","","","","","","","","","","","","","","","","","","","","","","","","","","","","","","","","","","","","","","","","","","","","","","","","","","","","","","","","","","","","","","","","","","","","","","","","","","","","","","","","","SYN100AAXX  24064 65319 32958 50000 10260 20136 39578 40099 80002 333 01900 20260 50904 55097 59008 85076;","","","","","","","","","",""
"65319099999","2005-02-24T13:00:00","10.3166667","1.3833333","461.0","NATITINGOU, BN","FM-12","4","","53","95","","","","9","24","BKN:05 256","29.77","28.29","6.21","68","040","","11","","","","","","","","","","","","","","","","","","","","","","","","","","","","","","","","","","","","","","","","","","","","","","","","","","","","","","","","","","","","","","","","","","","","","","","","","","","","","","","","","","","","","","","","","","","SYN082AAXX  24124 65319 32960 50410 10350 20117 39581 40080 80002 333 0//00 58003 85076;","","","","","","","","","",""
"65319099999","2005-02-24T19:00:00","10.3166667","1.3833333","461.0","NATITINGOU, BN","FM-12","4","","69","98","","","","9","39","BKN:05 256","29.70","28.23","4.97","77","000","","0","","","","","","","","","","","","","","","","","","","","","","","","","","","","","","","","","","","","","","","","","","","","","","","","","","","","","","","","","","","","","","","","","","","","","","","","","","","","","","","","","","","","","","","","","","","SYN082AAXX  24184 65319 32958 50000 10365 20204 39559 40058 80002 333 10397 58006 85076;","","","","","","","","","",""
"65319099999","2005-02-25T01:00:00","10.3166667","1.3833333","461.0","NATITINGOU, BN","FM-12","4","","60","82","","","","9","46","BKN:05 256","29.77","28.30","6.21","68","000","","0","","","","","","","","","","","","","","","","","","","","","","","","","","","","","","","","","","","","","","","","","","","","","","","","","","","","","","","","","","","","","","","","","","","","","","","","","","","","","","","","","","","","","","","","","","","SYN082AAXX  25004 65319 33960 50000 10280 20153 39583 40082 80002 333 0//00 58001 85076;","","","","","","","","","",""
"65319099999","2005-02-25T07:00:00","10.3166667","1.3833333","461.0","NATITINGOU, BN","FM-12","4","","57","76","","","","9","51","","29.78","28.30","4.97","64","000","","0","","","","","","","","","","","","","","","","","","","","","","","","","","","","","","","","","","","","","","","","","","","","","","","","","","","","","","","","","","","","","","","","","","","","","","","","","","","","","","","","","","","","","","","","","","","SYN100AAXX  25064 65319 32958 50000 10247 20140 39583 40086 80002 333 02200 20245 50954 55098 58005 85076;","","","","","","","","","",""
"65319099999","2005-02-25T13:00:00","10.3166667","1.3833333","461.0","NATITINGOU, BN","FM-12","4","","51","93","","||HZ","","9","24","BKN:05 256","29.81","28.33","2.49","67","120","","14","","","","","","","","","","","","","","","","","","","","","","","","","","","","","","","","","","","","","","","","","","","","","","","","","","","","","","","","","","","","","","","","","","","","","","","","","","","","","","","","","","","","","","","","","","","SYN088AAXX  25124 65319 31940 51212 10340 20106 39594 40096 70522 80002 333 0//00 58013 85076;","","","","","","","","","",""
"65319099999","2005-02-26T01:00:00","10.3166667","1.3833333","461.0","NATITINGOU, BN","FM-12","4","","58","87","","||HZ","","9","38","BKN:05 256","29.81","28.34","0.06","68","000","","0","","","","","","","","","","","","","","","","","","","","","","","","","","","","","","","","","","","","","","","","","","","","","","","","","","","","","","","","","","","","","","","","","","","","","","","","","","","","","","","","","","","","","","","","","","","SYN088AAXX  26004 65319 31901 50000 10305 20145 39596 40095 705// 80002 333 0//00 58013 85076;","","","","","","","","","",""
"65319099999","2005-02-26T07:00:00","10.3166667","1.3833333","461.0","NATITINGOU, BN","FM-12","4","","58","84","","||DU","","9","41","","29.83","28.34","0.06","67","000","","0","","","","","","","","","","","","","","","","","","","","","","","","","","","","","","","","","","","","","","","","","","","","","","","","","","","","","","","","","","","","","","","","","","","","","","","","","","","","","","","","","","","","","","","","","","","SYN106AAXX  26064 65319 31901 50000 10290 20145 39598 40100 70644 80002 333 02000 20290 50904 55051 58015 85076;","","","","","","","","","",""
"65319099999","2005-02-26T13:00:00","10.3166667","1.3833333","461.0","NATITINGOU, BN","FM-12","4","","56","95","","||DU","","9","27","BKN:05 256","29.76","28.29","0.06","70","340","","9","","","","","","","","","","","","","","","","","","","","","","","","","","","","","","","","","","","","","","","","","","","","","","","","","","","","","","","","","","","","","","","","","","","","","","","","","","","","","","","","","","","","","","","","","","","SYN088AAXX  26124 65319 31901 53408 10350 20135 39580 40078 70644 80002 333 0//00 59014 85076;","","","","","","","","","",""
"65319099999","2005-02-26T19:00:00","10.3166667","1.3833333","461.0","NATITINGOU, BN","FM-12","4","","62","96","","||DU","","9","33","BKN:05 256","29.76","28.29","0.19","73","000","","0","","","","","","","","","","","","","","","","","","","","","","","","","","","","","","","","","","","","","","","","","","","","","","","","","","","","","","","","","","","","","","","","","","","","","","","","","","","","","","","","","","","","","","","","","","","SYN088AAXX  26184 65319 31903 50000 10353 20166 39579 40078 70622 80002 333 10380 58009 85076;","","","","","","","","","",""
"65319099999","2005-02-27T01:00:00","10.3166667","1.3833333","461.0","NATITINGOU, BN","FM-12","4","","60","87","","||DU","","9","40","BKN:07 256","29.83","28.35","0.31","69","000","","0","","","","","","","","","","","","","","","","","","","","","","","","","","","","","","","","","","","","","","","","","","","","","","","","","","","","","","","","","","","","","","","","","","","","","","","","","","","","","","","","","","","","","","","","","","","SYN088AAXX  27004 65319 31905 70000 10305 20156 39602 40101 706// 80006 333 0//00 58006 87276;","","","","","","","","","",""
"65319099999","2005-02-27T07:00:00","10.3166667","1.3833333","461.0","NATITINGOU, BN","FM-12","4","","56","80","","||HZ","","9","44","","29.83","28.35","3.73","65","020","","5","","","","","","","","","","","","","","","","","","","","","","","","","","","","","","","","","","","","","","","","","","","","","","","","","","","","","","","","","","","","","","","","","","","","","","","","","","","","","","","","","","","","","","","","","","","SYN106AAXX  27064 65319 31956 50204 10265 20133 39599 40101 70522 80002 333 01900 20263 50464 55000 58001 85076;","","","","","","","","","",""
"65319099999","2005-02-27T13:00:00","10.3166667","1.3833333","461.0","NATITINGOU, BN","FM-12","4","","53","95","","||HZ","","9","24","BKN:05 256","29.82","28.35","1.24","68","080","","7","","","","","","","","","","","","","","","","","","","","","","","","","","","","","","","","","","","","","","","","","","","","","","","","","","","","","","","","","","","","","","","","","","","","","","","","","","","","","","","","","","","","","","","","","","","SYN088AAXX  27124 65319 31920 50806 10350 20118 39600 40099 70522 80002 333 0//00 58020 85076;","","","","","","","","","",""
"65319099999","2005-02-27T19:00:00","10.3166667","1.3833333","461.0","NATITINGOU, BN","FM-12","4","","63","94","","||HZ","","9","35","FEW:02 108","29.75","28.27","2.49","73","000","","0","","","","","","","","","","","","","","","","","","","","","","","","","","","","","","","","","","","","","","","","","","","","","","","","","","","","","","","","","","","","","","","","","","","","","","","","","","","","","","","","","","","","","","","","","","","SYN094AAXX  27184 65319 31940 70000 10347 20171 39572 40074 70522 82036 333 10387 59007 82361 87276;","","","","","","","","","",""
"65319099999","2005-02-28T01:00:00","10.3166667","1.3833333","461.0","NATITINGOU, BN","FM-12","4","","60","81","","||HZ","","9","48","BKN:05 256","29.81","28.33","3.73","68","000","","0","","","","","","","","","","","","","","","","","","","","","","","","","","","","","","","","","","","","","","","","","","","","","","","","","","","","","","","","","","","","","","","","","","","","","","","","","","","","","","","","","","","","","","","","","","","SYN088AAXX  28004 65319 31956 50000 10271 20153 39592 40094 705// 80002 333 0//00 59010 85076;","","","","","","","","","",""
"65319099999","2005-02-28T07:00:00","10.3166667","1.3833333","461.0","NATITINGOU, BN","FM-12","4","","58","77","","","","9","51","","29.81","28.33","4.97","65","000","","0","","","","","","","","","","","","","","","","","","","","","","","","","","","","","","","","","","","","","","","","","","","","","","","","","","","","","","","","","","","","","","","","","","","","","","","","","","","","","","","","","","","","","","","","","","","SYN100AAXX  28064 65319 32958 70000 10250 20142 39592 40095 80006 333 02300 20246 50884 55086 59007 87276;","","","","","","","","","",""
"65319099999","2005-02-28T13:00:00","10.3166667","1.3833333","461.0","NATITINGOU, BN","FM-12","4","","59","100","","","","9","26","BKN:07 256","29.79","28.32","4.97","73","020","","5","","","","","","","","","","","","","","","","","","","","","","","","","","","","","","","","","","","","","","","","","","","","","","","","","","","","","","","","","","","","","","","","","","","","","","","","","","","","","","","","","","","","","","","","","","","SYN082AAXX  28124 65319 32958 70204 10377 20150 39589 40088 80008 333 0//00 59011 87276;","","","","","","","","","",""
"65319099999","2005-02-28T19:00:00","10.3166667","1.3833333","461.0","NATITINGOU, BN","FM-12","4","","60","96","","","","9","30","SCT:03 108","29.70","28.22","3.73","72","360","","5","","","","","","","","","","","","","","","","","","","","","","","","","","","","","","","","","","","","","","","","","","","","","","","","","","","","","","","","","","","","","","","","","","","","","","","","","","","","","","","","","","","","","","","","","","","SYN088AAXX  28184 65319 32956 73604 10355 20154 39558 40058 83032 333 10398 59014 83361 85076;","","","","","","","","","",""
"65319099999","2005-03-01T01:00:00","10.3166667","1.3833333","461.0","NATITINGOU, BN","FM-12","4","","60","82","","","","9","46","BKN:07 256","29.75","28.28","4.97","68","000","","0","","","","","","","","","","","","","","","","","","","","","","","","","","","","","","","","","","","","","","","","","","","","","","","","","","","","","","","","","","","","","","","","","","","","","","","","","","","","","","","","","","","","","","","","","","","SYN082AAXX  01004 65319 33958 70000 10280 20153 39576 40073 80006 333 0//00 59016 87276;","","","","","","","","","",""
"65319099999","2005-03-01T07:00:00","10.3166667","1.3833333","461.0","NATITINGOU, BN","FM-12","4","","65","78","","","","9","66","","29.78","28.29","4.97","69","000","","0","","","","","","","","","","","","","","","","","","","","","","","","","","","","","","","","","","","","","","","","","","","","","","","","","","","","","","","","","","","","","","","","","","","","","","","","","","","","","","","","","","","","","","","","","","","SYN100AAXX  01064 65319 32958 50000 10255 20186 39581 40083 80002 333 02100 20255 51024 55078 59011 85076;","","","","","","","","","",""
"65319099999","2005-03-01T13:00:00","10.3166667","1.3833333","461.0","NATITINGOU, BN","FM-12","4","","49","101","","","","9","17","BKN:05 256","29.74","28.29","4.97","69","040","","5","","","","","","","","","","","","","","","","","","","","","","","","","","","","","","","","","","","","","","","","","","","","","","","","","","","","","","","","","","","","","","","","","","","","","","","","","","","","","","","","","","","","","","","","","","","SYN082AAXX  01124 65319 32958 50404 10385 20092 39580 40070 80002 333 0//00 59009 85076;","","","","","","","","","",""
"65319099999","2005-03-01T19:00:00","10.3166667","1.3833333","461.0","NATITINGOU, BN","FM-12","4","","60","99","","","","9","28","BKN:05 256","29.68","28.21","4.97","73","000","","0","","","","","","","","","","","","","","","","","","","","","","","","","","","","","","","","","","","","","","","","","","","","","","","","","","","","","","","","","","","","","","","","","","","","","","","","","","","","","","","","","","","","","","","","","","","SYN082AAXX  01184 65319 32958 50000 10370 20154 39553 40052 80002 333 10406 59005 85076;","","","","","","","","","",""
"65319099999","2005-03-02T01:00:00","10.3166667","1.3833333","461.0","NATITINGOU, BN","FM-12","4","","66","83","","","","9","56","BKN:05 256","29.77","28.30","4.97","72","000","","0","","","","","","","","","","","","","","","","","","","","","","","","","","","","","","","","","","","","","","","","","","","","","","","","","","","","","","","","","","","","","","","","","","","","","","","","","","","","","","","","","","","","","","","","","","","SYN082AAXX  02004 65319 33958 50000 10283 20188 39584 40080 80002 333 0//00 58008 85076;","","","","","","","","","",""
"65319099999","2005-03-02T07:00:00","10.3166667","1.3833333","461.0","NATITINGOU, BN","FM-12","4","","63","76","","","","9","65","","29.76","28.28","4.97","68","000","","0","","","","","","","","","","","","","","","","","","","","","","","","","","","","","","","","","","","","","","","","","","","","","","","","","","","","","","","","","","","","","","","","","","","","","","","","","","","","","","","","","","","","","","","","","","","SYN100AAXX  02064 65319 32958 50000 10245 20175 39576 40078 80002 333 02200 20240 50914 55101 59005 85076;","","","","","","","","","",""
"65319099999","2005-03-02T19:00:00","10.3166667","1.3833333","461.0","NATITINGOU, BN","FM-12","4","","68","95","","","","9","41","BKN:05 13","29.70","28.28","6.21","76","320","","5","","","","","","","","","","","","","","","","","","","","","","","","","","","","","","","","","","","","","","","","","","","","","","","","","","","","","","","","","","","","","","","","","","","","","","","","","","","","","","","","","","","","","","","","","","","SYN088AAXX  02184 65319 32460 73204 10350 20200 39578 40059 81532 333 10395 58005 85613 85076;","","","","","","","","","",""
"65319099999","2005-03-03T01:00:00","10.3166667","1.3833333","461.0","NATITINGOU, BN","FM-12","4","","68","86","","","","9","56","BKN:05 256","29.78","28.32","6.21","74","000","","0","","","","","","","","","","","","","","","","","","","","","","","","","","","","","","","","","","","","","","","","","","","","","","","","","","","","","","","","","","","","","","","","","","","","","","","","","","","","","","","","","","","","","","","","","","","SYN082AAXX  03004 65319 33960 50000 10298 20201 39589 40086 80002 333 0//00 58005 85076;","","","","","","","","","",""
"65319099999","2005-03-03T07:00:00","10.3166667","1.3833333","461.0","NATITINGOU, BN","FM-12","4","","69","81","","","","9","68","","29.83","28.34","6.21","73","000","","0","","","","","","","","","","","","","","","","","","","","","","","","","","","","","","","","","","","","","","","","","","","","","","","","","","","","","","","","","","","","","","","","","","","","","","","","","","","","","","","","","","","","","","","","","","","SYN100AAXX  03064 65319 32960 50000 10270 20206 39598 40100 80002 333 02100 20265 50764 55091 58022 85076;","","","","","","","","","",""
"65319099999","2005-03-03T13:00:00","10.3166667","1.3833333","461.0","NATITINGOU, BN","FM-12","4","","72","95","","","","9","47","BKN:07 256","29.84","28.36","4.97","78","220","","5","","","","","","","","","","","","","","","","","","","","","","","","","","","","","","","","","","","","","","","","","","","","","","","","","","","","","","","","","","","","","","","","","","","","","","","","","","","","","","","","","","","","","","","","","","","SYN082AAXX  03124 65319 32958 72204 10350 20222 39605 40105 80008 333 0//00 58019 87276;","","","","","","","","","",""
"65319099999","2005-03-04T01:00:00","10.3166667","1.3833333","461.0","NATITINGOU, BN","FM-12","4","","68","88","","","","9","51","BKN:05 256","29.85","28.38","6.21","74","220","","5","","","","","","","","","","","","","","","","","","","","","","","","","","","","","","","","","","","","","","","","","","","","","","","","","","","","","","","","","","","","","","","","","","","","","","","","","","","","","","","","","","","","","","","","","","","SYN082AAXX  04004 65319 33960 52204 10313 20201 39610 40109 80002 333 0//00 58021 85076;","","","","","","","","","",""
"65319099999","2005-03-04T07:00:00","10.3166667","1.3833333","461.0","NATITINGOU, BN","FM-12","4","","65","85","","","","9","53","","29.84","28.36","3.11","72","320","","5","","","","","","","","","","","","","","","","","","","","","","","","","","","","","","","","","","","","","","","","","","","","","","","","","","","","","","","","","","","","","","","","","","","","","","","","","","","","","","","","","","","","","","","","","","","SYN106AAXX  04064 65319 31450 73204 10292 20186 39604 40104 71022 876// 333 02400 20284 50784 55056 58006 87710;","","","","","","","","","",""
"65319099999","2005-03-04T13:00:00","10.3166667","1.3833333","461.0","NATITINGOU, BN","FM-12","4","","58","95","","||DU","","9","29","BKN:07 256","29.82","28.35","0.12","71","360","","7","","","","","","","","","","","","","","","","","","","","","","","","","","","","","","","","","","","","","","","","","","","","","","","","","","","","","","","","","","","","","","","","","","","","","","","","","","","","","","","","","","","","","","","","","","","SYN088AAXX  04124 65319 31902 73606 10350 20146 39599 40097 70644 80008 333 0//00 59006 87276;","","","","","","","","","",""
"65319099999","2005-03-04T19:00:00","10.3166667","1.3833333","461.0","NATITINGOU, BN","FM-12","4","","63","93","","||HZ","","9","37","SCT:03 108","29.77","28.30","0.25","73","000","","0","","","","","","","","","","","","","","","","","","","","","","","","","","","","","","","","","","","","","","","","","","","","","","","","","","","","","","","","","","","","","","","","","","","","","","","","","","","","","","","","","","","","","","","","","","","SYN094AAXX  04184 65319 31904 70000 10340 20174 39582 40082 70544 83038 333 10370 58014 83361 87276;","","","","","","","","","",""
"65319099999","2005-03-05T01:00:00","10.3166667","1.3833333","461.0","NATITINGOU, BN","FM-12","4","","69","85","","","","9","59","BKN:05 256","29.78","28.31","4.97","74","000","","0","","","","","","","","","","","","","","","","","","","","","","","","","","","","","","","","","","","","","","","","","","","","","","","","","","","","","","","","","","","","","","","","","","","","","","","","","","","","","","","","","","","","","","","","","","","SYN082AAXX  05004 65319 33958 50000 10295 20207 39587 40084 80002 333 0//00 59025 85076;","","","","","","","","","",""
"65319099999","2005-03-05T07:00:00","10.3166667","1.3833333","461.0","NATITINGOU, BN","FM-12","4","","69","82","","||DU","","9","64","","29.78","28.32","3.11","73","000","","0","","","","","","","","","","","","","","","","","","","","","","","","","","","","","","","","","","","","","","","","","","","","","","","","","","","","","","","","","","","","","","","","","","","","","","","","","","","","","","","","","","","","","","","","","","","SYN106AAXX  05064 65319 31950 70000 10280 20206 39589 40085 70622 80008 333 02700 20275 50694 55000 59015 87276;","","","","","","","","","",""
"65319099999","2005-03-05T13:00:00","10.3166667","1.3833333","461.0","NATITINGOU, BN","FM-12","4","","62","99","","||DU","","9","30","BKN:07 10","29.80","28.33","0.06","74","320","","5","","","","","","","","","","","","","","","","","","","","","","","","","","","","","","","","","","","","","","","","","","","","","","","","","","","","","","","","","","","","","","","","","","","","","","","","","","","","","","","","","","","","","","","","","","","SYN088AAXX  05124 65319 31401 73204 10370 20169 39594 40092 70644 876// 333 0//00 59005 87710;","","","","","","","","","",""
"65319099999","2005-03-05T19:00:00","10.3166667","1.3833333","461.0","NATITINGOU, BN","FM-12","4","","66","97","","||HZ","","9","37","BKN:07 256","29.74","28.26","2.49","75","000","","0","","","","","","","","","","","","","","","","","","","","","","","","","","","","","","","","","","","","","","","","","","","","","","","","","","","","","","","","","","","","","","","","","","","","","","","","","","","","","","","","","","","","","","","","","","","SYN088AAXX  05184 65319 31940 70000 10360 20190 39571 40070 70522 80008 333 10392 58011 87276;","","","","","","","","","",""
"65319099999","2005-03-06T01:00:00","10.3166667","1.3833333","461.0","NATITINGOU, BN","FM-12","4","","66","88","","||HZ","","9","48","BKN:05 256","29.82","28.33","2.49","73","000","","0","","","","","","","","","","","","","","","","","","","","","","","","","","","","","","","","","","","","","","","","","","","","","","","","","","","","","","","","","","","","","","","","","","","","","","","","","","","","","","","","","","","","","","","","","","","SYN088AAXX  06004 65319 31940 50000 10312 20190 39594 40099 705// 80002 333 0//00 58009 85076;","","","","","","","","","",""
"65319099999","2005-03-06T07:00:00","10.3166667","1.3833333","461.0","NATITINGOU, BN","FM-12","4","","70","85","","","","9","61","","29.79","28.32","3.11","75","000","","0","","","","","","","","","","","","","","","","","","","","","","","","","","","","","","","","","","","","","","","","","","","","","","","","","","","","","","","","","","","","","","","","","","","","","","","","","","","","","","","","","","","","","","","","","","","SYN106AAXX  06064 65319 31950 70000 10296 20213 39591 40089 71022 8703/ 333 02700 20291 50664 55000 58002 87361;","","","","","","","","","",""
"65319099999","2005-03-06T13:00:00","10.3166667","1.3833333","461.0","NATITINGOU, BN","FM-12","4","","74","96","","||HZ","","9","50","BKN:07 256","29.82","28.32","3.11","80","220","","11","","","","","","","","","","","","","","","","","","","","","","","","","","","","","","","","","","","","","","","","","","","","","","","","","","","","","","","","","","","","","","","","","","","","","","","","","","","","","","","","","","","","","","","","","","","SYN088AAXX  06124 65319 31950 72210 10357 20236 39589 40097 70522 80008 333 0//00 59005 87276;","","","","","","","","","",""
"65319099999","2005-03-06T19:00:00","10.3166667","1.3833333","461.0","NATITINGOU, BN","FM-12","4","","73","95","","||HZ","","9","49","BKN:07 256","29.72","28.25","3.11","79","220","","5","","","","","","","","","","","","","","","","","","","","","","","","","","","","","","","","","","","","","","","","","","","","","","","","","","","","","","","","","","","","","","","","","","","","","","","","","","","","","","","","","","","","","","","","","","","SYN088AAXX  06184 65319 31950 72204 10350 20228 39568 40066 70522 80008 333 10383 59003 87276;","","","","","","","","","",""
"65319099999","2005-03-07T07:00:00","10.3166667","1.3833333","461.0","NATITINGOU, BN","FM-12","4","","66","77","","","","9","69","","29.78","28.29","4.97","70","000","","0","","","","","","","","","","","","","","","","","","","","","","","","","","","","","","","","","","","","","","","","","","","","","","","","","","","","","","","","","","","","","","","","","","","","","","","","","","","","","","","","","","","","","","","","","","","SYN100AAXX  07064 65319 32958 70000 10250 20189 39581 40084 8707/ 333 02800 20226 50854 55053 59010 87361;","","","","","","","","","",""
"65319099999","2005-03-07T13:00:00","10.3166667","1.3833333","461.0","NATITINGOU, BN","FM-12","4","","65","96","","","","9","36","SCT:03 108","29.75","28.29","6.21","75","220","","9","","","","","","","","","","","","","","","","","","","","","","","","","","","","","","","","","","","","","","","","","","","","","","","","","","","","","","","","","","","","","","","","","","","","","","","","","","","","","","","","","","","","","","","","","","","SYN088AAXX  07124 65319 32960 72208 10357 20183 39579 40076 83038 333 0//00 59010 83361 87276;","","","","","","","","","",""
"65319099999","2005-03-07T19:00:00","10.3166667","1.3833333","461.0","NATITINGOU, BN","FM-12","4","","64","95","","","","9","35","BKN:07 256","29.70","28.21","6.21","74","000","","0","","","","","","","","","","","","","","","","","","","","","","","","","","","","","","","","","","","","","","","","","","","","","","","","","","","","","","","","","","","","","","","","","","","","","","","","","","","","","","","","","","","","","","","","","","","SYN082AAXX  07184 65319 32960 70000 10352 20176 39554 40056 80008 333 10390 59014 87276;","","","","","","","","","",""
"65319099999","2005-03-08T07:00:00","10.3166667","1.3833333","461.0","NATITINGOU, BN","FM-12","4","","73","81","","","","9","77","","29.75","28.27","4.97","75","000","","0","","","","","","","","","","","","","","","","","","","","","","","","","","","","","","","","","","","","","","","","","","","","","","","","","","","","","","","","","","","","","","","","","","","","","","","","","","","","","","","","","","","","","","","","","","","SYN100AAXX  08064 65319 32958 50000 10270 20227 39574 40075 80002 333 02300 20267 50874 55065 59007 85076;","","","","","","","","","",""
"65319099999","2005-03-08T13:00:00","10.3166667","1.3833333","461.0","NATITINGOU, BN","FM-12","4","","61","100","","||HZ","","9","27","BKN:07 256","29.75","28.28","3.73","74","360","","7","","","","","","","","","","","","","","","","","","","","","","","","","","","","","","","","","","","","","","","","","","","","","","","","","","","","","","","","","","","","","","","","","","","","","","","","","","","","","","","","","","","","","","","","","","","SYN088AAXX  08124 65319 31956 73606 10380 20159 39578 40074 70522 80008 333 0//00 58001 87276;","","","","","","","","","",""
"65319099999","2005-03-08T19:00:00","10.3166667","1.3833333","461.0","NATITINGOU, BN","FM-12","4","","65","97","","||HZ","","9","35","BKN:07 256","29.66","28.19","3.73","75","000","","0","","","","","","","","","","","","","","","","","","","","","","","","","","","","","","","","","","","","","","","","","","","","","","","","","","","","","","","","","","","","","","","","","","","","","","","","","","","","","","","","","","","","","","","","","","","SYN088AAXX  08184 65319 31956 70000 10359 20182 39545 40043 70522 80006 333 10396 58009 87276;","","","","","","","","","",""
"65319099999","2005-03-09T07:00:00","10.3166667","1.3833333","461.0","NATITINGOU, BN","FM-12","4","","60","82","","||HZ","","9","47","","29.73","28.26","3.73","68","000","","0","","","","","","","","","","","","","","","","","","","","","","","","","","","","","","","","","","","","","","","","","","","","","","","","","","","","","","","","","","","","","","","","","","","","","","","","","","","","","","","","","","","","","","","","","","","SYN106AAXX  09064 65319 31956 70000 10277 20155 39569 40067 70522 80008 333 02500 20271 50794 55077 59007 87276;","","","","","","","","","",""
"65319099999","2005-03-09T13:00:00","10.3166667","1.3833333","461.0","NATITINGOU, BN","FM-12","4","","59","101","","","","9","24","BKN:05 256","29.71","28.25","4.97","73","360","","5","","","","","","","","","","","","","","","","","","","","","","","","","","","","","","","","","","","","","","","","","","","","","","","","","","","","","","","","","","","","","","","","","","","","","","","","","","","","","","","","","","","","","","","","","","","SYN082AAXX  09124 65319 32958 53604 10385 20148 39566 40060 80002 333 0//00 59011 85076;","","","","","","","","","",""
"65319099999","2005-03-09T19:00:00","10.3166667","1.3833333","461.0","NATITINGOU, BN","FM-12","4","","59","100","","||HZ","","9","25","BKN:07 256","29.64","28.17","3.73","73","000","","0","","","","","","","","","","","","","","","","","","","","","","","","","","","","","","","","","","","","","","","","","","","","","","","","","","","","","","","","","","","","","","","","","","","","","","","","","","","","","","","","","","","","","","","","","","","SYN088AAXX  09184 65319 31956 70000 10380 20150 39540 40036 70522 80008 333 10407 59005 87276;","","","","","","","","","",""
"65319099999","2005-03-10T01:00:00","10.3166667","1.3833333","461.0","NATITINGOU, BN","FM-12","4","","63","84","","||HZ","","9","50","","29.72","28.27","4.97","70","000","","0","","","","","","","","","","","","","","","","","","","","","","","","","","","","","","","","","","","","","","","","","","","","","","","","","","","","","","","","","","","","","","","","","","","","","","","","","","","","","","","","","","","","","","","","","","","SYN089AAXX  10004 65319 31958 50000 10288 20173 39575 40066 705// 800002 333 0//00 58008 85076;","","","","","","","","","",""
"65319099999","2005-03-10T07:00:00","10.3166667","1.3833333","461.0","NATITINGOU, BN","FM-12","4","","72","81","","","","9","75","","29.72","28.25","4.97","75","000","","0","","","","","","","","","","","","","","","","","","","","","","","","","","","","","","","","","","","","","","","","","","","","","","","","","","","","","","","","","","","","","","","","","","","","","","","","","","","","","","","","","","","","","","","","","","","SYN100AAXX  10064 65319 32958 50000 10270 20222 39568 40066 80002 333 02500 20266 51004 55082 59001 85076;","","","","","","","","","",""
"65319099999","2005-03-10T13:00:00","10.3166667","1.3833333","461.0","NATITINGOU, BN","FM-12","4","","69","98","","","","9","40","BKN:05 256","29.75","28.28","4.97","77","320","","5","","","","","","","","","","","","","","","","","","","","","","","","","","","","","","","","","","","","","","","","","","","","","","","","","","","","","","","","","","","","","","","","","","","","","","","","","","","","","","","","","","","","","","","","","","","SYN082AAXX  10124 65319 32958 53204 10365 20207 39577 40074 80002 333 0//00 58011 85076;","","","","","","","","","",""
"65319099999","2005-03-11T01:00:00","10.3166667","1.3833333","461.0","NATITINGOU, BN","FM-12","4","","65","85","","","","9","50","BKN:05 256","29.73","28.26","4.97","72","300","","4","","","","","","","","","","","","","","","","","","","","","","","","","","","","","","","","","","","","","","","","","","","","","","","","","","","","","","","","","","","","","","","","","","","","","","","","","","","","","","","","","","","","","","","","","","","SYN082AAXX  11000 65319 33958 53002 10295 20181 39571 40068 80002 333 0//00 59004 85076;","","","","","","","","","",""
"65319099999","2005-03-11T07:00:00","10.3166667","1.3833333","461.0","NATITINGOU, BN","FM-12","4","","70","81","","","","9","71","","29.74","28.27","4.97","73","240","","5","","","","","","","","","","","","","","","","","","","","","","","","","","","","","","","","","","","","","","","","","","","","","","","","","","","","","","","","","","","","","","","","","","","","","","","","","","","","","","","","","","","","","","","","","","","SYN100AAXX  11064 65319 32958 52404 10270 20212 39574 40072 80002 333 02600 20265 50744 55087 58006 85076;","","","","","","","","","",""
"65319099999","2005-03-11T13:00:00","10.3166667","1.3833333","461.0","NATITINGOU, BN","FM-12","4","","71","97","","","","9","42","FEW:01 13","29.76","28.29","6.21","78","120","","5","","","","","","","","","","","","","","","","","","","","","","","","","","","","","","","","","","","","","","","","","","","","","","","","","","","","","","","","","","","","","","","","","","","","","","","","","","","","","","","","","","","","","","","","","","","SYN088AAXX  11124 65319 32460 71204 10363 20215 39580 40078 81508 333 0//00 58003 81613 87276;","","","","","","","","","",""
"65319099999","2005-03-11T19:00:00","10.3166667","1.3833333","461.0","NATITINGOU, BN","FM-12","4","","71","97","","||HZ","","9","43","FEW:01 13 FEW:01 30 BKN:05 256","29.68","28.21","3.73","78","200","","2","","","","","","","","","","","","","","","","","","","","","","","","","","","","","","","","","","","","","","","","","","","","","","","","","","","","","","","","","","","","","","","","","","","","","","","","","","","","","","","","","","","","","","","","","","","SYN112AAXX  11184 65319 31456 72002 10360 20214 39553 40052 70522 82902 333 10400 58011 81613 81930 85076 94947 95837;","","","","","","","","","",""
"65319099999","2005-03-12T01:00:00","10.3166667","1.3833333","461.0","NATITINGOU, BN","FM-12","4","","72","88","","","","9","59","BKN:05 256","29.74","28.27","6.21","77","000","","0","","","","","","","","","","","","","","","","","","","","","","","","","","","","","","","","","","","","","","","","","","","","","","","","","","","","","","","","","","","","","","","","","","","","","","","","","","","","","","","","","","","","","","","","","","","SYN082AAXX  12004 65319 33960 50000 10309 20220 39575 40072 80002 333 0//00 58004 85076;","","","","","","","","","",""
"65319099999","2005-03-12T07:00:00","10.3166667","1.3833333","461.0","NATITINGOU, BN","FM-12","4","","70","77","","||TS","","9","80","OVC:08 13 FEW:02 30","29.78","28.29","4.97","72","280","","14","","","","","","","","","","","","","","","","","","","","","","","","","","","","","","","","","","","","","","","","","","","","","","","","","","","","","","","","","","","","","","","","","","","","","","","","","","","","","","","","","","","","","","","","","","","SYN130AAXX  12064 65319 11458 72812 10250 20212 39581 40084 60054 79596 889// 333 02555 20245 51264 55087 58007 88613 82930 94959 95839;","","","","","","","","","",""
"65319099999","2005-03-12T13:00:00","10.3166667","1.3833333","461.0","NATITINGOU, BN","FM-12","4","","71","74","","","","9","89","BKN:07 108","29.81","28.31","4.97","72","200","","7","","","","","","","","","","","","","","","","","","","","","","","","","","","","","","","","","","","","","","","","","","","","","","","","","","","","","","","","","","","","","","","","","","","","","","","","","","","","","","","","","","","","","","","","","","","SYN094AAXX  12124 65319 11958 72006 10235 20216 39586 40094 60031 72196 8707/ 333 0//51 58006 87361;","","","","","","","","","",""
"65319099999","2005-03-12T19:00:00","10.3166667","1.3833333","461.0","NATITINGOU, BN","FM-12","4","","72","81","","","","9","74","BKN:07 108","29.71","28.22","4.97","75","000","","0","","","","","","","","","","","","","","","","","","","","","","","","","","","","","","","","","","","","","","","","","","","","","","","","","","","","","","","","","","","","","","","","","","","","","","","","","","","","","","","","","","","","","","","","","","","SYN088AAXX  12184 65319 12958 70000 10275 20225 39557 40062 60032 8703/ 333 10305 58002 87361;","","","","","","","","","",""
"65319099999","2005-03-13T01:00:00","10.3166667","1.3833333","461.0","NATITINGOU, BN","FM-12","4","","72","79","","","","9","81","BKN:05 256","29.83","28.32","4.97","74","000","","0","","","","","","","","","","","","","","","","","","","","","","","","","","","","","","","","","","","","","","","","","","","","","","","","","","","","","","","","","","","","","","","","","","","","","","","","","","","","","","","","","","","","","","","","","","","SYN082AAXX  13004 65319 33958 50000 10260 20224 39589 40100 80002 333 0//00 58014 85076;","","","","","","","","","",""
"65319099999","2005-03-13T07:00:00","10.3166667","1.3833333","461.0","NATITINGOU, BN","FM-12","4","","71","73","","","","9","91","","29.78","28.28","6.21","72","000","","0","","","","","","","","","","","","","","","","","","","","","","","","","","","","","","","","","","","","","","","","","","","","","","","","","","","","","","","","","","","","","","","","","","","","","","","","","","","","","","","","","","","","","","","","","","","SYN106AAXX  13064 65319 12960 50000 10230 20215 39576 40086 60034 80002 333 02059 20225 50524 55011 59005 85076;","","","","","","","","","",""
"65319099999","2005-03-13T13:00:00","10.3166667","1.3833333","461.0","NATITINGOU, BN","FM-12","4","","71","90","","","","9","53","SCT:03 108","29.78","28.29","4.97","77","200","","7","","","","","","","","","","","","","","","","","","","","","","","","","","","","","","","","","","","","","","","","","","","","","","","","","","","","","","","","","","","","","","","","","","","","","","","","","","","","","","","","","","","","","","","","","","","SYN088AAXX  13124 65319 32958 72006 10323 20215 39579 40083 83032 333 0//00 59007 83361 85076;","","","","","","","","","",""
"65319099999","2005-03-13T19:00:00","10.3166667","1.3833333","461.0","NATITINGOU, BN","FM-12","4","","72","90","","","","9","54","FEW:02 13","29.73","28.24","4.97","77","000","","0","","","","","","","","","","","","","","","","","","","","","","","","","","","","","","","","","","","","","","","","","","","","","","","","","","","","","","","","","","","","","","","","","","","","","","","","","","","","","","","","","","","","","","","","","","","SYN088AAXX  13184 65319 32458 70000 10325 20220 39562 40067 8253/ 333 10355 58007 82613 87361;","","","","","","","","","",""
"65319099999","2005-03-14T01:00:00","10.3166667","1.3833333","461.0","NATITINGOU, BN","FM-12","4","","71","85","","","","9","63","BKN:05 256","29.80","28.32","4.97","75","200","","5","","","","","","","","","","","","","","","","","","","","","","","","","","","","","","","","","","","","","","","","","","","","","","","","","","","","","","","","","","","","","","","","","","","","","","","","","","","","","","","","","","","","","","","","","","","SYN082AAXX  14004 65319 33958 52004 10292 20214 39589 40090 80002 333 0//00 58000 85076;","","","","","","","","","",""
"65319099999","2005-03-14T07:00:00","10.3166667","1.3833333","461.0","NATITINGOU, BN","FM-12","4","","71","79","","","","9","77","SCT:03 108","29.80","28.31","4.97","73","000","","0","","","","","","","","","","","","","","","","","","","","","","","","","","","","","","","","","","","","","","","","","","","","","","","","","","","","","","","","","","","","","","","","","","","","","","","","","","","","","","","","","","","","","","","","","","","SYN106AAXX  14064 65319 32958 70000 10260 20216 39586 40090 83032 333 02100 20260 50624 55061 58010 83361 85076;","","","","","","","","","",""
"65319099999","2005-03-14T13:00:00","10.3166667","1.3833333","461.0","NATITINGOU, BN","FM-12","4","","72","94","","","","9","50","FEW:01 13","29.81","28.33","4.97","78","240","","7","","","","","","","","","","","","","","","","","","","","","","","","","","","","","","","","","","","","","","","","","","","","","","","","","","","","","","","","","","","","","","","","","","","","","","","","","","","","","","","","","","","","","","","","","","","SYN088AAXX  14124 65319 32458 72406 10342 20224 39593 40094 81638 333 0//00 58014 81613 87276;","","","","","","","","","",""
"65319099999","2005-03-14T19:00:00","10.3166667","1.3833333","461.0","NATITINGOU, BN","FM-12","4","","70","79","","","","9","75","FEW:01 13","29.76","28.26","4.97","73","000","","0","","","","","","","","","","","","","","","","","","","","","","","","","","","","","","","","","","","","","","","","","","","","","","","","","","","","","","","","","","","","","","","","","","","","","","","","","","","","","","","","","","","","","","","","","","","SYN100AAXX  14184 65319 11458 70000 10260 20213 39570 40079 60082 70266 8157/ 333 10364 58008 81613 87461;","","","","","","","","","",""
"65319099999","2005-03-15T01:00:00","10.3166667","1.3833333","461.0","NATITINGOU, BN","FM-12","4","","69","79","","","","9","72","BKN:07 108","29.80","28.32","4.97","72","000","","0","","","","","","","","","","","","","","","","","","","","","","","","","","","","","","","","","","","","","","","","","","","","","","","","","","","","","","","","","","","","","","","","","","","","","","","","","","","","","","","","","","","","","","","","","","","SYN094AAXX  15004 65319 11958 70000 10262 20208 39590 40093 60011 70266 8707/ 333 0//51 58001 87361;","","","","","","","","","",""
"65319099999","2005-03-15T07:00:00","10.3166667","1.3833333","461.0","NATITINGOU, BN","FM-12","4","","70","75","","","","9","85","FEW:02 13","29.83","28.32","6.21","72","000","","0","","","","","","","","","","","","","","","","","","","","","","","","","","","","","","","","","","","","","","","","","","","","","","","","","","","","","","","","","","","","","","","","","","","","","","","","","","","","","","","","","","","","","","","","","","","SYN118AAXX  15064 65319 11460 70000 10240 20213 39589 40100 60094 72166 8257/ 333 02351 20234 51274 55061 58003 82613 87361;","","","","","","","","","",""
"65319099999","2005-03-15T13:00:00","10.3166667","1.3833333","461.0","NATITINGOU, BN","FM-12","4","","67","92","","","","9","44","BKN:07 108","29.78","28.30","6.21","75","040","","5","","","","","","","","","","","","","","","","","","","","","","","","","","","","","","","","","","","","","","","","","","","","","","","","","","","","","","","","","","","","","","","","","","","","","","","","","","","","","","","","","","","","","","","","","","","SYN082AAXX  15124 65319 32960 70404 10335 20195 39583 40086 8703/ 333 0//00 59010 87361;","","","","","","","","","",""
"65319099999","2005-03-15T19:00:00","10.3166667","1.3833333","461.0","NATITINGOU, BN","FM-12","4","","","","","","","9","","SCT:03 108","","","6.21","","000","","0","","","","","","","","","","","","","","","","","","","","","","","","","","","","","","","","","","","","","","","","","","","","","","","","","","","","","","","","","","","","","","","","","","","","","","","","","","","","","","","","","","","","","","","","","","","SYN088AAXX  15184 65319 32960 70000 20198 20330 39562 40066 83032 333 10355 59008 83361 85076;","","","","","","","","","",""
"65319099999","2005-03-16T01:00:00","10.3166667","1.3833333","461.0","NATITINGOU, BN","FM-12","4","","70","81","","","","9","70","BKN:05 256","29.76","28.28","4.97","73","000","","0","","","","","","","","","","","","","","","","","","","","","","","","","","","","","","","","","","","","","","","","","","","","","","","","","","","","","","","","","","","","","","","","","","","","","","","","","","","","","","","","","","","","","","","","","","","SYN082AAXX  16004 65319 33958 50000 10270 20211 39577 40079 80002 333 0//00 59013 85076;","","","","","","","","","",""
"65319099999","2005-03-16T07:00:00","10.3166667","1.3833333","461.0","NATITINGOU, BN","FM-12","4","","56","72","","","","9","59","","29.77","28.27","6.21","62","000","","0","","","","","","","","","","","","","","","","","","","","","","","","","","","","","","","","","","","","","","","","","","","","","","","","","","","","","","","","","","","","","","","","","","","","","","","","","","","","","","","","","","","","","","","","","","","SYN100AAXX  16064 65319 32960 70000 10220 20136 39573 40080 80006 333 02300 20215 50494 55049 59016 87276;","","","","","","","","","",""
"65319099999","2005-03-16T13:00:00","10.3166667","1.3833333","461.0","NATITINGOU, BN","FM-12","4","","42","99","","","","9","14","BKN:05 256","29.74","28.27","6.21","65","140","","7","","","","","","","","","","","","","","","","","","","","","","","","","","","","","","","","","","","","","","","","","","","","","","","","","","","","","","","","","","","","","","","","","","","","","","","","","","","","","","","","","","","","","","","","","","","SYN082AAXX  16124 65319 32960 51406 10372 20056 39572 40071 80002 333 0//00 59011 85076;","","","","","","","","","",""
"65319099999","2005-03-17T19:00:00","10.3166667","1.3833333","461.0","NATITINGOU, BN","FM-12","4","","66","95","","||HZ","","9","39","SCT:04 13","29.72","28.24","3.73","75","000","","0","","","","","","","","","","","","","","","","","","","","","","","","","","","","","","","","","","","","","","","","","","","","","","","","","","","","","","","","","","","","","","","","","","","","","","","","","","","","","","","","","","","","","","","","","","","SYN094AAXX  17184 65319 31456 70000 10350 20190 39562 40065 70522 81508 333 10384 58007 84613 87276;","","","","","","","","","",""
"65319099999","2005-03-18T01:00:00","10.3166667","1.3833333","461.0","NATITINGOU, BN","FM-12","4","","68","83","","","","9","62","BKN:05 256","29.77","28.29","4.97","73","000","","0","","","","","","","","","","","","","","","","","","","","","","","","","","","","","","","","","","","","","","","","","","","","","","","","","","","","","","","","","","","","","","","","","","","","","","","","","","","","","","","","","","","","","","","","","","","SYN082AAXX  18004 65319 33958 50000 10282 20202 39580 40080 80002 333 0//00 58006 85076;","","","","","","","","","",""
"65319099999","2005-03-18T07:00:00","10.3166667","1.3833333","461.0","NATITINGOU, BN","FM-12","4","","72","79","","","","9","81","","29.79","28.31","4.97","74","000","","0","","","","","","","","","","","","","","","","","","","","","","","","","","","","","","","","","","","","","","","","","","","","","","","","","","","","","","","","","","","","","","","","","","","","","","","","","","","","","","","","","","","","","","","","","","","SYN100AAXX  18064 65319 32958 50000 10260 20224 39586 40088 80002 333 02100 20255 50624 55072 58015 85076;","","","","","","","","","",""
"65319099999","2005-03-18T19:00:00","10.3166667","1.3833333","461.0","NATITINGOU, BN","FM-12","4","","65","96","","","","9","36","BKN:05 256","29.70","28.22","4.97","75","000","","0","","","","","","","","","","","","","","","","","","","","","","","","","","","","","","","","","","","","","","","","","","","","","","","","","","","","","","","","","","","","","","","","","","","","","","","","","","","","","","","","","","","","","","","","","","","SYN082AAXX  18184 65319 32958 50000 10355 20184 39556 40056 80002 333 10385 59006 85076;","","","","","","","","","",""
"65319099999","2005-03-19T01:00:00","10.3166667","1.3833333","461.0","NATITINGOU, BN","FM-12","4","","67","83","","","","9","58","BKN:05 256","29.76","28.34","4.97","72","000","","0","","","","","","","","","","","","","","","","","","","","","","","","","","","","","","","","","","","","","","","","","","","","","","","","","","","","","","","","","","","","","","","","","","","","","","","","","","","","","","","","","","","","","","","","","","","SYN082AAXX  19004 65319 32958 50000 10285 20195 39598 40077 80002 333 0//00 59002 85076;","","","","","","","","","",""
"65319099999","2005-03-19T07:00:00","10.3166667","1.3833333","461.0","NATITINGOU, BN","FM-12","4","","69","79","","","","9","73","","29.78","28.30","4.97","72","000","","0","","","","","","","","","","","","","","","","","","","","","","","","","","","","","","","","","","","","","","","","","","","","","","","","","","","","","","","","","","","","","","","","","","","","","","","","","","","","","","","","","","","","","","","","","","","SYN100AAXX  19064 65319 32958 50000 10260 20208 39585 40086 80002 333 02400 20255 50714 55091 59001 85076;","","","","","","","","","",""
"65319099999","2005-03-19T13:00:00","10.3166667","1.3833333","461.0","NATITINGOU, BN","FM-12","4","","67","98","","","","9","37","BKN:05 256","29.76","28.29","4.97","76","060","","7","","","","","","","","","","","","","","","","","","","","","","","","","","","","","","","","","","","","","","","","","","","","","","","","","","","","","","","","","","","","","","","","","","","","","","","","","","","","","","","","","","","","","","","","","","","SYN082AAXX  19124 65319 32958 50606 10365 20196 39579 40077 80002 333 0//00 59003 85076;","","","","","","","","","",""
"65319099999","2005-03-19T19:00:00","10.3166667","1.3833333","461.0","NATITINGOU, BN","FM-12","4","","67","96","","||HZ","","9","38","SCT:03 108","29.70","28.22","3.73","76","000","","0","","","","","","","","","","","","","","","","","","","","","","","","","","","","","","","","","","","","","","","","","","","","","","","","","","","","","","","","","","","","","","","","","","","","","","","","","","","","","","","","","","","","","","","","","","","SYN094AAXX  19184 65319 31956 70000 10357 20192 39557 40057 70522 83032 333 10390 58001 83361 85076;","","","","","","","","","",""
"65319099999","2005-03-20T01:00:00","10.3166667","1.3833333","461.0","NATITINGOU, BN","FM-12","4","","67","85","","","","9","54","BKN:05 256","29.76","28.29","4.97","73","000","","0","","","","","","","","","","","","","","","","","","","","","","","","","","","","","","","","","","","","","","","","","","","","","","","","","","","","","","","","","","","","","","","","","","","","","","","","","","","","","","","","","","","","","","","","","","","SYN082AAXX  20004 65319 33958 50000 10295 20192 39580 40078 80002 333 0//00 58002 85076;","","","","","","","","","",""
"65319099999","2005-03-20T07:00:00","10.3166667","1.3833333","461.0","NATITINGOU, BN","FM-12","4","","71","81","","","","9","71","","29.77","28.30","4.97","74","000","","0","","","","","","","","","","","","","","","","","","","","","","","","","","","","","","","","","","","","","","","","","","","","","","","","","","","","","","","","","","","","","","","","","","","","","","","","","","","","","","","","","","","","","","","","","","","SYN100AAXX  20064 65319 32958 50000 10275 20217 39582 40082 80002 333 02400 20265 50744 55079 59003 85076;","","","","","","","","","",""
"65319099999","2005-03-20T13:00:00","10.3166667","1.3833333","461.0","NATITINGOU, BN","FM-12","4","","71","97","","","","9","43","FEW:02 13","29.77","28.30","4.97","78","320","","5","","","","","","","","","","","","","","","","","","","","","","","","","","","","","","","","","","","","","","","","","","","","","","","","","","","","","","","","","","","","","","","","","","","","","","","","","","","","","","","","","","","","","","","","","","","SYN088AAXX  20124 65319 32458 73204 10362 20219 39582 40081 82508 333 0//00 58003 82613 87276;","","","","","","","","","",""
"65319099999","2005-03-20T19:00:00","10.3166667","1.3833333","461.0","NATITINGOU, BN","FM-12","4","","69","94","","","","9","44","BKN:07 256","29.70","28.20","4.97","76","000","","0","","","","","","","","","","","","","","","","","","","","","","","","","","","","","","","","","","","","","","","","","","","","","","","","","","","","","","","","","","","","","","","","","","","","","","","","","","","","","","","","","","","","","","","","","","","SYN082AAXX  20184 65319 32958 70000 10347 20207 39548 40058 80008 333 10380 58001 87276;","","","","","","","","","",""
"65319099999","2005-03-21T01:00:00","10.3166667","1.3833333","461.0","NATITINGOU, BN","FM-12","4","","72","86","","","","9","62","BKN:07 256","29.75","28.28","4.97","76","000","","0","","","","","","","","","","","","","","","","","","","","","","","","","","","","","","","","","","","","","","","","","","","","","","","","","","","","","","","","","","","","","","","","","","","","","","","","","","","","","","","","","","","","","","","","","","","SYN082AAXX  21004 65319 33958 70000 10301 20221 39576 40073 80006 333 0//00 59004 87276;","","","","","","","","","",""
"65319099999","2005-03-21T07:00:00","10.3166667","1.3833333","461.0","NATITINGOU, BN","FM-12","4","","67","80","","","","9","64","","29.76","28.28","4.97","71","220","","5","","","","","","","","","","","","","","","","","","","","","","","","","","","","","","","","","","","","","","","","","","","","","","","","","","","","","","","","","","","","","","","","","","","","","","","","","","","","","","","","","","","","","","","","","","","SYN100AAXX  21064 65319 32958 72204 10269 20196 39578 40079 80008 333 02500 20262 50794 55082 59004 87276;","","","","","","","","","",""
"65319099999","2005-03-21T13:00:00","10.3166667","1.3833333","461.0","NATITINGOU, BN","FM-12","4","","71","97","","","","9","44","BKN:05 256","29.74","28.27","4.97","78","240","","11","","","","","","","","","","","","","","","","","","","","","","","","","","","","","","","","","","","","","","","","","","","","","","","","","","","","","","","","","","","","","","","","","","","","","","","","","","","","","","","","","","","","","","","","","","","SYN082AAXX  21124 65319 32958 52410 10360 20218 39575 40072 80002 333 0//00 59007 85076;","","","","","","","","","",""
"65319099999","2005-03-21T19:00:00","10.3166667","1.3833333","461.0","NATITINGOU, BN","FM-12","4","","65","96","","","","9","35","BKN:05 256","29.68","28.21","4.97","75","000","","0","","","","","","","","","","","","","","","","","","","","","","","","","","","","","","","","","","","","","","","","","","","","","","","","","","","","","","","","","","","","","","","","","","","","","","","","","","","","","","","","","","","","","","","","","","","SYN082AAXX  21184 65319 32958 50000 10358 20182 39553 40052 80002 333 10380 59005 85076;","","","","","","","","","",""
"65319099999","2005-03-22T01:00:00","10.3166667","1.3833333","461.0","NATITINGOU, BN","FM-12","4","","67","83","","","","9","58","BKN:05 256","29.77","28.29","4.97","72","000","","0","","","","","","","","","","","","","","","","","","","","","","","","","","","","","","","","","","","","","","","","","","","","","","","","","","","","","","","","","","","","","","","","","","","","","","","","","","","","","","","","","","","","","","","","","","","SYN082AAXX  22004 65319 33958 50000 10285 20195 39581 40080 80002 333 0//00 58005 85076;","","","","","","","","","",""
"65319099999","2005-03-22T07:00:00","10.3166667","1.3833333","461.0","NATITINGOU, BN","FM-12","4","","69","78","","","","9","74","","29.78","28.29","4.97","72","000","","0","","","","","","","","","","","","","","","","","","","","","","","","","","","","","","","","","","","","","","","","","","","","","","","","","","","","","","","","","","","","","","","","","","","","","","","","","","","","","","","","","","","","","","","","","","","SYN100AAXX  22064 65319 32958 50000 10253 20204 39579 40085 80002 333 02600 20250 50864 55084 58001 85076;","","","","","","","","","",""
"65319099999","2005-03-22T13:00:00","10.3166667","1.3833333","461.0","NATITINGOU, BN","FM-12","4","","66","97","","","","9","37","BKN:05 256","29.76","28.29","4.97","75","200","","5","","","","","","","","","","","","","","","","","","","","","","","","","","","","","","","","","","","","","","","","","","","","","","","","","","","","","","","","","","","","","","","","","","","","","","","","","","","","","","","","","","","","","","","","","","","SYN082AAXX  22124 65319 32958 52004 10360 20191 39579 40077 80002 333 0//00 58004 85076;","","","","","","","","","",""
"65319099999","2005-03-22T19:00:00","10.3166667","1.3833333","461.0","NATITINGOU, BN","FM-12","4","","67","97","","","","9","38","FEW:01 13 SCT:03 20 BKN:05 256","29.70","28.22","4.97","76","000","","0","","","","","","","","","","","","","","","","","","","","","","","","","","","","","","","","","","","","","","","","","","","","","","","","","","","","","","","","","","","","","","","","","","","","","","","","","","","","","","","","","","","","","","","","","","","SYN106AAXX  22184 65319 32458 70000 10360 20197 39558 40058 83802 333 10384 58005 81613 83820 85076 94915 95837;","","","","","","","","","",""
"65319099999","2005-03-23T01:00:00","10.3166667","1.3833333","461.0","NATITINGOU, BN","FM-12","4","","68","84","","","","9","59","FEW:01 13 SCT:03 20 BKN:05 256","29.77","28.30","4.97","73","000","","0","","","","","","","","","","","","","","","","","","","","","","","","","","","","","","","","","","","","","","","","","","","","","","","","","","","","","","","","","","","","","","","","","","","","","","","","","","","","","","","","","","","","","","","","","","","SYN106AAXX  23004 65319 33458 70000 10290 20201 39583 40082 83802 333 0//00 58002 81613 83820 85076 94913 95835;","","","","","","","","","",""
"65319099999","2005-03-23T07:00:00","10.3166667","1.3833333","461.0","NATITINGOU, BN","FM-12","4","","65","79","","","","9","61","SCT:03 13","29.78","28.30","3.73","70","000","","0","","","","","","","","","","","","","","","","","","","","","","","","","","","","","","","","","","","","","","","","","","","","","","","","","","","","","","","","","","","","","","","","","","","","","","","","","","","","","","","","","","","","","","","","","","","SYN118AAXX  23064 65319 11456 70000 10262 20182 39585 40086 69924 70366 8353/ 333 02300 20260 50844 55090 58006 83613 87361;","","","","","","","","","",""
"65319099999","2005-03-23T13:00:00","10.3166667","1.3833333","461.0","NATITINGOU, BN","FM-12","4","","70","99","","","","9","40","FEW:01 13","29.80","28.33","4.97","78","360","","5","","","","","","","","","","","","","","","","","","","","","","","","","","","","","","","","","","","","","","","","","","","","","","","","","","","","","","","","","","","","","","","","","","","","","","","","","","","","","","","","","","","","","","","","","","","SYN088AAXX  23124 65319 32958 73604 10370 20211 39592 40090 81538 333 0//00 58013 81613 87276;","","","","","","","","","",""
"65319099999","2005-03-23T19:00:00","10.3166667","1.3833333","461.0","NATITINGOU, BN","FM-12","4","","67","94","","","","9","41","SCT:03 13","29.74","28.26","4.97","75","220","","7","","","","","","","","","","","","","","","","","","","","","","","","","","","","","","","","","","","","","","","","","","","","","","","","","","","","","","","","","","","","","","","","","","","","","","","","","","","","","","","","","","","","","","","","","","","SYN088AAXX  23184 65319 32458 72206 10342 20192 39570 40072 83532 333 10396 58012 83613 85076;","","","","","","","","","",""
"65319099999","2005-03-24T01:00:00","10.3166667","1.3833333","461.0","NATITINGOU, BN","FM-12","4","","67","83","","","","9","60","BKN:07 108","29.84","28.36","4.97","72","200","","7","","","","","","","","","","","","","","","","","","","","","","","","","","","","","","","","","","","","","","","","","","","","","","","","","","","","","","","","","","","","","","","","","","","","","","","","","","","","","","","","","","","","","","","","","","","SYN082AAXX  24004 65319 33958 72006 10281 20196 39604 40104 8707/ 333 0//00 58021 87361;","","","","","","","","","",""
"65319099999","2005-03-24T13:00:00","10.3166667","1.3833333","461.0","NATITINGOU, BN","FM-12","4","","71","95","","","","9","45","BKN:07 108","29.82","28.34","6.21","78","200","","5","","","","","","","","","","","","","","","","","","","","","","","","","","","","","","","","","","","","","","","","","","","","","","","","","","","","","","","","","","","","","","","","","","","","","","","","","","","","","","","","","","","","","","","","","","","SYN082AAXX  24124 65319 32960 72004 10350 20214 39597 40098 8703/ 333 0//00 58005 87361;","","","","","","","","","",""
"65319099999","2005-03-24T19:00:00","10.3166667","1.3833333","461.0","NATITINGOU, BN","FM-12","4","","67","89","","||TS","","9","50","FEW:02 13 SCT:03 20 FEW:01 30","29.78","28.29","6.21","74","240","","5","","","","","","","","","","","","","","","","","","","","","","","","","","","","","","","","","","","","","","","","","","","","","","","","","","","","","","","","","","","","","","","","","","","","","","","","","","","","","","","","","","","","","","","","","","","SYN112AAXX  24184 65319 31460 72404 10315 20197 39580 40086 71799 84902 333 10375 58010 82613 83820 81930 94944 95874;","","","","","","","","","",""
"65319099999","2005-03-25T01:00:00","10.3166667","1.3833333","461.0","NATITINGOU, BN","FM-12","4","","64","83","","||TS","","9","52","FEW:01 30 BKN:07 108","29.85","28.37","6.21","70","020","","5","","","","","","","","","","","","","","","","","","","","","","","","","","","","","","","","","","","","","","","","","","","","","","","","","","","","","","","","","","","","","","","","","","","","","","","","","","","","","","","","","","","","","","","","","","","SYN106AAXX  25004 65319 31560 70204 10285 20178 39607 40108 7179/ 8197/ 333 0//00 58003 81930 87361 94944 95874;","","","","","","","","","",""
"65319099999","2005-03-25T07:00:00","10.3166667","1.3833333","461.0","NATITINGOU, BN","FM-12","4","","68","79","","","","9","70","","29.79","28.30","4.97","72","000","","0","","","","","","","","","","","","","","","","","","","","","","","","","","","","","","","","","","","","","","","","","","","","","","","","","","","","","","","","","","","","","","","","","","","","","","","","","","","","","","","","","","","","","","","","","","","SYN112AAXX  25064 65319 11958 70000 10260 20200 39583 40088 69934 70266 8707/ 333 02455 20253 50644 55060 59012 87361;","","","","","","","","","",""
"65319099999","2005-03-25T13:00:00","10.3166667","1.3833333","461.0","NATITINGOU, BN","FM-12","4","","67","99","","","","9","36","FEW:02 20 SCT:03 108 BKN:07 256","29.75","28.29","4.97","76","020","","5","","","","","","","","","","","","","","","","","","","","","","","","","","","","","","","","","","","","","","","","","","","","","","","","","","","","","","","","","","","","","","","","","","","","","","","","","","","","","","","","","","","","","","","","","","","SYN106AAXX  25124 65319 32558 70204 10370 20195 39579 40076 82238 333 0//00 59018 82820 83361 87276 94904 95814;","","","","","","","","","",""
"65319099999","2005-03-25T19:00:00","10.3166667","1.3833333","461.0","NATITINGOU, BN","FM-12","4","","58","97","","||HZ","","9","28","SCT:03 108","29.67","28.20","3.73","71","000","","0","","","","","","","","","","","","","","","","","","","","","","","","","","","","","","","","","","","","","","","","","","","","","","","","","","","","","","","","","","","","","","","","","","","","","","","","","","","","","","","","","","","","","","","","","","","SYN094AAXX  25184 65319 31956 70000 10360 20146 39548 40047 70522 83032 333 10390 59032 83361 85076;","","","","","","","","","",""
"65319099999","2005-03-26T01:00:00","10.3166667","1.3833333","461.0","NATITINGOU, BN","FM-12","4","","69","83","","","","9","62","BKN:05 256","29.75","28.28","4.97","73","000","","0","","","","","","","","","","","","","","","","","","","","","","","","","","","","","","","","","","","","","","","","","","","","","","","","","","","","","","","","","","","","","","","","","","","","","","","","","","","","","","","","","","","","","","","","","","","SYN082AAXX  26004 65319 33958 50000 10285 20204 39578 40075 80002 333 0//00 59029 85076;","","","","","","","","","",""
"65319099999","2005-03-26T07:00:00","10.3166667","1.3833333","461.0","NATITINGOU, BN","FM-12","4","","68","77","","","","9","73","","29.78","28.29","4.97","71","000","","0","","","","","","","","","","","","","","","","","","","","","","","","","","","","","","","","","","","","","","","","","","","","","","","","","","","","","","","","","","","","","","","","","","","","","","","","","","","","","","","","","","","","","","","","","","","SYN100AAXX  26064 65319 32958 50000 10250 20198 39581 40083 80002 333 02100 20250 50594 55050 59002 85076;","","","","","","","","","",""
"65319099999","2005-03-26T19:00:00","10.3166667","1.3833333","461.0","NATITINGOU, BN","FM-12","4","","66","95","","","","9","38","BKN:07 256","29.72","28.24","4.97","75","000","","0","","","","","","","","","","","","","","","","","","","","","","","","","","","","","","","","","","","","","","","","","","","","","","","","","","","","","","","","","","","","","","","","","","","","","","","","","","","","","","","","","","","","","","","","","","","SYN082AAXX  26184 65319 32958 70000 10350 20187 39562 40064 80008 333 10383 58014 87276;","","","","","","","","","",""
"65319099999","2005-03-27T01:00:00","10.3166667","1.3833333","461.0","NATITINGOU, BN","FM-12","4","","66","84","","","","9","55","BKN:05 256","29.79","28.31","6.21","72","000","","0","","","","","","","","","","","","","","","","","","","","","","","","","","","","","","","","","","","","","","","","","","","","","","","","","","","","","","","","","","","","","","","","","","","","","","","","","","","","","","","","","","","","","","","","","","","SYN082AAXX  27004 65319 33960 50000 10288 20190 39587 40087 80002 333 0//00 58009 85076;","","","","","","","","","",""
"65319099999","2005-03-27T07:00:00","10.3166667","1.3833333","461.0","NATITINGOU, BN","FM-12","4","","69","77","","","","9","77","","29.80","28.31","6.21","72","000","","0","","","","","","","","","","","","","","","","","","","","","","","","","","","","","","","","","","","","","","","","","","","","","","","","","","","","","","","","","","","","","","","","","","","","","","","","","","","","","","","","","","","","","","","","","","","SYN100AAXX  27064 65319 32960 50000 10250 20206 39587 40090 80002 333 02200 20245 50664 55089 58006 85076;","","","","","","","","","",""
"65319099999","2005-03-27T13:00:00","10.3166667","1.3833333","461.0","NATITINGOU, BN","FM-12","4","","64","97","","","","9","34","FEW:01 13 SCT:04 20","29.79","28.32","6.21","74","120","","9","","","","","","","","","","","","","","","","","","","","","","","","","","","","","","","","","","","","","","","","","","","","","","","","","","","","","","","","","","","","","","","","","","","","","","","","","","","","","","","","","","","","","","","","","","","SYN100AAXX  27124 65319 32460 71208 10362 20180 39589 40088 84802 333 0//00 59008 81613 84820 94919 95839;","","","","","","","","","",""
"65319099999","2005-03-27T19:00:00","10.3166667","1.3833333","461.0","NATITINGOU, BN","FM-12","4","","65","96","","","","9","36","SCT:03 108","29.73","28.25","6.21","75","000","","0","","","","","","","","","","","","","","","","","","","","","","","","","","","","","","","","","","","","","","","","","","","","","","","","","","","","","","","","","","","","","","","","","","","","","","","","","","","","","","","","","","","","","","","","","","","SYN088AAXX  27184 65319 32960 70000 10355 20184 39568 40069 83032 333 10390 58006 83361 85076;","","","","","","","","","",""
"65319099999","2005-03-28T01:00:00","10.3166667","1.3833333","461.0","NATITINGOU, BN","FM-12","4","","62","81","","","","9","51","BKN:05 256","29.80","28.32","6.21","69","000","","0","","","","","","","","","","","","","","","","","","","","","","","","","","","","","","","","","","","","","","","","","","","","","","","","","","","","","","","","","","","","","","","","","","","","","","","","","","","","","","","","","","","","","","","","","","","SYN082AAXX  28004 65319 33960 50000 10275 20165 39591 40091 80002 333 0//00 58004 85076;","","","","","","","","","",""
"65319099999","2005-03-28T07:00:00","10.3166667","1.3833333","461.0","NATITINGOU, BN","FM-12","4","","65","77","","","","9","67","","29.81","28.33","6.21","69","000","","0","","","","","","","","","","","","","","","","","","","","","","","","","","","","","","","","","","","","","","","","","","","","","","","","","","","","","","","","","","","","","","","","","","","","","","","","","","","","","","","","","","","","","","","","","","","SYN100AAXX  28064 65319 32960 50000 10248 20182 39592 40095 80002 333 02300 20240 50984 55095 58005 85076;","","","","","","","","","",""
"65319099999","2005-03-28T13:00:00","10.3166667","1.3833333","461.0","NATITINGOU, BN","FM-12","4","","71","98","","","","9","41","SCT:03 20 BKN:05 256","29.79","28.32","6.21","78","000","","0","","","","","","","","","","","","","","","","","","","","","","","","","","","","","","","","","","","","","","","","","","","","","","","","","","","","","","","","","","","","","","","","","","","","","","","","","","","","","","","","","","","","","","","","","","","SYN100AAXX  28124 65319 32560 70000 10367 20214 39589 40089 83502 333 0//00 58000 83820 85076 94913 95833;","","","","","","","","","",""
"65319099999","2005-03-28T19:00:00","10.3166667","1.3833333","461.0","NATITINGOU, BN","FM-12","4","","64","98","","","","9","33","BKN:05 256","29.72","28.25","6.21","75","000","","0","","","","","","","","","","","","","","","","","","","","","","","","","","","","","","","","","","","","","","","","","","","","","","","","","","","","","","","","","","","","","","","","","","","","","","","","","","","","","","","","","","","","","","","","","","","SYN082AAXX  28184 65319 32960 50000 10365 20178 39565 40066 80002 333 10395 59003 85076;","","","","","","","","","",""
"65319099999","2005-03-29T01:00:00","10.3166667","1.3833333","461.0","NATITINGOU, BN","FM-12","4","","61","81","","","","9","50","BKN:05 256","29.78","28.31","4.97","68","000","","0","","","","","","","","","","","","","","","","","","","","","","","","","","","","","","","","","","","","","","","","","","","","","","","","","","","","","","","","","","","","","","","","","","","","","","","","","","","","","","","","","","","","","","","","","","","SYN082AAXX  29004 65319 33958 50000 10275 20160 39586 40086 80002 333 0//00 59005 85076;","","","","","","","","","",""
"65319099999","2005-03-29T07:00:00","10.3166667","1.3833333","461.0","NATITINGOU, BN","FM-12","4","","69","77","","","","9","75","","29.78","28.30","4.97","72","000","","0","","","","","","","","","","","","","","","","","","","","","","","","","","","","","","","","","","","","","","","","","","","","","","","","","","","","","","","","","","","","","","","","","","","","","","","","","","","","","","","","","","","","","","","","","","","SYN100AAXX  29064 65319 32958 50000 10252 20204 39584 40085 80002 333 02100 20245 50944 55094 59008 85076;","","","","","","","","","",""
"65319099999","2005-03-29T13:00:00","10.3166667","1.3833333","461.0","NATITINGOU, BN","FM-12","4","","51","102","","","","9","18","BKN:05 256","29.78","28.31","4.97","70","360","","5","","","","","","","","","","","","","","","","","","","","","","","","","","","","","","","","","","","","","","","","","","","","","","","","","","","","","","","","","","","","","","","","","","","","","","","","","","","","","","","","","","","","","","","","","","","SYN082AAXX  29124 65319 32958 53604 10387 20106 39586 40084 80002 333 0//00 59003 85076;","","","","","","","","","",""
"65319099999","2005-03-29T19:00:00","10.3166667","1.3833333","461.0","NATITINGOU, BN","FM-12","4","","70","97","","","","9","42","BKN:05 256","29.72","28.25","4.97","78","000","","0","","","","","","","","","","","","","","","","","","","","","","","","","","","","","","","","","","","","","","","","","","","","","","","","","","","","","","","","","","","","","","","","","","","","","","","","","","","","","","","","","","","","","","","","","","","SYN082AAXX  29184 65319 32958 50000 10363 20213 39566 40066 80002 333 10410 58001 85076;","","","","","","","","","",""
"65319099999","2005-03-30T01:00:00","10.3166667","1.3833333","461.0","NATITINGOU, BN","FM-12","4","","58","84","","","","9","42","BKN:05 256","29.76","28.30","4.97","67","000","","0","","","","","","","","","","","","","","","","","","","","","","","","","","","","","","","","","","","","","","","","","","","","","","","","","","","","","","","","","","","","","","","","","","","","","","","","","","","","","","","","","","","","","","","","","","","SYN082AAXX  30004 65319 33958 50000 10288 20147 39583 40079 80002 333 0//00 59003 85076;","","","","","","","","","",""
"65319099999","2005-03-30T07:00:00","10.3166667","1.3833333","461.0","NATITINGOU, BN","FM-12","4","","64","76","","","","9","66","","29.67","28.30","4.97","68","000","","0","","","","","","","","","","","","","","","","","","","","","","","","","","","","","","","","","","","","","","","","","","","","","","","","","","","","","","","","","","","","","","","","","","","","","","","","","","","","","","","","","","","","","","","","","","","SYN100AAXX  30064 65319 32958 70000 10246 20178 39585 40047 80006 333 02200 20239 50994 55096 58001 87276;","","","","","","","","","",""
"65319099999","2005-03-30T13:00:00","10.3166667","1.3833333","461.0","NATITINGOU, BN","FM-12","4","","69","97","","","","9","40","BKN:05 256","29.78","28.31","4.97","77","200","","5","","","","","","","","","","","","","","","","","","","","","","","","","","","","","","","","","","","","","","","","","","","","","","","","","","","","","","","","","","","","","","","","","","","","","","","","","","","","","","","","","","","","","","","","","","","SYN082AAXX  30124 65319 32958 52004 10363 20207 39586 40085 80002 333 0//00 58000 85076;","","","","","","","","","",""
"65319099999","2005-03-30T19:00:00","10.3166667","1.3833333","461.0","NATITINGOU, BN","FM-12","4","","62","99","","","","9","30","BKN:05 256","29.70","28.22","6.21","74","000","","0","","","","","","","","","","","","","","","","","","","","","","","","","","","","","","","","","","","","","","","","","","","","","","","","","","","","","","","","","","","","","","","","","","","","","","","","","","","","","","","","","","","","","","","","","","","SYN082AAXX  30184 65319 32960 50000 10370 20165 39556 40056 80002 333 10402 59010 85076;","","","","","","","","","",""
"65319099999","2005-03-31T01:00:00","10.3166667","1.3833333","461.0","NATITINGOU, BN","FM-12","4","","60","81","","","","9","48","BKN:05 256","29.75","28.28","4.97","68","000","","0","","","","","","","","","","","","","","","","","","","","","","","","","","","","","","","","","","","","","","","","","","","","","","","","","","","","","","","","","","","","","","","","","","","","","","","","","","","","","","","","","","","","","","","","","","","SYN082AAXX  31004 65319 33958 50000 10275 20156 39577 40076 80002 333 0//00 59010 85076;","","","","","","","","","",""
"65319099999","2005-03-31T07:00:00","10.3166667","1.3833333","461.0","NATITINGOU, BN","FM-12","4","","66","77","","","","9","68","","29.75","28.27","4.97","70","000","","0","","","","","","","","","","","","","","","","","","","","","","","","","","","","","","","","","","","","","","","","","","","","","","","","","","","","","","","","","","","","","","","","","","","","","","","","","","","","","","","","","","","","","","","","","","","SYN100AAXX  31064 65319 32958 50000 10252 20188 39573 40074 80002 333 02200 20250 51014 55094 59012 85076;","","","","","","","","","",""
"65319099999","2005-03-31T13:00:00","10.3166667","1.3833333","461.0","NATITINGOU, BN","FM-12","4","","72","98","","","","9","44","FEW:01 13 SCT:03 20 BKN:05 256","29.76","28.29","4.97","79","240","","11","","","","","","","","","","","","","","","","","","","","","","","","","","","","","","","","","","","","","","","","","","","","","","","","","","","","","","","","","","","","","","","","","","","","","","","","","","","","","","","","","","","","","","","","","","","SYN106AAXX  31124 65319 32458 72410 10365 20224 39579 40078 83802 333 0//00 59007 81613 83820 85076 94913 95838;","","","","","","","","","",""
"65319099999","2005-03-31T19:00:00","10.3166667","1.3833333","461.0","NATITINGOU, BN","FM-12","4","","68","97","","","","9","40","FEW:01 13","29.67","28.31","4.97","77","000","","0","","","","","","","","","","","","","","","","","","","","","","","","","","","","","","","","","","","","","","","","","","","","","","","","","","","","","","","","","","","","","","","","","","","","","","","","","","","","","","","","","","","","","","","","","","","SYN088AAXX  31184 65319 32458 70000 10360 20202 39588 40048 81532 333 10395 59008 81613 85361;","","","","","","","","","",""
"65319099999","2005-04-01T01:00:00","10.3166667","1.3833333","461.0","NATITINGOU, BN","FM-12","4","","65","85","","","","9","52","BKN:05 256","29.73","28.26","4.97","72","220","","5","","","","","","","","","","","","","","","","","","","","","","","","","","","","","","","","","","","","","","","","","","","","","","","","","","","","","","","","","","","","","","","","","","","","","","","","","","","","","","","","","","","","","","","","","","","SYN082AAXX  01004 65319 33958 52204 10292 20183 39571 40068 80002 333 0//00 59005 85076;","","","","","","","","","",""
"65319099999","2005-04-01T07:00:00","10.3166667","1.3833333","461.0","NATITINGOU, BN","FM-12","4","","71","79","","","","9","77","","29.75","28.27","4.97","73","000","","0","","","","","","","","","","","","","","","","","","","","","","","","","","","","","","","","","","","","","","","","","","","","","","","","","","","","","","","","","","","","","","","","","","","","","","","","","","","","","","","","","","","","","","","","","","","SYN100AAXX  01064 65319 32958 50000 10260 20216 39574 40075 80002 333 02200 20255 50994 55081 58001 85076;","","","","","","","","","",""
"65319099999","2005-04-01T13:00:00","10.3166667","1.3833333","461.0","NATITINGOU, BN","FM-12","4","","71","96","","","","9","44","FEW:01 13 SCT:03 20 BKN:05 256","29.76","28.29","6.21","78","000","","0","","","","","","","","","","","","","","","","","","","","","","","","","","","","","","","","","","","","","","","","","","","","","","","","","","","","","","","","","","","","","","","","","","","","","","","","","","","","","","","","","","","","","","","","","","","SYN106AAXX  01124 65319 32460 70000 10358 20219 39581 40079 84802 333 0//00 58002 81613 83820 85076 94909 95834;","","","","","","","","","",""
"65319099999","2005-04-01T19:00:00","10.3166667","1.3833333","461.0","NATITINGOU, BN","FM-12","4","","71","94","","","","9","46","FEW:01 108","29.72","28.24","6.21","78","220","","5","","","","","","","","","","","","","","","","","","","","","","","","","","","","","","","","","","","","","","","","","","","","","","","","","","","","","","","","","","","","","","","","","","","","","","","","","","","","","","","","","","","","","","","","","","","SYN088AAXX  01184 65319 32960 72204 10347 20214 39564 40065 81038 333 10389 58016 81361 87276;","","","","","","","","","",""
"65319099999","2005-04-02T01:00:00","10.3166667","1.3833333","461.0","NATITINGOU, BN","FM-12","4","","69","84","","","","9","60","BKN:05 256","29.80","28.33","3.11","74","200","","7","","","","","","","","","","","","","","","","","","","","","","","","","","","","","","","","","","","","","","","","","","","","","","","","","","","","","","","","","","","","","","","","","","","","","","","","","","","","","","","","","","","","","","","","","","","SYN082AAXX  02004 65319 33950 52006 10290 20205 39592 40090 80002 333 0//00 58021 85076;","","","","","","","","","",""
"65319099999","2005-04-02T07:00:00","10.3166667","1.3833333","461.0","NATITINGOU, BN","FM-12","4","","72","80","","","","9","76","","29.81","28.32","6.21","74","220","","5","","","","","","","","","","","","","","","","","","","","","","","","","","","","","","","","","","","","","","","","","","","","","","","","","","","","","","","","","","","","","","","","","","","","","","","","","","","","","","","","","","","","","","","","","","","SYN100AAXX  02064 65319 32960 72204 10266 20221 39591 40094 8703/ 333 02400 20250 50674 55081 58017 87361;","","","","","","","","","",""
"65319099999","2005-04-02T13:00:00","10.3166667","1.3833333","461.0","NATITINGOU, BN","FM-12","4","","73","96","","","","9","48","BKN:05 256","29.80","28.33","6.21","79","220","","9","","","","","","","","","","","","","","","","","","","","","","","","","","","","","","","","","","","","","","","","","","","","","","","","","","","","","","","","","","","","","","","","","","","","","","","","","","","","","","","","","","","","","","","","","","","SYN082AAXX  02124 65319 32960 52208 10355 20228 39592 40091 80002 333 0//00 58011 85076;","","","","","","","","","",""
"65319099999","2005-04-02T19:00:00","10.3166667","1.3833333","461.0","NATITINGOU, BN","FM-12","4","","67","84","","","","9","56","BKN:07 108","29.79","28.30","6.21","72","300","","5","","","","","","","","","","","","","","","","","","","","","","","","","","","","","","","","","","","","","","","","","","","","","","","","","","","","","","","","","","","","","","","","","","","","","","","","","","","","","","","","","","","","","","","","","","","SYN088AAXX  02184 65319 31960 73004 10290 20193 39583 40089 70199 8707/ 333 10385 58019 87361;","","","","","","","","","",""
"65319099999","2005-04-03T01:00:00","10.3166667","1.3833333","461.0","NATITINGOU, BN","FM-12","4","","67","83","","","","9","58","BKN:05 256","29.82","28.34","6.21","72","200","","2","","","","","","","","","","","","","","","","","","","","","","","","","","","","","","","","","","","","","","","","","","","","","","","","","","","","","","","","","","","","","","","","","","","","","","","","","","","","","","","","","","","","","","","","","","","SYN082AAXX  03004 65319 33960 52002 10285 20195 39597 40097 80002 333 0//00 58005 85076;","","","","","","","","","",""
"65319099999","2005-04-03T07:00:00","10.3166667","1.3833333","461.0","NATITINGOU, BN","FM-12","4","","69","80","","","","9","70","","29.82","28.33","6.21","73","200","","5","","","","","","","","","","","","","","","","","","","","","","","","","","","","","","","","","","","","","","","","","","","","","","","","","","","","","","","","","","","","","","","","","","","","","","","","","","","","","","","","","","","","","","","","","","","SYN100AAXX  03064 65319 32960 72004 10265 20206 39592 40099 8503/ 333 02600 20260 50854 55078 58001 85361;","","","","","","","","","",""
"65319099999","2005-04-03T13:00:00","10.3166667","1.3833333","461.0","NATITINGOU, BN","FM-12","4","","73","95","","","","9","50","BKN:07 256","29.80","28.33","6.21","79","320","","7","","","","","","","","","","","","","","","","","","","","","","","","","","","","","","","","","","","","","","","","","","","","","","","","","","","","","","","","","","","","","","","","","","","","","","","","","","","","","","","","","","","","","","","","","","","SYN082AAXX  03124 65319 32960 73206 10350 20230 39594 40092 80008 333 0//00 59002 87276;","","","","","","","","","",""
"65319099999","2005-04-04T01:00:00","10.3166667","1.3833333","461.0","NATITINGOU, BN","FM-12","4","","74","84","","","","9","71","BKN:05 256","29.80","28.33","6.21","77","000","","0","","","","","","","","","","","","","","","","","","","","","","","","","","","","","","","","","","","","","","","","","","","","","","","","","","","","","","","","","","","","","","","","","","","","","","","","","","","","","","","","","","","","","","","","","","","SYN088AAXX  04004 65319 12960 50000 10288 20231 39594 40092 60021 80002 333 0//58 59003 85076;","","","","","","","","","",""
"65319099999","2005-04-04T07:00:00","10.3166667","1.3833333","461.0","NATITINGOU, BN","FM-12","4","","73","78","","","","9","84","SCT:04 108","29.82","28.33","6.21","75","000","","0","","","","","","","","","","","","","","","","","","","","","","","","","","","","","","","","","","","","","","","","","","","","","","","","","","","","","","","","","","","","","","","","","","","","","","","","","","","","","","","","","","","","","","","","","","","SYN106AAXX  04064 65319 32960 50000 10255 20226 39594 40097 84032 333 02300 20255 50484 55092 58002 84361 85076;","","","","","","","","","",""
"65319099999","2005-04-04T13:00:00","10.3166667","1.3833333","461.0","NATITINGOU, BN","FM-12","4","","71","99","","","","9","41","FEW:02 20 BKN:05 256","29.83","28.36","6.21","79","120","","5","","","","","","","","","","","","","","","","","","","","","","","","","","","","","","","","","","","","","","","","","","","","","","","","","","","","","","","","","","","","","","","","","","","","","","","","","","","","","","","","","","","","","","","","","","","SYN100AAXX  04124 65319 32560 61204 10370 20216 39604 40103 82202 333 0//00 58010 82820 85076 94919 95834;","","","","","","","","","",""
"65319099999","2005-04-04T19:00:00","10.3166667","1.3833333","461.0","NATITINGOU, BN","FM-12","4","","63","99","","","","9","31","BKN:07 256","29.75","28.27","4.97","74","000","","0","","","","","","","","","","","","","","","","","","","","","","","","","","","","","","","","","","","","","","","","","","","","","","","","","","","","","","","","","","","","","","","","","","","","","","","","","","","","","","","","","","","","","","","","","","","SYN082AAXX  04184 65319 32958 70000 10370 20173 39574 40074 80008 333 10405 58002 87276;","","","","","","","","","",""
"65319099999","2005-04-05T01:00:00","10.3166667","1.3833333","461.0","NATITINGOU, BN","FM-12","4","","67","82","","","","9","59","BKN:05 256","29.81","28.34","4.97","72","000","","0","","","","","","","","","","","","","","","","","","","","","","","","","","","","","","","","","","","","","","","","","","","","","","","","","","","","","","","","","","","","","","","","","","","","","","","","","","","","","","","","","","","","","","","","","","","SYN082AAXX  05004 65319 33958 50000 10280 20193 39597 40096 80002 333 0//00 58003 85076;","","","","","","","","","",""
"65319099999","2005-04-05T07:00:00","10.3166667","1.3833333","461.0","NATITINGOU, BN","FM-12","4","","68","78","","","","9","73","","29.83","28.35","4.97","71","000","","0","","","","","","","","","","","","","","","","","","","","","","","","","","","","","","","","","","","","","","","","","","","","","","","","","","","","","","","","","","","","","","","","","","","","","","","","","","","","","","","","","","","","","","","","","","","SYN100AAXX  05064 65319 32958 70000 10253 20202 39601 40103 80006 333 02300 20248 50954 55096 58007 87276;","","","","","","","","","",""
"65319099999","2005-04-05T13:00:00","10.3166667","1.3833333","461.0","NATITINGOU, BN","FM-12","4","","70","97","","","","9","41","BKN:05 256","29.90","28.36","6.21","78","360","","5","","","","","","","","","","","","","","","","","","","","","","","","","","","","","","","","","","","","","","","","","","","","","","","","","","","","","","","","","","","","","","","","","","","","","","","","","","","","","","","","","","","","","","","","","","","SYN082AAXX  05124 65319 32960 53604 10360 20209 39604 40125 80002 333 0//00 58000 85076;","","","","","","","","","",""
"65319099999","2005-04-05T14:00:00","10.3166667","1.3833333","461.0","NATITINGOU, BN","FM-12","4","","70","97","","","","","41","","","","6.21","","360","","9","","","","","","","","","","","","","","","","","","","","","","","","","","","","","","","","","","","","","","","","","","","","","","","","","","","","","","","","","","","","","","","","","","","","","","","","","","","","","","","","","","","","","","","","","","","SYN072AAXX  0513/ 65319 32960 53604 10360 20209 3 39604 40125 80002 WAIULUWAD;","","","","","","","","","",""
"65319099999","2005-04-05T19:00:00","10.3166667","1.3833333","461.0","NATITINGOU, BN","FM-12","4","","76","98","","||HZ","","9","50","BKN:05 256","29.73","28.25","3.73","82","000","","0","","","","","","","","","","","","","","","","","","","","","","","","","","","","","","","","","","","","","","","","","","","","","","","","","","","","","","","","","","","","","","","","","","","","","","","","","","","","","","","","","","","","","","","","","","","SYN088AAXX  05184 65319 31956 50000 10365 20244 39567 40067 70522 80002 333 10392 59007 85076;","","","","","","","","","",""
"65319099999","2005-04-06T01:00:00","10.3166667","1.3833333","461.0","NATITINGOU, BN","FM-12","4","","71","86","","","","9","60","BKN:05 256","29.79","28.32","4.97","75","200","","5","","","","","","","","","","","","","","","","","","","","","","","","","","","","","","","","","","","","","","","","","","","","","","","","","","","","","","","","","","","","","","","","","","","","","","","","","","","","","","","","","","","","","","","","","","","SYN082AAXX  06004 65319 33958 52004 10302 20217 39591 40089 80002 333 0//00 59006 85076;","","","","","","","","","",""
"65319099999","2005-04-06T07:00:00","10.3166667","1.3833333","461.0","NATITINGOU, BN","FM-12","4","","72","81","","","","9","74","","29.79","28.31","4.97","75","220","","5","","","","","","","","","","","","","","","","","","","","","","","","","","","","","","","","","","","","","","","","","","","","","","","","","","","","","","","","","","","","","","","","","","","","","","","","","","","","","","","","","","","","","","","","","","","SYN100AAXX  06064 65319 32958 52204 10275 20225 39588 40088 80002 333 02000 20275 50744 55089 59013 85076;","","","","","","","","","",""
"65319099999","2005-04-06T13:00:00","10.3166667","1.3833333","461.0","NATITINGOU, BN","FM-12","4","","75","98","","","","9","49","BKN:05 256","29.78","28.34","6.21","81","320","","7","","","","","","","","","","","","","","","","","","","","","","","","","","","","","","","","","","","","","","","","","","","","","","","","","","","","","","","","","","","","","","","","","","","","","","","","","","","","","","","","","","","","","","","","","","","SYN082AAXX  06124 65319 32960 53206 10365 20240 39598 40085 80002 333 0//00 59006 85076;","","","","","","","","","",""
"65319099999","2005-04-06T19:00:00","10.3166667","1.3833333","461.0","NATITINGOU, BN","FM-12","4","","66","86","","","","9","51","FEW:02 13 SCT:03 20 BKN:05 256","29.75","28.26","6.21","72","000","","0","","","","","","","","","","","","","","","","","","","","","","","","","","","","","","","","","","","","","","","","","","","","","","","","","","","","","","","","","","","","","","","","","","","","","","","","","","","","","","","","","","","","","","","","","","","SYN118AAXX  06184 65319 11460 70000 10300 20187 39569 40074 60162 72996 84802 333 10395 58002 82613 83820 85076 94913 95814;","","","","","","","","","",""
"65319099999","2005-04-07T01:00:00","10.3166667","1.3833333","461.0","NATITINGOU, BN","FM-12","4","","73","85","","","","9","68","BKN:05 256","29.74","28.27","6.21","76","000","","0","","","","","","","","","","","","","","","","","","","","","","","","","","","","","","","","","","","","","","","","","","","","","","","","","","","","","","","","","","","","","","","","","","","","","","","","","","","","","","","","","","","","","","","","","","","SYN088AAXX  07004 65319 12960 50000 10292 20228 39573 40070 60161 80002 333 0//58 59018 85076;","","","","","","","","","",""
"65319099999","2005-04-07T07:00:00","10.3166667","1.3833333","461.0","NATITINGOU, BN","FM-12","4","","72","80","","","","9","77","","29.79","28.30","4.97","74","000","","0","","","","","","","","","","","","","","","","","","","","","","","","","","","","","","","","","","","","","","","","","","","","","","","","","","","","","","","","","","","","","","","","","","","","","","","","","","","","","","","","","","","","","","","","","","","SYN100AAXX  07060 65319 32958 70000 10265 20222 39584 40089 80008 333 02000 20264 51234 55089 59004 87276;","","","","","","","","","",""
"65319099999","2005-04-07T13:00:00","10.3166667","1.3833333","461.0","NATITINGOU, BN","FM-12","4","","73","96","","","","9","48","FEW:01 13","29.78","28.30","4.97","79","220","","7","","","","","","","","","","","","","","","","","","","","","","","","","","","","","","","","","","","","","","","","","","","","","","","","","","","","","","","","","","","","","","","","","","","","","","","","","","","","","","","","","","","","","","","","","","","SYN088AAXX  07124 65319 32458 72206 10353 20228 39585 40084 81508 333 0//00 59013 81613 87276;","","","","","","","","","",""
"65319099999","2005-04-07T19:00:00","10.3166667","1.3833333","461.0","NATITINGOU, BN","FM-12","4","","71","96","","","","9","44","BKN:05 108","29.68","28.20","4.97","78","000","","0","","","","","","","","","","","","","","","","","","","","","","","","","","","","","","","","","","","","","","","","","","","","","","","","","","","","","","","","","","","","","","","","","","","","","","","","","","","","","","","","","","","","","","","","","","","SYN088AAXX  07184 65319 32958 70000 10358 20217 39551 40051 85032 333 10387 59018 85361 83076;","","","","","","","","","",""
"65319099999","2005-04-08T01:00:00","10.3166667","1.3833333","461.0","NATITINGOU, BN","FM-12","4","","72","83","","","","9","69","BKN:05 256","29.75","28.28","4.97","75","000","","0","","","","","","","","","","","","","","","","","","","","","","","","","","","","","","","","","","","","","","","","","","","","","","","","","","","","","","","","","","","","","","","","","","","","","","","","","","","","","","","","","","","","","","","","","","","SYN082AAXX  08004 65319 33958 50000 10283 20221 39577 40076 80002 333 0//00 58004 85076;","","","","","","","","","",""
"65319099999","2005-04-08T07:00:00","10.3166667","1.3833333","461.0","NATITINGOU, BN","FM-12","4","","72","78","","","","9","82","","29.78","28.30","4.97","74","000","","0","","","","","","","","","","","","","","","","","","","","","","","","","","","","","","","","","","","","","","","","","","","","","","","","","","","","","","","","","","","","","","","","","","","","","","","","","","","","","","","","","","","","","","","","","","","SYN100AAXX  08064 65319 32958 70000 10258 20225 39584 40085 80006 333 02500 20253 50694 55092 58000 87276;","","","","","","","","","",""
"65319099999","2005-04-08T13:00:00","10.3166667","1.3833333","461.0","NATITINGOU, BN","FM-12","4","","76","97","","","","9","51","SCT:03 20 BKN:05 256","29.76","28.28","4.97","81","220","","7","","","","","","","","","","","","","","","","","","","","","","","","","","","","","","","","","","","","","","","","","","","","","","","","","","","","","","","","","","","","","","","","","","","","","","","","","","","","","","","","","","","","","","","","","","","SYN100AAXX  08124 65319 32558 72206 10360 20243 39578 40077 83202 333 0//00 58003 83820 85076 94913 95814;","","","","","","","","","",""
"65319099999","2005-04-08T19:00:00","10.3166667","1.3833333","461.0","NATITINGOU, BN","FM-12","4","","69","89","","","","9","51","BKN:05 108","29.66","28.17","4.97","75","000","","0","","","","","","","","","","","","","","","","","","","","","","","","","","","","","","","","","","","","","","","","","","","","","","","","","","","","","","","","","","","","","","","","","","","","","","","","","","","","","","","","","","","","","","","","","","","SYN100AAXX  08184 65319 11958 70000 10317 20204 39541 40044 69912 70196 85032 333 10387 59010 85361 83076;","","","","","","","","","",""
"65319099999","2005-04-09T01:00:00","10.3166667","1.3833333","461.0","NATITINGOU, BN","FM-12","4","","76","86","","","","9","72","BKN:05 256","29.72","28.25","4.97","79","000","","0","","","","","","","","","","","","","","","","","","","","","","","","","","","","","","","","","","","","","","","","","","","","","","","","","","","","","","","","","","","","","","","","","","","","","","","","","","","","","","","","","","","","","","","","","","","SYN082AAXX  09004 65319 33958 50000 10300 20244 39567 40064 80002 333 0//00 59010 85076;","","","","","","","","","",""
"65319099999","2005-04-09T07:00:00","10.3166667","1.3833333","461.0","NATITINGOU, BN","FM-12","4","","73","81","","","","9","77","","29.72","28.24","4.97","75","000","","0","","","","","","","","","","","","","","","","","","","","","","","","","","","","","","","","","","","","","","","","","","","","","","","","","","","","","","","","","","","","","","","","","","","","","","","","","","","","","","","","","","","","","","","","","","","SYN106AAXX  09064 65319 12958 50000 10270 20227 39563 40066 69914 80002 333 02459 20270 50684 55087 59021 85076;","","","","","","","","","",""
"65319099999","2005-04-09T13:00:00","10.3166667","1.3833333","461.0","NATITINGOU, BN","FM-12","4","","76","97","","","","9","51","FEW:01 13 SCT:03 20 BKN:05 256","29.73","28.26","6.21","81","180","","5","","","","","","","","","","","","","","","","","","","","","","","","","","","","","","","","","","","","","","","","","","","","","","","","","","","","","","","","","","","","","","","","","","","","","","","","","","","","","","","","","","","","","","","","","","","SYN106AAXX  09124 65319 32960 71804 10360 20243 39570 40067 83802 333 0//00 59008 81613 83820 85076 94914 95837;","","","","","","","","","",""
"65319099999","2005-04-09T19:00:00","10.3166667","1.3833333","461.0","NATITINGOU, BN","FM-12","4","","72","93","","","","9","50","FEW:01 13 SCT:04 108","29.65","28.18","6.21","78","220","","5","","","","","","","","","","","","","","","","","","","","","","","","","","","","","","","","","","","","","","","","","","","","","","","","","","","","","","","","","","","","","","","","","","","","","","","","","","","","","","","","","","","","","","","","","","","SYN094AAXX  09184 65319 32460 72204 10337 20220 39542 40042 81532 333 10380 58001 81613 84361 85076;","","","","","","","","","",""
"65319099999","2005-04-10T01:00:00","10.3166667","1.3833333","461.0","NATITINGOU, BN","FM-12","4","","71","85","","","","9","62","BKN:05 256","29.71","28.24","6.21","75","000","","0","","","","","","","","","","","","","","","","","","","","","","","","","","","","","","","","","","","","","","","","","","","","","","","","","","","","","","","","","","","","","","","","","","","","","","","","","","","","","","","","","","","","","","","","","","","SYN082AAXX  10004 65319 33960 50000 10295 20215 39563 40060 80002 333 0//00 59004 85076;","","","","","","","","","",""
"65319099999","2005-04-10T07:00:00","10.3166667","1.3833333","461.0","NATITINGOU, BN","FM-12","4","","71","79","","","","9","78","","29.70","28.22","6.21","73","220","","5","","","","","","","","","","","","","","","","","","","","","","","","","","","","","","","","","","","","","","","","","","","","","","","","","","","","","","","","","","","","","","","","","","","","","","","","","","","","","","","","","","","","","","","","","","","SYN100AAXX  10064 65319 32960 52204 10260 20219 39558 40059 80002 333 02600 20260 50884 55078 59005 85076;","","","","","","","","","",""
"65319099999","2005-04-10T13:00:00","10.3166667","1.3833333","461.0","NATITINGOU, BN","FM-12","4","","74","96","","","","9","49","FEW:01 20","29.73","28.26","4.97","80","200","","7","","","","","","","","","","","","","","","","","","","","","","","","","","","","","","","","","","","","","","","","","","","","","","","","","","","","","","","","","","","","","","","","","","","","","","","","","","","","","","","","","","","","","","","","","","","SYN088AAXX  10124 65319 32958 72006 10355 20232 39569 40067 81508 333 0//00 59001 81620 87276;","","","","","","","","","",""
"65319099999","2005-04-10T19:00:00","10.3166667","1.3833333","461.0","NATITINGOU, BN","FM-12","4","","68","95","","","","9","41","BKN:07 256","29.82","28.17","4.97","76","120","","2","","","","","","","","","","","","","","","","","","","","","","","","","","","","","","","","","","","","","","","","","","","","","","","","","","","","","","","","","","","","","","","","","","","","","","","","","","","","","","","","","","","","","","","","","","","SYN082AAXX  10184 65319 32958 51202 10351 20199 39539 40098 80002 333 10394 59003 87076;","","","","","","","","","",""
"65319099999","2005-04-11T07:00:00","10.3166667","1.3833333","461.0","NATITINGOU, BN","FM-12","4","","69","79","","","","9","71","","29.73","28.25","6.21","72","000","","0","","","","","","","","","","","","","","","","","","","","","","","","","","","","","","","","","","","","","","","","","","","","","","","","","","","","","","","","","","","","","","","","","","","","","","","","","","","","","","","","","","","","","","","","","","","SYN100AAXX  11064 65319 32960 70000 10260 20203 39566 40067 80006 333 02500 20258 50634 55090 58008 87276;","","","","","","","","","",""
"65319099999","2005-04-11T13:00:00","10.3166667","1.3833333","461.0","NATITINGOU, BN","FM-12","4","","72","95","","","","9","47","SCT:03 20 BKN:05 256","29.75","28.27","6.21","78","220","","9","","","","","","","","","","","","","","","","","","","","","","","","","","","","","","","","","","","","","","","","","","","","","","","","","","","","","","","","","","","","","","","","","","","","","","","","","","","","","","","","","","","","","","","","","","","SYN100AAXX  11124 65319 32560 72208 10350 20222 39575 40074 83202 333 0//00 58006 83820 85076 94903 95812;","","","","","","","","","",""
"65319099999","2005-04-11T19:00:00","10.3166667","1.3833333","461.0","NATITINGOU, BN","FM-12","4","","70","97","","","","9","41","FEW:01 30 BKN:05 256","29.66","28.19","6.21","78","200","","5","","","","","","","","","","","","","","","","","","","","","","","","","","","","","","","","","","","","","","","","","","","","","","","","","","","","","","","","","","","","","","","","","","","","","","","","","","","","","","","","","","","","","","","","","","","SYN100AAXX  11184 65319 32560 52004 10360 20209 39545 40044 81902 333 10387 58006 81930 85076 94944 95874;","","","","","","","","","",""
"65319099999","2005-04-12T01:00:00","10.3166667","1.3833333","461.0","NATITINGOU, BN","FM-12","4","","72","86","","","","9","64","BKN:05 256","29.72","28.25","6.21","76","000","","0","","","","","","","","","","","","","","","","","","","","","","","","","","","","","","","","","","","","","","","","","","","","","","","","","","","","","","","","","","","","","","","","","","","","","","","","","","","","","","","","","","","","","","","","","","","SYN082AAXX  12004 65319 33960 50000 10300 20224 39568 40066 80002 333 0//00 58002 85076;","","","","","","","","","",""
"65319099999","2005-04-12T13:00:00","10.3166667","1.3833333","461.0","NATITINGOU, BN","FM-12","4","","75","96","","","","9","51","FEW:02 13 SCT:04 20","29.73","28.26","6.21","80","220","","7","","","","","","","","","","","","","","","","","","","","","","","","","","","","","","","","","","","","","","","","","","","","","","","","","","","","","","","","","","","","","","","","","","","","","","","","","","","","","","","","","","","","","","","","","","","SYN100AAXX  12124 65319 32460 72206 10357 20241 39570 40069 85802 333 0//00 59005 82613 84820 94919 95839;","","","","","","","","","",""
"65319099999","2005-04-12T19:00:00","10.3166667","1.3833333","461.0","NATITINGOU, BN","FM-12","4","","72","97","","","","9","45","FEW:01 13 SCT:03 20 BKN:05 256","29.65","28.18","6.21","79","220","","5","","","","","","","","","","","","","","","","","","","","","","","","","","","","","","","","","","","","","","","","","","","","","","","","","","","","","","","","","","","","","","","","","","","","","","","","","","","","","","","","","","","","","","","","","","","SYN106AAXX  12184 65319 32460 72204 10362 20225 39542 40039 83832 333 10390 59003 81613 83820 85076 94913 95833;","","","","","","","","","",""
"65319099999","2005-04-13T01:00:00","10.3166667","1.3833333","461.0","NATITINGOU, BN","FM-12","4","","73","87","","","","9","62","BKN:05 256","29.73","28.26","6.21","77","000","","0","","","","","","","","","","","","","","","","","","","","","","","","","","","","","","","","","","","","","","","","","","","","","","","","","","","","","","","","","","","","","","","","","","","","","","","","","","","","","","","","","","","","","","","","","","","SYN082AAXX  13004 65319 33960 50000 10307 20226 39571 40068 80002 333 0//00 58003 85076;","","","","","","","","","",""
"65319099999","2005-04-13T07:00:00","10.3166667","1.3833333","461.0","NATITINGOU, BN","FM-12","4","","72","81","","","","9","74","","29.76","28.28","6.21","75","220","","5","","","","","","","","","","","","","","","","","","","","","","","","","","","","","","","","","","","","","","","","","","","","","","","","","","","","","","","","","","","","","","","","","","","","","","","","","","","","","","","","","","","","","","","","","","","SYN100AAXX  13064 65319 32960 52204 10272 20221 39578 40078 80002 333 02600 20273 50804 55101 58005 85076;","","","","","","","","","",""
"65319099999","2005-04-13T13:00:00","10.3166667","1.3833333","461.0","NATITINGOU, BN","FM-12","4","","75","97","","","","9","49","FEW:01 13 SCT:03 20 BKN:05 256","29.75","28.28","6.21","81","320","","7","","","","","","","","","","","","","","","","","","","","","","","","","","","","","","","","","","","","","","","","","","","","","","","","","","","","","","","","","","","","","","","","","","","","","","","","","","","","","","","","","","","","","","","","","","","SYN106AAXX  13124 65319 32460 73206 10363 20238 39576 40073 84802 333 0//00 58006 81613 83820 85076 94919 95839;","","","","","","","","","",""
"65319099999","2005-04-13T19:00:00","10.3166667","1.3833333","461.0","NATITINGOU, BN","FM-12","4","","69","88","","","","9","54","FEW:01 13 SCT:03 108 BKN:05 256","29.68","28.20","6.21","75","080","","5","","","","","","","","","","","","","","","","","","","","","","","","","","","","","","","","","","","","","","","","","","","","","","","","","","","","","","","","","","","","","","","","","","","","","","","","","","","","","","","","","","","","","","","","","","","SYN118AAXX  13184 65319 11460 70804 10309 20205 39548 40050 69972 70295 82872 333 10392 58006 81613 83461 85076 94924 95834;","","","","","","","","","",""
"65319099999","2005-04-14T01:00:00","10.3166667","1.3833333","461.0","NATITINGOU, BN","FM-12","4","","73","84","","","","9","69","BKN:05 256","29.73","28.26","6.21","76","220","","7","","","","","","","","","","","","","","","","","","","","","","","","","","","","","","","","","","","","","","","","","","","","","","","","","","","","","","","","","","","","","","","","","","","","","","","","","","","","","","","","","","","","","","","","","","","SYN082AAXX  14004 65319 33960 52206 10288 20226 39571 40069 80002 333 0//00 58000 85076;","","","","","","","","","",""
"65319099999","2005-04-14T07:00:00","10.3166667","1.3833333","461.0","NATITINGOU, BN","FM-12","4","","70","81","","","","9","70","","29.73","28.25","6.21","73","000","","0","","","","","","","","","","","","","","","","","","","","","","","","","","","","","","","","","","","","","","","","","","","","","","","","","","","","","","","","","","","","","","","","","","","","","","","","","","","","","","","","","","","","","","","","","","","SYN106AAXX  14064 65319 12960 70000 10270 20211 39567 40069 69974 8703/ 333 02259 20265 50794 55093 59011 87361;","","","","","","","","","",""
"65319099999","2005-04-14T13:00:00","10.3166667","1.3833333","461.0","NATITINGOU, BN","FM-12","4","","71","98","","","","9","41","BKN:07 256","29.74","28.21","6.21","78","280","","5","","","","","","","","","","","","","","","","","","","","","","","","","","","","","","","","","","","","","","","","","","","","","","","","","","","","","","","","","","","","","","","","","","","","","","","","","","","","","","","","","","","","","","","","","","","SYN082AAXX  14124 65319 32960 72804 10368 20214 39553 40070 80008 333 0//00 59003 87276;","","","","","","","","","",""
"65319099999","2005-04-14T19:00:00","10.3166667","1.3833333","461.0","NATITINGOU, BN","FM-12","4","","70","97","","","","9","43","FEW:01 108","29.69","28.21","6.21","78","000","","0","","","","","","","","","","","","","","","","","","","","","","","","","","","","","","","","","","","","","","","","","","","","","","","","","","","","","","","","","","","","","","","","","","","","","","","","","","","","","","","","","","","","","","","","","","","SYN088AAXX  14184 65319 32960 70000 10359 20213 39554 40053 81036 333 10390 58006 81361 87276;","","","","","","","","","",""
"65319099999","2005-04-15T07:00:00","10.3166667","1.3833333","461.0","NATITINGOU, BN","FM-12","4","","75","81","","","","9","83","","29.75","28.28","6.21","77","220","","7","","","","","","","","","","","","","","","","","","","","","","","","","","","","","","","","","","","","","","","","","","","","","","","","","","","","","","","","","","","","","","","","","","","","","","","","","","","","","","","","","","","","","","","","","","","SYN100AAXX  15064 65319 32960 72206 10272 20241 39576 40076 80006 333 02500 20270 50854 55087 58009 87276;","","","","","","","","","",""
"65319099999","2005-04-15T13:00:00","10.3166667","1.3833333","461.0","NATITINGOU, BN","FM-12","4","","74","92","","","","9","55","FEW:02 13 SCT:03 20 BKN:07 256","29.76","28.29","6.21","79","220","","9","","","","","","","","","","","","","","","","","","","","","","","","","","","","","","","","","","","","","","","","","","","","","","","","","","","","","","","","","","","","","","","","","","","","","","","","","","","","","","","","","","","","","","","","","","","SYN106AAXX  15124 65319 32460 72208 10335 20234 39579 40078 83808 333 0//00 58003 82613 83820 87276 94914 95837;","","","","","","","","","",""
"65319099999","2005-04-15T19:00:00","10.3166667","1.3833333","461.0","NATITINGOU, BN","FM-12","4","","75","91","","","","9","59","FEW:02 13 SCT:03 20 FEW:01 30","29.74","28.26","6.21","79","000","","0","","","","","","","","","","","","","","","","","","","","","","","","","","","","","","","","","","","","","","","","","","","","","","","","","","","","","","","","","","","","","","","","","","","","","","","","","","","","","","","","","","","","","","","","","","","SYN112AAXX  15184 65319 32460 70000 10330 20239 39570 40072 84902 333 10360 58016 82613 83820 81930 85076 94913 95838;","","","","","","","","","",""
"65319099999","2005-04-16T01:00:00","10.3166667","1.3833333","461.0","NATITINGOU, BN","FM-12","4","","71","83","","","","9","65","BKN:05 256","29.78","28.30","6.21","75","180","","7","","","","","","","","","","","","","","","","","","","","","","","","","","","","","","","","","","","","","","","","","","","","","","","","","","","","","","","","","","","","","","","","","","","","","","","","","","","","","","","","","","","","","","","","","","","SYN082AAXX  16004 65319 33960 51806 10285 20214 39583 40084 80002 333 0//00 58012 85076;","","","","","","","","","",""
"65319099999","2005-04-16T07:00:00","10.3166667","1.3833333","461.0","NATITINGOU, BN","FM-12","4","","70","77","","","","9","80","SCT:03 108","29.79","28.30","6.21","72","000","","0","","","","","","","","","","","","","","","","","","","","","","","","","","","","","","","","","","","","","","","","","","","","","","","","","","","","","","","","","","","","","","","","","","","","","","","","","","","","","","","","","","","","","","","","","","","SYN106AAXX  16064 65319 32960 70000 10250 20212 39582 40087 83032 333 02000 20250 50594 55049 58006 83361 85076;","","","","","","","","","",""
"65319099999","2005-04-16T13:00:00","10.3166667","1.3833333","461.0","NATITINGOU, BN","FM-12","4","","71","99","","","","9","40","FEW:01 13","29.76","28.29","6.21","79","180","","13","","","","","","","","","","","","","","","","","","","","","","","","","","","","","","","","","","","","","","","","","","","","","","","","","","","","","","","","","","","","","","","","","","","","","","","","","","","","","","","","","","","","","","","","","","","SYN088AAXX  16120 65319 42460 71806 10374 20218 39581 40079 81502 333 0//00 58002 81613 85076;","","","","","","","","","",""
"65319099999","2005-04-16T19:00:00","10.3166667","1.3833333","461.0","NATITINGOU, BN","FM-12","4","","72","91","","","","9","55","FEW:01 13 SCT:03 20 BKN:07 108","29.70","28.21","6.21","77","240","","5","","","","","","","","","","","","","","","","","","","","","","","","","","","","","","","","","","","","","","","","","","","","","","","","","","","","","","","","","","","","","","","","","","","","","","","","","","","","","","","","","","","","","","","","","","","SYN106AAXX  16184 65319 32460 72404 10327 20225 39553 40056 83832 333 10403 59017 81613 83820 87361 94919 95838;","","","","","","","","","",""
"65319099999","2005-04-17T01:00:00","10.3166667","1.3833333","461.0","NATITINGOU, BN","FM-12","4","","73","80","","||TS","","9","82","SCT:03 13 FEW:01 30 BKN:07 108","29.78","28.30","4.97","75","000","","0","","","","","","","","","","","","","","","","","","","","","","","","","","","","","","","","","","","","","","","","","","","","","","","","","","","","","","","","","","","","","","","","","","","","","","","","","","","","","","","","","","","","","","","","","","","SYN118AAXX  17004 65319 11458 70000 10264 20230 39583 40083 60111 71796 8397/ 333 0//61 58000 83613 81930 87461 94948 95838;","","","","","","","","","",""
"65319099999","2005-04-17T11:00:00","10.3166667","1.3833333","461.0","NATITINGOU, BN","FM-12","4","","","","","","","","","","","","4.97","","000","","0","","","","","","","","","","","","","","","","","","","","","","","","","","","","","","","","","","","","","","","","","","","","","","","","","","","","","","","","","","","","","","","","","","","","","","","","","","","","","","","","","","","","","","","","","","","SYN055AAXX  17104 65319 11458 70058000 1 81930 83613 87461 9;","","","","","","","","","",""
"65319099999","2005-04-17T13:00:00","10.3166667","1.3833333","461.0","NATITINGOU, BN","FM-12","4","","76","93","","","","9","57","BKN:05 256","29.76","28.28","6.21","80","220","","9","","","","","","","","","","","","","","","","","","","","","","","","","","","","","","","","","","","","","","","","","","","","","","","","","","","","","","","","","","","","","","","","","","","","","","","","","","","","","","","","","","","","","","","","","","","SYN082AAXX  17124 65319 32960 52208 10340 20243 39576 40078 80002 333 0//00 59005 85076;","","","","","","","","","",""
"65319099999","2005-04-17T19:00:00","10.3166667","1.3833333","461.0","NATITINGOU, BN","FM-12","4","","72","96","","","","9","46","FEW:02 13 FEW:01 30 BKN:05 256","29.68","28.22","6.21","79","000","","0","","","","","","","","","","","","","","","","","","","","","","","","","","","","","","","","","","","","","","","","","","","","","","","","","","","","","","","","","","","","","","","","","","","","","","","","","","","","","","","","","","","","","","","","","","","SYN106AAXX  17184 65319 32460 70000 10355 20223 39558 40052 82902 333 10367 58000 82613 81930 85076 94944 95874;","","","","","","","","","",""
"65319099999","2005-04-18T01:00:00","10.3166667","1.3833333","461.0","NATITINGOU, BN","FM-12","4","","70","81","","","","9","68","BKN:07 108","29.77","28.29","6.21","73","220","","5","","","","","","","","","","","","","","","","","","","","","","","","","","","","","","","","","","","","","","","","","","","","","","","","","","","","","","","","","","","","","","","","","","","","","","","","","","","","","","","","","","","","","","","","","","","SYN082AAXX  18004 65319 33960 72204 10274 20209 39579 40081 8707/ 333 0//00 59004 87361;","","","","","","","","","",""
"65319099999","2005-04-18T07:00:00","10.3166667","1.3833333","461.0","NATITINGOU, BN","FM-12","4","","69","80","","","","9","70","","29.72","28.25","6.21","73","200","","5","","","","","","","","","","","","","","","","","","","","","","","","","","","","","","","","","","","","","","","","","","","","","","","","","","","","","","","","","","","","","","","","","","","","","","","","","","","","","","","","","","","","","","","","","","","SYN100AAXX  18064 65319 32960 72004 10265 20206 39565 40065 8707/ 333 02200 20260 50834 55103 59014 87361;","","","","","","","","","",""
"65319099999","2005-04-18T13:00:00","10.3166667","1.3833333","461.0","NATITINGOU, BN","FM-12","4","","73","89","","","","9","61","SCT:04 108","29.75","28.26","6.21","78","200","","9","","","","","","","","","","","","","","","","","","","","","","","","","","","","","","","","","","","","","","","","","","","","","","","","","","","","","","","","","","","","","","","","","","","","","","","","","","","","","","","","","","","","","","","","","","","SYN088AAXX  18124 65319 32960 72008 10315 20230 39571 40074 84038 333 0//00 59005 84361 87276;","","","","","","","","","",""
"65319099999","2005-04-18T19:00:00","10.3166667","1.3833333","461.0","NATITINGOU, BN","FM-12","4","","76","91","","","","9","60","BKN:05 256","29.65","28.17","6.21","80","000","","0","","","","","","","","","","","","","","","","","","","","","","","","","","","","","","","","","","","","","","","","","","","","","","","","","","","","","","","","","","","","","","","","","","","","","","","","","","","","","","","","","","","","","","","","","","","SYN082AAXX  18184 65319 32960 50000 10330 20242 39541 40042 80002 333 10355 59012 85076;","","","","","","","","","",""
"65319099999","2005-04-19T01:00:00","10.3166667","1.3833333","461.0","NATITINGOU, BN","FM-12","4","","74","82","","","","9","77","BKN:07 256","29.73","28.25","6.21","76","220","","5","","","","","","","","","","","","","","","","","","","","","","","","","","","","","","","","","","","","","","","","","","","","","","","","","","","","","","","","","","","","","","","","","","","","","","","","","","","","","","","","","","","","","","","","","","","SYN082AAXX  19004 65319 33960 72204 10277 20234 30566 40069 80006 333 0//00 59013 87276;","","","","","","","","","",""
"65319099999","2005-04-19T07:00:00","10.3166667","1.3833333","461.0","NATITINGOU, BN","FM-12","4","","74","78","","","","9","87","SCT:04 13","29.76","28.27","6.21","75","220","","5","","","","","","","","","","","","","","","","","","","","","","","","","","","","","","","","","","","","","","","","","","","","","","","","","","","","","","","","","","","","","","","","","","","","","","","","","","","","","","","","","","","","","","","","","","","SYN106AAXX  19064 65319 32460 72204 10258 20235 39574 40077 84502 333 02200 20255 50724 55069 59009 84613 85076;","","","","","","","","","",""
"65319099999","2005-04-19T13:00:00","10.3166667","1.3833333","461.0","NATITINGOU, BN","FM-12","4","","70","92","","","","9","49","SCT:03 20 SCT:03 108 BKN:05 256","29.79","28.30","6.21","76","280","","9","","","","","","","","","","","","","","","","","","","","","","","","","","","","","","","","","","","","","","","","","","","","","","","","","","","","","","","","","","","","","","","","","","","","","","","","","","","","","","","","","","","","","","","","","","","SYN106AAXX  19124 65319 32560 72808 10335 20213 39585 40087 83232 333 0//00 58014 83820 83361 85076 94919 95832;","","","","","","","","","",""
"65319099999","2005-04-20T01:00:00","10.3166667","1.3833333","461.0","NATITINGOU, BN","FM-12","4","","70","76","","","","9","81","BKN:07 13","29.78","28.29","4.97","72","200","","5","","","","","","","","","","","","","","","","","","","","","","","","","","","","","","","","","","","","","","","","","","","","","","","","","","","","","","","","","","","","","","","","","","","","","","","","","","","","","","","","","","","","","","","","","","","SYN082AAXX  20004 65319 33458 72004 10247 20213 39579 40083 875// 333 0//00 58013 87613;","","","","","","","","","",""
"65319099999","2005-04-20T19:00:00","10.3166667","1.3833333","461.0","NATITINGOU, BN","FM-12","4","","74","88","","","","9","63","BKN:05 256","29.72","28.23","6.21","78","000","","0","","","","","","","","","","","","","","","","","","","","","","","","","","","","","","","","","","","","","","","","","","","","","","","","","","","","","","","","","","","","","","","","","","","","","","","","","","","","","","","","","","","","","","","","","","","SYN082AAXX  20184 65319 32960 50000 10310 20232 39559 40065 80002 333 10340 59016 85076;","","","","","","","","","",""
"65319099999","2005-04-21T01:00:00","10.3166667","1.3833333","461.0","NATITINGOU, BN","FM-12","4","","76","81","","","","9","86","BKN:05 256","29.77","28.29","6.21","77","000","","0","","","","","","","","","","","","","","","","","","","","","","","","","","","","","","","","","","","","","","","","","","","","","","","","","","","","","","","","","","","","","","","","","","","","","","","","","","","","","","","","","","","","","","","","","","","SYN082AAXX  21004 65319 33960 50000 10270 20245 39579 40082 80002 333 0//00 58000 85076;","","","","","","","","","",""
"65319099999","2005-04-21T07:00:00","10.3166667","1.3833333","461.0","NATITINGOU, BN","FM-12","4","","74","79","","","","9","84","SCT:03 108","29.77","28.28","6.21","75","200","","5","","","","","","","","","","","","","","","","","","","","","","","","","","","","","","","","","","","","","","","","","","","","","","","","","","","","","","","","","","","","","","","","","","","","","","","","","","","","","","","","","","","","","","","","","","","SYN106AAXX  21064 65319 32960 72004 10260 20231 39576 40081 83032 333 02200 20250 50494 55074 59006 83361 85076;","","","","","","","","","",""
"65319099999","2005-04-21T13:00:00","10.3166667","1.3833333","461.0","NATITINGOU, BN","FM-12","4","","75","94","","","","9","55","FEW:02 13 SCT:03 20 BKN:05 256","29.76","28.28","6.21","80","280","","7","","","","","","","","","","","","","","","","","","","","","","","","","","","","","","","","","","","","","","","","","","","","","","","","","","","","","","","","","","","","","","","","","","","","","","","","","","","","","","","","","","","","","","","","","","","SYN106AAXX  21124 65319 32460 72806 10345 20241 39576 40077 84802 333 0//00 59003 82613 83820 85076 94914 95838;","","","","","","","","","",""
"65319099999","2005-04-21T19:00:00","10.3166667","1.3833333","461.0","NATITINGOU, BN","FM-12","4","","69","88","","||TS","","9","55","SCT:03 13 SCT:03 20 FEW:01 30","29.70","28.22","6.21","75","040","","7","","","","","","","","","","","","","","","","","","","","","","","","","","","","","","","","","","","","","","","","","","","","","","","","","","","","","","","","","","","","","","","","","","","","","","","","","","","","","","","","","","","","","","","","","","","SYN112AAXX  21184 65319 31460 70406 10310 20208 39555 40059 71799 87902 333 10370 59004 83613 83820 81930 94947 95873;","","","","","","","","","",""
"65319099999","2005-04-22T01:00:00","10.3166667","1.3833333","461.0","NATITINGOU, BN","FM-12","4","","72","84","","","","9","69","BKN:07 108","29.76","28.28","6.21","76","000","","0","","","","","","","","","","","","","","","","","","","","","","","","","","","","","","","","","","","","","","","","","","","","","","","","","","","","","","","","","","","","","","","","","","","","","","","","","","","","","","","","","","","","","","","","","","","SYN082AAXX  22004 65319 33960 70000 10287 20224 39577 40077 8707/ 333 0//00 59002 87461;","","","","","","","","","",""
"65319099999","2005-04-22T07:00:00","10.3166667","1.3833333","461.0","NATITINGOU, BN","FM-12","4","","73","80","","","","9","77","","29.73","28.24","6.21","75","220","","5","","","","","","","","","","","","","","","","","","","","","","","","","","","","","","","","","","","","","","","","","","","","","","","","","","","","","","","","","","","","","","","","","","","","","","","","","","","","","","","","","","","","","","","","","","","SYN100AAXX  22064 65319 32960 72204 10269 20226 39563 40067 87031 333 02400 20262 50694 55106 59013 87361;","","","","","","","","","",""
"65319099999","2005-04-22T13:00:00","10.3166667","1.3833333","461.0","NATITINGOU, BN","FM-12","4","","75","94","","","","9","55","FEW:02 13 SCT:04 20 SCT:04 256","29.74","28.26","6.21","80","220","","7","","","","","","","","","","","","","","","","","","","","","","","","","","","","","","","","","","","","","","","","","","","","","","","","","","","","","","","","","","","","","","","","","","","","","","","","","","","","","","","","","","","","","","","","","","","SYN106AAXX  22124 65319 32460 72206 10345 20241 39571 40072 85802 333 0//00 59005 82613 84820 84076 94919 95839;","","","","","","","","","",""
"65319099999","2005-04-23T13:00:00","10.3166667","1.3833333","461.0","NATITINGOU, BN","FM-12","4","","74","90","","","","9","59","SCT:03 20 BKN:07 108","29.77","28.29","6.21","78","180","","11","","","","","","","","","","","","","","","","","","","","","","","","","","","","","","","","","","","","","","","","","","","","","","","","","","","","","","","","","","","","","","","","","","","","","","","","","","","","","","","","","","","","","","","","","","","SYN100AAXX  23124 65319 32560 71810 10325 20234 39580 40082 8223/ 333 0//00 58009 83820 87361 94904 95814;","","","","","","","","","",""
"65319099999","2005-04-23T19:00:00","10.3166667","1.3833333","461.0","NATITINGOU, BN","FM-12","4","","74","90","","","","9","61","FEW:02 20 FEW:01 30 BKN:05 256","29.72","28.23","6.21","78","300","","7","","","","","","","","","","","","","","","","","","","","","","","","","","","","","","","","","","","","","","","","","","","","","","","","","","","","","","","","","","","","","","","","","","","","","","","","","","","","","","","","","","","","","","","","","","","SYN106AAXX  23184 65319 32560 73006 10320 20236 39560 40064 82902 333 10345 58005 82820 81930 85076 94944 95874;","","","","","","","","","",""
"65319099999","2005-04-24T01:00:00","10.3166667","1.3833333","461.0","NATITINGOU, BN","FM-12","4","","75","81","","","","9","81","BKN:05 256","29.74","28.26","6.21","77","200","","5","","","","","","","","","","","","","","","","","","","","","","","","","","","","","","","","","","","","","","","","","","","","","","","","","","","","","","","","","","","","","","","","","","","","","","","","","","","","","","","","","","","","","","","","","","","SYN082AAXX  24004 65319 33960 52004 10275 20240 39569 40071 80002 333 0//00 59006 85076;","","","","","","","","","",""
"65319099999","2005-04-24T07:00:00","10.3166667","1.3833333","461.0","NATITINGOU, BN","FM-12","4","","72","76","","","","9","89","BKN:05 13","29.81","28.31","6.21","73","000","","0","","","","","","","","","","","","","","","","","","","","","","","","","","","","","","","","","","","","","","","","","","","","","","","","","","","","","","","","","","","","","","","","","","","","","","","","","","","","","","","","","","","","","","","","","","","SYN118AAXX  24064 65319 11460 70000 10243 20224 39588 40094 69954 72166 8557/ 333 02535 20240 50634 55057 58029 85613 87361;","","","","","","","","","",""
"65319099999","2005-04-24T13:00:00","10.3166667","1.3833333","461.0","NATITINGOU, BN","FM-12","4","","69","91","","","","9","48","FEW:01 13","29.76","28.27","6.21","76","320","","5","","","","","","","","","","","","","","","","","","","","","","","","","","","","","","","","","","","","","","","","","","","","","","","","","","","","","","","","","","","","","","","","","","","","","","","","","","","","","","","","","","","","","","","","","","","SYN100AAXX  24124 65319 11460 73204 10330 20206 39575 40077 69911 70266 8153/ 333 0//15 59005 81613 87361;","","","","","","","","","",""
"65319099999","2005-04-24T19:00:00","10.3166667","1.3833333","461.0","NATITINGOU, BN","FM-12","4","","72","92","","","","9","53","FEW:02 32","29.65","28.23","6.21","78","220","","7","","","","","","","","","","","","","","","","","","","","","","","","","","","","","","","","","","","","","","","","","","","","","","","","","","","","","","","","","","","","","","","","","","","","","","","","","","","","","","","","","","","","","","","","","","","SYN100AAXX  24184 65319 12460 72206 10333 20224 39561 40040 69912 82532 333 10375 58001 82613 83361 85076;","","","","","","","","","",""
"65319099999","2005-04-25T01:00:00","10.3166667","1.3833333","461.0","NATITINGOU, BN","FM-12","4","","72","80","","","","9","77","SCT:03 13","29.81","28.33","6.21","74","220","","5","","","","","","","","","","","","","","","","","","","","","","","","","","","","","","","","","","","","","","","","","","","","","","","","","","","","","","","","","","","","","","","","","","","","","","","","","","","","","","","","","","","","","","","","","","","SYN088AAXX  25004 65319 33460 72204 10265 20222 39593 40096 8357/ 333 0//00 58024 83613 87361;","","","","","","","","","",""
"65319099999","2005-04-25T07:00:00","10.3166667","1.3833333","461.0","NATITINGOU, BN","FM-12","4","","72","77","","","","9","82","","29.69","28.28","6.21","74","200","","5","","","","","","","","","","","","","","","","","","","","","","","","","","","","","","","","","","","","","","","","","","","","","","","","","","","","","","","","","","","","","","","","","","","","","","","","","","","","","","","","","","","","","","","","","","","SYN100AAXX  25064 65319 32960 72004 10252 20220 39576 40055 8707/ 333 01500 20245 50674 55051 59012 87361;","","","","","","","","","",""
"65319099999","2005-04-25T13:00:00","10.3166667","1.3833333","461.0","NATITINGOU, BN","FM-12","4","","72","92","","","","9","52","FEW:01 20 BKN:07 256","29.78","28.30","6.21","78","220","","5","","","","","","","","","","","","","","","","","","","","","","","","","","","","","","","","","","","","","","","","","","","","","","","","","","","","","","","","","","","","","","","","","","","","","","","","","","","","","","","","","","","","","","","","","","","SYN100AAXX  25124 65319 32560 72204 10335 20224 39582 40085 81208 333 0//00 58007 81820 87276 94902 95832;","","","","","","","","","",""
"65319099999","2005-04-25T19:00:00","10.3166667","1.3833333","461.0","NATITINGOU, BN","FM-12","4","","71","78","","||TS","","9","80","FEW:02 13 FEW:01 30 OVC:08 108","29.75","28.24","4.97","73","360","","5","","","","","","","","","","","","","","","","","","","","","","","","","","","","","","","","","","","","","","","","","","","","","","","","","","","","","","","","","","","","","","","","","","","","","","","","","","","","","","","","","","","","","","","","","","","SYN118AAXX  25184 65319 11458 83604 10255 20218 39564 40073 60082 79596 8397/ 333 10372 58003 82613 81930 88461 94969 95838;","","","","","","","","","",""
"65319099999","2005-04-26T01:00:00","10.3166667","1.3833333","461.0","NATITINGOU, BN","FM-12","4","","71","77","","","","9","81","FEW:02 13","29.77","28.22","6.21","73","200","","5","","","","","","","","","","","","","","","","","","","","","","","","","","","","","","","","","","","","","","","","","","","","","","","","","","","","","","","","","","","","","","","","","","","","","","","","","","","","","","","","","","","","","","","","","","","SYN100AAXX  26004 65319 11460 72004 10250 20216 39558 40081 60021 70196 8257/ 333 0//62 59015 82613 87361;","","","","","","","","","",""
"65319099999","2005-04-26T07:00:00","10.3166667","1.3833333","461.0","NATITINGOU, BN","FM-12","4","","73","78","","","","9","84","","29.79","28.28","6.21","75","000","","0","","","","","","","","","","","","","","","","","","","","","","","","","","","","","","","","","","","","","","","","","","","","","","","","","","","","","","","","","","","","","","","","","","","","","","","","","","","","","","","","","","","","","","","","","","","SYN106AAXX  26064 65319 12960 70000 10256 20227 39577 40087 60104 8707/ 333 02464 20242 50594 55072 58001 87361;","","","","","","","","","",""
"65319099999","2005-04-26T13:00:00","10.3166667","1.3833333","461.0","NATITINGOU, BN","FM-12","4","","74","90","","","","9","61","BKN:07 256","29.82","28.32","6.21","78","220","","7","","","","","","","","","","","","","","","","","","","","","","","","","","","","","","","","","","","","","","","","","","","","","","","","","","","","","","","","","","","","","","","","","","","","","","","","","","","","","","","","","","","","","","","","","","","SYN082AAXX  26124 65319 32960 72206 10320 20236 39591 40097 80006 333 0//00 58009 87276;","","","","","","","","","",""
"65319099999","2005-04-26T19:00:00","10.3166667","1.3833333","461.0","NATITINGOU, BN","FM-12","4","","73","89","","","","9","61","BKN:07 256","29.76","28.27","6.21","78","220","","5","","","","","","","","","","","","","","","","","","","","","","","","","","","","","","","","","","","","","","","","","","","","","","","","","","","","","","","","","","","","","","","","","","","","","","","","","","","","","","","","","","","","","","","","","","","SYN082AAXX  26184 65319 32960 72204 10315 20230 39573 40078 80008 333 10346 58009 87276;","","","","","","","","","",""
"65319099999","2005-04-27T01:00:00","10.3166667","1.3833333","461.0","NATITINGOU, BN","FM-12","4","","71","80","","","","9","74","BKN:07 256","29.84","28.35","6.21","74","220","","5","","","","","","","","","","","","","","","","","","","","","","","","","","","","","","","","","","","","","","","","","","","","","","","","","","","","","","","","","","","","","","","","","","","","","","","","","","","","","","","","","","","","","","","","","","","SYN082AAXX  27004 65319 33960 72204 10265 20214 39601 40106 80006 333 0//00 58003 87276;","","","","","","","","","",""
"65319099999","2005-04-27T07:00:00","10.3166667","1.3833333","461.0","NATITINGOU, BN","FM-12","4","","72","77","","","","9","84","","29.83","28.34","6.21","74","220","","5","","","","","","","","","","","","","","","","","","","","","","","","","","","","","","","","","","","","","","","","","","","","","","","","","","","","","","","","","","","","","","","","","","","","","","","","","","","","","","","","","","","","","","","","","","","SYN100AAXX  27064 65319 32960 72204 10250 20221 39596 40102 80008 333 02200 20246 50504 55059 58019 87276;","","","","","","","","","",""
"65319099999","2005-04-28T07:00:00","10.3166667","1.3833333","461.0","NATITINGOU, BN","FM-12","4","","75","80","","","","9","85","","29.82","28.34","6.21","76","200","","5","","","","","","","","","","","","","","","","","","","","","","","","","","","","","","","","","","","","","","","","","","","","","","","","","","","","","","","","","","","","","","","","","","","","","","","","","","","","","","","","","","","","","","","","","","","SYN100AAXX  28064 65319 32960 52004 10265 20237 39596 40099 80002 333 02400 20245 50734 55085 58000 85076;","","","","","","","","","",""
"65319099999","2005-04-28T13:00:00","10.3166667","1.3833333","461.0","NATITINGOU, BN","FM-12","4","","76","95","","","","9","54","FEW:01 13 BKN:07 256","29.83","28.35","6.21","81","280","","5","","","","","","","","","","","","","","","","","","","","","","","","","","","","","","","","","","","","","","","","","","","","","","","","","","","","","","","","","","","","","","","","","","","","","","","","","","","","","","","","","","","","","","","","","","","SYN100AAXX  28124 65319 32460 72804 10350 20245 39600 40101 82808 333 0//00 58009 81613 87276 94909 95819;","","","","","","","","","",""
"65319099999","2005-04-28T19:00:00","10.3166667","1.3833333","461.0","NATITINGOU, BN","FM-12","4","","75","91","","","","9","59","FEW:02 108","29.74","","6.21","","200","","5","","","","","","","","","","","","","","","","","","","","","","","","","","","","","","","","","","","","","","","","","","","","","","","","","","","","","","","","","","","","","","","","","","","","","","","","","","","","","","","","","","","","","","","","","","","SYN088AAXX  28184 65319 32960 72004 10330 20239 39910 40072 82038 333 10372 59003 82361 87276;","","","","","","","","","",""
"65319099999","2005-04-29T07:00:00","10.3166667","1.3833333","461.0","NATITINGOU, BN","FM-12","4","","69","72","","||TS","","9","91","FEW:02 13 FEW:01 30 OVC:08 108","29.90","28.39","4.97","70","000","","0","","","","","","","","","","","","","","","","","","","","","","","","","","","","","","","","","","","","","","","","","","","","","","","","","","","","","","","","","","","","","","","","","","","","","","","","","","","","","","","","","","","","","","","","","","","SYN136AAXX  29064 65319 11458 80000 10220 20205 39615 40124 60324 79596 8297/ 333 02556 20203 51024 55083 58019 82613 81930 88461 94948 95838;","","","","","","","","","",""
"65319099999","2005-04-29T13:00:00","10.3166667","1.3833333","461.0","NATITINGOU, BN","FM-12","4","","70","78","","","","9","76","BKN:07 108","29.90","28.39","6.21","73","360","","9","","","","","","","","","","","","","","","","","","","","","","","","","","","","","","","","","","","","","","","","","","","","","","","","","","","","","","","","","","","","","","","","","","","","","","","","","","","","","","","","","","","","","","","","","","","SYN094AAXX  29124 65319 11960 73608 10255 20210 39615 40124 69971 70166 8707/ 333 0//55 58015 87361;","","","","","","","","","",""
"65319099999","2005-04-29T19:00:00","10.3166667","1.3833333","461.0","NATITINGOU, BN","FM-12","4","","72","82","","","","9","71","BKN:07 108","29.73","","6.21","","000","","0","","","","","","","","","","","","","","","","","","","","","","","","","","","","","","","","","","","","","","","","","","","","","","","","","","","","","","","","","","","","","","","","","","","","","","","","","","","","","","","","","","","","","","","","","","","SYN082AAXX  29184 65319 32960 70000 10280 20222 39757 40067 8703/ 333 10300 59013 87361;","","","","","","","","","",""
"65319099999","2005-04-30T01:00:00","10.3166667","1.3833333","461.0","NATITINGOU, BN","FM-12","4","","73","76","","","","9","89","BKN:07 108","29.83","28.32","6.21","74","000","","0","","","","","","","","","","","","","","","","","","","","","","","","","","","","","","","","","","","","","","","","","","","","","","","","","","","","","","","","","","","","","","","","","","","","","","","","","","","","","","","","","","","","","","","","","","","SYN082AAXX  30004 65319 33960 70000 10245 20226 39589 40100 8703/ 333 0//00 58004 87361;","","","","","","","","","",""
"65319099999","2005-04-30T07:00:00","10.3166667","1.3833333","461.0","NATITINGOU, BN","FM-12","4","","72","73","","","","9","96","","29.82","28.31","6.21","72","220","","5","","","","","","","","","","","","","","","","","","","","","","","","","","","","","","","","","","","","","","","","","","","","","","","","","","","","","","","","","","","","","","","","","","","","","","","","","","","","","","","","","","","","","","","","","","","SYN106AAXX  30064 65319 12960 72204 10230 20223 39587 40098 69974 80008 333 02059 20225 50234 55005 59028 87276;","","","","","","","","","",""
"65319099999","2005-04-30T13:00:00","10.3166667","1.3833333","461.0","NATITINGOU, BN","FM-12","4","","75","89","","","","9","62","FEW:01 13 SCT:03 20 BKN:07 256","29.78","28.29","6.21","79","220","","9","","","","","","","","","","","","","","","","","","","","","","","","","","","","","","","","","","","","","","","","","","","","","","","","","","","","","","","","","","","","","","","","","","","","","","","","","","","","","","","","","","","","","","","","","","","SYN106AAXX  30124 65319 32460 72208 10318 20237 39579 40085 83808 333 0//00 59036 81613 83820 87276 94915 95838;","","","","","","","","","",""
"65319099999","2005-04-30T19:00:00","10.3166667","1.3833333","461.0","NATITINGOU, BN","FM-12","4","","76","87","","","","9","69","BKN:05 256","29.71","28.22","6.21","79","220","","7","","","","","","","","","","","","","","","","","","","","","","","","","","","","","","","","","","","","","","","","","","","","","","","","","","","","","","","","","","","","","","","","","","","","","","","","","","","","","","","","","","","","","","","","","","","SYN082AAXX  30184 65319 32960 52206 10305 20242 39556 40062 80002 333 10335 59001 85076;","","","","","","","","","",""
"65319099999","2005-05-01T01:00:00","10.3166667","1.3833333","461.0","NATITINGOU, BN","FM-12","4","","75","80","","","","9","85","BKN:05 256","29.77","28.28","6.21","76","200","","5","","","","","","","","","","","","","","","","","","","","","","","","","","","","","","","","","","","","","","","","","","","","","","","","","","","","","","","","","","","","","","","","","","","","","","","","","","","","","","","","","","","","","","","","","","","SYN082AAXX  01004 65319 33960 52004 10265 20237 39578 40082 80002 333 0//00 59011 85076;","","","","","","","","","",""
"65319099999","2005-05-01T07:00:00","10.3166667","1.3833333","461.0","NATITINGOU, BN","FM-12","4","","72","74","","","","9","91","","29.80","28.30","6.21","73","220","","5","","","","","","","","","","","","","","","","","","","","","","","","","","","","","","","","","","","","","","","","","","","","","","","","","","","","","","","","","","","","","","","","","","","","","","","","","","","","","","","","","","","","","","","","","","","SYN100AAXX  01064 65319 32960 52204 10235 20220 39582 40090 80002 333 02200 20230 50484 55095 59005 85076;","","","","","","","","","",""
"65319099999","2005-05-01T13:00:00","10.3166667","1.3833333","461.0","NATITINGOU, BN","FM-12","4","","","88","","","","9","","FEW:01 13 SCT:04 20 BKN:07 256","29.83","28.34","6.21","","220","","14","","","","","","","","","","","","","","","","","","","","","","","","","","","","","","","","","","","","","","","","","","","","","","","","","","","","","","","","","","","","","","","","","","","","","","","","","","","","","","","","","","","","","","","","","","","SYN100AAXX  01124 65319 32460 72212 10313 39597 40102 84808 333 0//00 58018 81613 84820 87276 94919 95839;","","","","","","","","","",""
"65319099999","2005-05-02T01:00:00","10.3166667","1.3833333","461.0","NATITINGOU, BN","FM-12","4","","74","79","","","","9","84","BKN:05 256","29.81","28.32","6.21","75","200","","5","","","","","","","","","","","","","","","","","","","","","","","","","","","","","","","","","","","","","","","","","","","","","","","","","","","","","","","","","","","","","","","","","","","","","","","","","","","","","","","","","","","","","","","","","","","SYN082AAXX  02004 65319 33960 52004 10263 20233 39591 40096 80002 333 0//00 58013 85076;","","","","","","","","","",""
"65319099999","2005-05-02T07:00:00","10.3166667","1.3833333","461.0","NATITINGOU, BN","FM-12","4","","74","76","","","","9","92","","29.84","28.34","6.21","75","200","","5","","","","","","","","","","","","","","","","","","","","","","","","","","","","","","","","","","","","","","","","","","","","","","","","","","","","","","","","","","","","","","","","","","","","","","","","","","","","","","","","","","","","","","","","","","","SYN100AAXX  02064 65319 32960 72004 10245 20231 39597 40105 80006 333 02200 20239 50674 55094 58015 87276;","","","","","","","","","",""
"65319099999","2005-05-02T13:00:00","10.3166667","1.3833333","461.0","NATITINGOU, BN","FM-12","4","","73","90","","","","9","57","FEW:02 13 BKN:05 20","29.82","28.33","6.21","78","220","","9","","","","","","","","","","","","","","","","","","","","","","","","","","","","","","","","","","","","","","","","","","","","","","","","","","","","","","","","","","","","","","","","","","","","","","","","","","","","","","","","","","","","","","","","","","","SYN100AAXX  02124 65319 32460 72208 10322 20227 39595 40099 86802 333 0//00 59002 82613 85820 94919 95839;","","","","","","","","","",""
"65319099999","2005-05-02T19:00:00","10.3166667","1.3833333","461.0","NATITINGOU, BN","FM-12","4","","75","89","","","","9","64","FEW:02 13 SCT:03 20 FEW:01 30","29.77","28.27","6.21","79","220","","9","","","","","","","","","","","","","","","","","","","","","","","","","","","","","","","","","","","","","","","","","","","","","","","","","","","","","","","","","","","","","","","","","","","","","","","","","","","","","","","","","","","","","","","","","","","SYN112AAXX  02184 65319 32460 72208 10315 20238 39574 40080 85902 333 10338 59002 82613 83820 81930 85076 94944 95837;","","","","","","","","","",""
"65319099999","2005-05-03T01:00:00","10.3166667","1.3833333","461.0","NATITINGOU, BN","FM-12","4","","74","81","","","","9","81","SCT:03 13","29.85","28.36","6.21","76","000","","0","","","","","","","","","","","","","","","","","","","","","","","","","","","","","","","","","","","","","","","","","","","","","","","","","","","","","","","","","","","","","","","","","","","","","","","","","","","","","","","","","","","","","","","","","","","SYN088AAXX  03004 65319 33460 70000 10270 20234 39605 40110 83502 333 0//00 58014 83613 85076;","","","","","","","","","",""
"65319099999","2005-05-03T07:00:00","10.3166667","1.3833333","461.0","NATITINGOU, BN","FM-12","4","","74","78","","","","9","87","FEW:02 13","29.88","28.38","6.21","75","000","","0","","","","","","","","","","","","","","","","","","","","","","","","","","","","","","","","","","","","","","","","","","","","","","","","","","","","","","","","","","","","","","","","","","","","","","","","","","","","","","","","","","","","","","","","","","","SYN106AAXX  03064 65319 32460 70000 10255 20231 39611 40118 8253/ 333 02300 20250 50374 55096 58014 82613 87361;","","","","","","","","","",""
"65319099999","2005-05-03T13:00:00","10.3166667","1.3833333","461.0","NATITINGOU, BN","FM-12","4","","76","86","","","","9","72","SCT:03 20 SCT:03 108 BKN:05 256","29.91","28.41","6.21","79","000","","0","","","","","","","","","","","","","","","","","","","","","","","","","","","","","","","","","","","","","","","","","","","","","","","","","","","","","","","","","","","","","","","","","","","","","","","","","","","","","","","","","","","","","","","","","","","SYN118AAXX  03124 65319 11560 70000 10300 20243 39622 40130 60021 70196 83232 333 0//51 58027 83820 83361 85076 94919 95833;","","","","","","","","","",""
"65319099999","2005-05-03T19:00:00","10.3166667","1.3833333","461.0","NATITINGOU, BN","FM-12","4","","76","86","","","","9","72","BKN:07 256","29.80","28.31","4.97","79","120","","5","","","","","","","","","","","","","","","","","","","","","","","","","","","","","","","","","","","","","","","","","","","","","","","","","","","","","","","","","","","","","","","","","","","","","","","","","","","","","","","","","","","","","","","","","","","SYN088AAXX  03184 65319 12958 71204 10298 20242 39586 40093 60022 80006 333 10339 58012 87276;","","","","","","","","","",""
"65319099999","2005-05-04T01:00:00","10.3166667","1.3833333","461.0","NATITINGOU, BN","FM-12","4","","75","81","","","","9","83","BKN:05 256","29.88","28.38","6.21","77","000","","0","","","","","","","","","","","","","","","","","","","","","","","","","","","","","","","","","","","","","","","","","","","","","","","","","","","","","","","","","","","","","","","","","","","","","","","","","","","","","","","","","","","","","","","","","","","SYN082AAXX  04004 65319 33960 50000 10272 20241 39609 40117 80002 333 0//00 58005 85076;","","","","","","","","","",""
"65319099999","2005-05-04T07:00:00","10.3166667","1.3833333","461.0","NATITINGOU, BN","FM-12","4","","68","72","","","","9","87","FEW:01 13 SCT:04 108","29.90","28.39","4.97","69","000","","0","","","","","","","","","","","","","","","","","","","","","","","","","","","","","","","","","","","","","","","","","","","","","","","","","","","","","","","","","","","","","","","","","","","","","","","","","","","","","","","","","","","","","","","","","","","SYN124AAXX  04064 65319 11458 70000 10224 20201 39615 40126 60064 70196 82832 333 02352 20219 50427 55067 58004 81613 84361 85076;","","","","","","","","","",""
"65319099999","2005-05-04T13:00:00","10.3166667","1.3833333","461.0","NATITINGOU, BN","FM-12","4","","73","90","","","","9","58","FEW:01 13 SCT:03 20 BKN:05 256","29.85","28.36","6.21","78","220","","5","","","","","","","","","","","","","","","","","","","","","","","","","","","","","","","","","","","","","","","","","","","","","","","","","","","","","","","","","","","","","","","","","","","","","","","","","","","","","","","","","","","","","","","","","","","SYN112AAXX  04124 65319 12460 72204 10320 20228 39604 40109 60011 83832 333 0//59 59018 81613 83820 85076 94914 95838;","","","","","","","","","",""
"65319099999","2005-05-05T01:00:00","10.3166667","1.3833333","461.0","NATITINGOU, BN","FM-12","4","","73","90","","","","9","58","FEW:01 13 SCT:03 20 BKN:05 256","29.85","28.36","6.21","78","220","","5","","","","","","","","","","","","","","","","","","","","","","","","","","","","","","","","","","","","","","","","","","","","","","","","","","","","","","","","","","","","","","","","","","","","","","","","","","","","","","","","","","","","","","","","","","","SYN112AAXX  05004 65319 12460 72204 10320 20228 39604 40109 60011 83832 333 0//59 59018 81613 83820 85076 94914 95838;","","","","","","","","","",""
"65319099999","2005-05-05T19:00:00","10.3166667","1.3833333","461.0","NATITINGOU, BN","FM-12","4","","76","80","","","","9","88","SCT:03 13 BKN:05 20 FEW:01 30","29.83","28.30","6.21","77","000","","0","","","","","","","","","","","","","","","","","","","","","","","","","","","","","","","","","","","","","","","","","","","","","","","","","","","","","","","","","","","","","","","","","","","","","","","","","","","","","","","","","","","","","","","","","","","SYN118AAXX  05184 65319 11460 70000 10265 20244 39584 40101 60132 70396 879// 333 10316 58009 83613 85820 81930 94944 95874;","","","","","","","","","",""
"65319099999","2005-05-06T01:00:00","10.3166667","1.3833333","461.0","NATITINGOU, BN","FM-12","4","","71","75","","","","9","89","BKN:07 13","29.91","28.41","6.21","72","200","","7","","","","","","","","","","","","","","","","","","","","","","","","","","","","","","","","","","","","","","","","","","","","","","","","","","","","","","","","","","","","","","","","","","","","","","","","","","","","","","","","","","","","","","","","","","","SYN082AAXX  06004 65319 33460 72006 10238 20219 39620 40130 875// 333 0//00 58001 87613;","","","","","","","","","",""
"65319099999","2005-05-06T07:00:00","10.3166667","1.3833333","461.0","NATITINGOU, BN","FM-12","4","","72","73","","","","9","96","","29.89","28.38","6.21","72","000","","0","","","","","","","","","","","","","","","","","","","","","","","","","","","","","","","","","","","","","","","","","","","","","","","","","","","","","","","","","","","","","","","","","","","","","","","","","","","","","","","","","","","","","","","","","","","SYN106AAXX  06064 65319 12960 70000 10230 20223 39609 40121 60134 8703/ 333 02259 20225 50554 55052 59016 87361;","","","","","","","","","",""
"65319099999","2005-05-06T13:00:00","10.3166667","1.3833333","461.0","NATITINGOU, BN","FM-12","4","","72","86","","","","9","63","FEW:02 13 BKN:05 20","29.91","28.40","6.21","76","200","","7","","","","","","","","","","","","","","","","","","","","","","","","","","","","","","","","","","","","","","","","","","","","","","","","","","","","","","","","","","","","","","","","","","","","","","","","","","","","","","","","","","","","","","","","","","","SYN100AAXX  06124 65319 32460 72006 10300 20221 39619 40129 86832 333 0//00 58013 82613 85820 94919 95839;","","","","","","","","","",""
"65319099999","2005-05-07T01:00:00","10.3166667","1.3833333","461.0","NATITINGOU, BN","FM-12","4","","73","80","","","","9","81","FEW:01 30 BKN:07 108","29.89","28.39","6.21","75","000","","0","","","","","","","","","","","","","","","","","","","","","","","","","","","","","","","","","","","","","","","","","","","","","","","","","","","","","","","","","","","","","","","","","","","","","","","","","","","","","","","","","","","","","","","","","","","SYN106AAXX  07004 65319 31560 70000 10265 20229 39615 40122 713// 8197/ 333 0//00 59005 81930 87361 94943 95833;","","","","","","","","","",""
"65319099999","2005-05-07T07:00:00","10.3166667","1.3833333","461.0","NATITINGOU, BN","FM-12","4","","73","77","","","","9","88","FEW:02 13","29.90","28.39","6.21","74","000","","0","","","","","","","","","","","","","","","","","","","","","","","","","","","","","","","","","","","","","","","","","","","","","","","","","","","","","","","","","","","","","","","","","","","","","","","","","","","","","","","","","","","","","","","","","","","SYN106AAXX  07064 65319 32460 70000 10250 20228 39615 40124 82532 333 02200 20245 50544 55080 58006 82613 87361;","","","","","","","","","",""
"65319099999","2005-05-07T13:00:00","10.3166667","1.3833333","461.0","NATITINGOU, BN","FM-12","4","","74","89","","","","9","62","BKN:05 20 SCT:03 256","29.88","28.39","6.21","78","220","","2","","","","","","","","","","","","","","","","","","","","","","","","","","","","","","","","","","","","","","","","","","","","","","","","","","","","","","","","","","","","","","","","","","","","","","","","","","","","","","","","","","","","","","","","","","","SYN100AAXX  07124 65319 32560 72202 10314 20232 39614 40120 85232 333 0//00 59005 85820 83076 94919 95839;","","","","","","","","","",""
"65319099999","2005-05-07T19:00:00","10.3166667","1.3833333","461.0","NATITINGOU, BN","FM-12","4","","77","81","","","","9","88","FEW:01 13 SCT:03 20 BKN:05 256","29.83","28.33","6.21","78","000","","0","","","","","","","","","","","","","","","","","","","","","","","","","","","","","","","","","","","","","","","","","","","","","","","","","","","","","","","","","","","","","","","","","","","","","","","","","","","","","","","","","","","","","","","","","","","SYN118AAXX  07184 65319 11460 70000 10270 20248 39593 40103 60082 70396 82832 333 10320 58002 81613 83820 85076 94904 95814;","","","","","","","","","",""
"65319099999","2005-05-08T01:00:00","10.3166667","1.3833333","461.0","NATITINGOU, BN","FM-12","4","","75","78","","","","9","93","BKN:05 256","29.90","28.40","6.21","76","000","","0","","","","","","","","","","","","","","","","","","","","","","","","","","","","","","","","","","","","","","","","","","","","","","","","","","","","","","","","","","","","","","","","","","","","","","","","","","","","","","","","","","","","","","","","","","","SYN082AAXX  08004 65319 33960 50000 10254 20241 39618 40125 80002 333 0//00 58003 85076;","","","","","","","","","",""
"65319099999","2005-05-08T07:00:00","10.3166667","1.3833333","461.0","NATITINGOU, BN","FM-12","4","","72","75","","","","9","91","FEW:01 108","29.90","28.38","6.21","73","200","","5","","","","","","","","","","","","","","","","","","","","","","","","","","","","","","","","","","","","","","","","","","","","","","","","","","","","","","","","","","","","","","","","","","","","","","","","","","","","","","","","","","","","","","","","","","","SYN112AAXX  08064 65319 12960 72004 10240 20225 39612 40124 60084 81036 333 02361 20234 50294 55054 59003 81361 87276;","","","","","","","","","",""
"65319099999","2005-05-08T13:00:00","10.3166667","1.3833333","461.0","NATITINGOU, BN","FM-12","4","","76","88","","","","9","69","FEW:02 13 BKN:05 20","29.88","28.38","6.21","79","220","","7","","","","","","","","","","","","","","","","","","","","","","","","","","","","","","","","","","","","","","","","","","","","","","","","","","","","","","","","","","","","","","","","","","","","","","","","","","","","","","","","","","","","","","","","","","","SYN100AAXX  08124 65319 32460 72206 10310 20247 39610 40118 86802 333 0//00 59004 82613 85820 94919 95839;","","","","","","","","","",""
"65319099999","2005-05-08T19:00:00","10.3166667","1.3833333","461.0","NATITINGOU, BN","FM-12","4","","76","87","","","","9","70","FEW:01 30 SCT:03 108 BKN:05 256","29.80","28.30","6.21","79","000","","0","","","","","","","","","","","","","","","","","","","","","","","","","","","","","","","","","","","","","","","","","","","","","","","","","","","","","","","","","","","","","","","","","","","","","","","","","","","","","","","","","","","","","","","","","","","SYN106AAXX  08184 65319 32560 70000 10303 20243 39583 40091 81932 333 10317 59010 81930 83361 85076 94944 95874;","","","","","","","","","",""
"65319099999","2005-05-09T07:00:00","10.3166667","1.3833333","461.0","NATITINGOU, BN","FM-12","4","","73","75","","","","9","92","","29.87","28.37","6.21","74","000","","0","","","","","","","","","","","","","","","","","","","","","","","","","","","","","","","","","","","","","","","","","","","","","","","","","","","","","","","","","","","","","","","","","","","","","","","","","","","","","","","","","","","","","","","","","","","SYN100AAXX  09064 65319 32960 70000 10240 20227 39606 40115 8703/ 333 02300 20240 50464 55099 59006 87361;","","","","","","","","","",""
"65319099999","2005-05-09T13:00:00","10.3166667","1.3833333","461.0","NATITINGOU, BN","FM-12","4","","70","81","","","","9","70","FEW:02 13 SCT:03 20 FEW:01 30","29.93","28.43","6.21","73","020","","11","","","","","","","","","","","","","","","","","","","","","","","","","","","","","","","","","","","","","","","","","","","","","","","","","","","","","","","","","","","","","","","","","","","","","","","","","","","","","","","","","","","","","","","","","","","SYN118AAXX  09124 65319 31460 70210 10270 20211 39626 40137 72999 85932 333 0//00 58016 82613 83820 81930 84361 94941 95877;","","","","","","","","","",""
"65319099999","2005-05-09T19:00:00","10.3166667","1.3833333","461.0","NATITINGOU, BN","FM-12","4","","73","81","","","","9","77","BKN:07 256","29.79","28.27","6.21","75","000","","0","","","","","","","","","","","","","","","","","","","","","","","","","","","","","","","","","","","","","","","","","","","","","","","","","","","","","","","","","","","","","","","","","","","","","","","","","","","","","","","","","","","","","","","","","","","SYN082AAXX  09184 65319 32960 70000 10270 20227 39575 40087 80008 333 10300 59006 87276;","","","","","","","","","",""
"65319099999","2005-05-10T01:00:00","10.3166667","1.3833333","461.0","NATITINGOU, BN","FM-12","4","","74","76","","","","9","92","BKN:05 256","29.85","28.34","6.21","75","000","","0","","","","","","","","","","","","","","","","","","","","","","","","","","","","","","","","","","","","","","","","","","","","","","","","","","","","","","","","","","","","","","","","","","","","","","","","","","","","","","","","","","","","","","","","","","","SYN082AAXX  10004 65319 33960 50000 10245 20231 39597 40107 80002 333 0//00 59003 85076;","","","","","","","","","",""
"65319099999","2005-05-10T07:00:00","10.3166667","1.3833333","461.0","NATITINGOU, BN","FM-12","4","","72","74","","","","9","93","","29.85","28.35","6.21","73","000","","0","","","","","","","","","","","","","","","","","","","","","","","","","","","","","","","","","","","","","","","","","","","","","","","","","","","","","","","","","","","","","","","","","","","","","","","","","","","","","","","","","","","","","","","","","","","SYN100AAXX  10064 65319 32960 70000 10235 20223 39599 40110 8707/ 333 02300 20230 50444 55027 59007 87361;","","","","","","","","","",""
"65319099999","2005-05-10T13:00:00","10.3166667","1.3833333","461.0","NATITINGOU, BN","FM-12","4","","73","89","","","","9","61","FEW:01 13 SCT:03 20 BKN:07 256","29.87","28.36","6.21","78","220","","5","","","","","","","","","","","","","","","","","","","","","","","","","","","","","","","","","","","","","","","","","","","","","","","","","","","","","","","","","","","","","","","","","","","","","","","","","","","","","","","","","","","","","","","","","","","SYN106AAXX  10124 65319 32460 72204 10314 20230 39605 40114 83832 333 0//00 59029 81613 83820 87276 94919 95819;","","","","","","","","","",""
"65319099999","2005-05-10T19:00:00","10.3166667","1.3833333","461.0","NATITINGOU, BN","FM-12","4","","74","86","","","","9","67","SCT:03 13 BKN:05 108","29.82","28.32","6.21","77","220","","5","","","","","","","","","","","","","","","","","","","","","","","","","","","","","","","","","","","","","","","","","","","","","","","","","","","","","","","","","","","","","","","","","","","","","","","","","","","","","","","","","","","","","","","","","","","SYN100AAXX  10184 65319 32460 72204 10301 20233 39589 40097 83872 333 10336 58012 83613 85461 94912 95832;","","","","","","","","","",""
"65319099999","2005-05-11T01:00:00","10.3166667","1.3833333","461.0","NATITINGOU, BN","FM-12","4","","66","71","","||RA","","9","85","FEW:01 30 BKN:07 108","29.88","28.36","4.97","68","000","","0","","","","","","","","","","","","","","","","","","","","","","","","","","","","","","","","","","","","","","","","","","","","","","","","","","","","","","","","","","","","","","","","","","","","","","","","","","","","","","","","","","","","","","","","","","","SYN112AAXX  11004 65319 11558 70000 10217 20191 39605 40117 60091 79196 8197/ 333 0//61 58010 81930 87461 94942 95832;","","","","","","","","","",""
"65319099999","2005-05-11T07:00:00","10.3166667","1.3833333","461.0","NATITINGOU, BN","FM-12","4","","71","73","","","","9","91","","29.86","28.36","4.97","72","000","","0","","","","","","","","","","","","","","","","","","","","","","","","","","","","","","","","","","","","","","","","","","","","","","","","","","","","","","","","","","","","","","","","","","","","","","","","","","","","","","","","","","","","","","","","","","","SYN112AAXX  11064 65319 11958 70000 10230 20215 39603 40113 60094 70296 8703/ 333 02262 20209 50634 55073 58004 87361;","","","","","","","","","",""
"65319099999","2005-05-11T13:00:00","10.3166667","1.3833333","461.0","NATITINGOU, BN","FM-12","4","","76","88","","","","9","68","BKN:07 108","29.87","28.37","6.21","79","000","","0","","","","","","","","","","","","","","","","","","","","","","","","","","","","","","","","","","","","","","","","","","","","","","","","","","","","","","","","","","","","","","","","","","","","","","","","","","","","","","","","","","","","","","","","","","","SYN082AAXX  11124 65319 32960 70000 10312 20247 39606 40116 8703/ 333 0//00 59001 87361;","","","","","","","","","",""
"65319099999","2005-05-11T19:00:00","10.3166667","1.3833333","461.0","NATITINGOU, BN","FM-12","4","","73","89","","","","9","61","SCT:03 108","29.80","28.30","6.21","78","000","","0","","","","","","","","","","","","","","","","","","","","","","","","","","","","","","","","","","","","","","","","","","","","","","","","","","","","","","","","","","","","","","","","","","","","","","","","","","","","","","","","","","","","","","","","","","","SYN088AAXX  11184 65319 32960 70000 10315 20230 39584 40091 83032 333 10325 59005 83361 85076;","","","","","","","","","",""
"65319099999","2005-05-12T07:00:00","10.3166667","1.3833333","461.0","NATITINGOU, BN","FM-12","4","","74","77","","","","9","92","","29.80","28.31","6.21","75","000","","0","","","","","","","","","","","","","","","","","","","","","","","","","","","","","","","","","","","","","","","","","","","","","","","","","","","","","","","","","","","","","","","","","","","","","","","","","","","","","","","","","","","","","","","","","","","SYN100AAXX  12064 65319 32960 70000 10250 20236 39587 40092 8703/ 333 02000 20245 50364 55072 59013 87361;","","","","","","","","","",""
"65319099999","2005-05-12T13:00:00","10.3166667","1.3833333","461.0","NATITINGOU, BN","FM-12","4","","77","93","","","","9","61","FEW:02 13 SCT:04 20 BKN:05 256","29.81","28.33","6.21","81","220","","5","","","","","","","","","","","","","","","","","","","","","","","","","","","","","","","","","","","","","","","","","","","","","","","","","","","","","","","","","","","","","","","","","","","","","","","","","","","","","","","","","","","","","","","","","","","SYN106AAXX  12124 65319 32460 72204 10337 20252 39592 40095 85802 333 0//00 59014 82613 84820 85076 94919 95839;","","","","","","","","","",""
"65319099999","2005-05-12T19:00:00","10.3166667","1.3833333","461.0","NATITINGOU, BN","FM-12","4","","72","90","","","","9","57","SCT:04 13 FEW:01 30 BKN:05 256","29.76","28.27","6.21","77","000","","0","","","","","","","","","","","","","","","","","","","","","","","","","","","","","","","","","","","","","","","","","","","","","","","","","","","","","","","","","","","","","","","","","","","","","","","","","","","","","","","","","","","","","","","","","","","SYN118AAXX  12184 65319 11460 70000 10320 20225 39573 40078 69992 72996 84902 333 10350 59011 84613 81930 85076 94943 95873;","","","","","","","","","",""
"65319099999","2005-05-13T01:00:00","10.3166667","1.3833333","461.0","NATITINGOU, BN","FM-12","4","","70","78","","","","9","77","BKN:05 256","29.80","28.32","6.21","73","180","","5","","","","","","","","","","","","","","","","","","","","","","","","","","","","","","","","","","","","","","","","","","","","","","","","","","","","","","","","","","","","","","","","","","","","","","","","","","","","","","","","","","","","","","","","","","","SYN082AAXX  13004 65319 33960 51804 10255 20211 39589 40093 80002 333 0//00 59007 85076;","","","","","","","","","",""
"65319099999","2005-05-13T07:00:00","10.3166667","1.3833333","461.0","NATITINGOU, BN","FM-12","4","","74","77","","","","9","90","","29.83","28.33","6.21","75","220","","5","","","","","","","","","","","","","","","","","","","","","","","","","","","","","","","","","","","","","","","","","","","","","","","","","","","","","","","","","","","","","","","","","","","","","","","","","","","","","","","","","","","","","","","","","","","SYN106AAXX  13064 65319 12960 52204 10250 20233 39594 40100 69994 80002 333 02300 20245 50874 55101 58007 85076;","","","","","","","","","",""
"65319099999","2005-05-13T13:00:00","10.3166667","1.3833333","461.0","NATITINGOU, BN","FM-12","4","","77","91","","","","9","63","FEW:01 13 SCT:03 20 BKN:05 256","29.85","28.35","6.21","81","180","","11","","","","","","","","","","","","","","","","","","","","","","","","","","","","","","","","","","","","","","","","","","","","","","","","","","","","","","","","","","","","","","","","","","","","","","","","","","","","","","","","","","","","","","","","","","","SYN106AAXX  13124 65319 32460 71810 10327 20248 39602 40108 83802 333 0//00 58010 81613 83820 85076 94919 95839;","","","","","","","","","",""
"65319099999","2005-05-13T19:00:00","10.3166667","1.3833333","461.0","NATITINGOU, BN","FM-12","4","","77","89","","","","9","68","FEW:02 13","29.79","28.30","4.97","80","220","","5","","","","","","","","","","","","","","","","","","","","","","","","","","","","","","","","","","","","","","","","","","","","","","","","","","","","","","","","","","","","","","","","","","","","","","","","","","","","","","","","","","","","","","","","","","","SYN088AAXX  13184 65319 32458 72204 10317 20251 39583 40088 82506 333 10348 58010 82613 87276;","","","","","","","","","",""
"65319099999","2005-05-14T07:00:00","10.3166667","1.3833333","461.0","NATITINGOU, BN","FM-12","4","","74","78","","","","9","88","","29.83","28.34","6.21","75","000","","0","","","","","","","","","","","","","","","","","","","","","","","","","","","","","","","","","","","","","","","","","","","","","","","","","","","","","","","","","","","","","","","","","","","","","","","","","","","","","","","","","","","","","","","","","","","SYN100AAXX  14064 65319 32960 70000 10257 20236 39596 40102 80006 333 02300 20250 50554 55101 58002 87276;","","","","","","","","","",""
"65319099999","2005-05-14T13:00:00","10.3166667","1.3833333","461.0","NATITINGOU, BN","FM-12","4","","77","92","","","","9","61","SCT:04 20 SCT:04 256","29.80","28.32","6.21","81","200","","7","","","","","","","","","","","","","","","","","","","","","","","","","","","","","","","","","","","","","","","","","","","","","","","","","","","","","","","","","","","","","","","","","","","","","","","","","","","","","","","","","","","","","","","","","","","SYN100AAXX  14124 65319 32560 72006 10335 20250 39589 40091 84202 333 0//00 59013 84820 84076 94919 95839;","","","","","","","","","",""
"65319099999","2005-05-14T19:00:00","10.3166667","1.3833333","461.0","NATITINGOU, BN","FM-12","4","","73","87","","","","9","63","SCT:03 20 FEW:01 30 BKN:05 256","29.76","28.26","6.21","77","000","","0","","","","","","","","","","","","","","","","","","","","","","","","","","","","","","","","","","","","","","","","","","","","","","","","","","","","","","","","","","","","","","","","","","","","","","","","","","","","","","","","","","","","","","","","","","","SYN112AAXX  14184 65319 31560 70000 10305 20227 39571 40077 72999 84902 333 10355 59012 83820 81930 85076 94934 95874;","","","","","","","","","",""
"65319099999","2005-05-15T01:00:00","10.3166667","1.3833333","461.0","NATITINGOU, BN","FM-12","4","","69","81","","","","9","68","BKN:05 256","29.81","28.32","6.21","73","000","","0","","","","","","","","","","","","","","","","","","","","","","","","","","","","","","","","","","","","","","","","","","","","","","","","","","","","","","","","","","","","","","","","","","","","","","","","","","","","","","","","","","","","","","","","","","","SYN082AAXX  15004 65319 33960 50000 10270 20206 39591 40094 80002 333 0//00 59010 85076;","","","","","","","","","",""
"65319099999","2005-05-15T07:00:00","10.3166667","1.3833333","461.0","NATITINGOU, BN","FM-12","4","","71","76","","","","9","84","","29.80","28.31","6.21","73","000","","0","","","","","","","","","","","","","","","","","","","","","","","","","","","","","","","","","","","","","","","","","","","","","","","","","","","","","","","","","","","","","","","","","","","","","","","","","","","","","","","","","","","","","","","","","","","SYN100AAXX  15064 65319 32960 50000 10245 20216 39586 40093 80002 333 02400 20240 50624 55084 59010 85076;","","","","","","","","","",""
"65319099999","2005-05-15T13:00:00","10.3166667","1.3833333","461.0","NATITINGOU, BN","FM-12","4","","76","92","","","","9","59","FEW:02 13 SCT:04 20 BKN:05 256","29.78","28.29","6.21","80","280","","7","","","","","","","","","","","","","","","","","","","","","","","","","","","","","","","","","","","","","","","","","","","","","","","","","","","","","","","","","","","","","","","","","","","","","","","","","","","","","","","","","","","","","","","","","","","SYN106AAXX  15124 65319 32460 72806 10335 20245 39581 40083 85802 333 0//00 59008 82613 84820 85076 94919 95839;","","","","","","","","","",""
"65319099999","2005-05-15T19:00:00","10.3166667","1.3833333","461.0","NATITINGOU, BN","FM-12","4","","70","81","","","","9","69","SCT:03 13 FEW:01 30 SCT:03 108","29.85","28.23","6.21","73","220","","5","","","","","","","","","","","","","","","","","","","","","","","","","","","","","","","","","","","","","","","","","","","","","","","","","","","","","","","","","","","","","","","","","","","","","","","","","","","","","","","","","","","","","","","","","","","SYN118AAXX  15184 65319 11460 72204 10275 20212 39559 40109 60062 72196 83932 333 10350 59012 83613 81930 83361 94942 95872;","","","","","","","","","",""
"65319099999","2005-05-16T01:00:00","10.3166667","1.3833333","461.0","NATITINGOU, BN","FM-12","4","","72","79","","","","9","79","BKN:05 256","29.76","28.28","6.21","74","000","","0","","","","","","","","","","","","","","","","","","","","","","","","","","","","","","","","","","","","","","","","","","","","","","","","","","","","","","","","","","","","","","","","","","","","","","","","","","","","","","","","","","","","","","","","","","","SYN082AAXX  16004 65319 33960 50000 10260 20221 39576 40079 80002 333 0//00 59015 85076;","","","","","","","","","",""
"65319099999","2005-05-16T07:00:00","10.3166667","1.3833333","461.0","NATITINGOU, BN","FM-12","4","","73","75","","","","9","92","","29.77","28.26","6.21","74","000","","0","","","","","","","","","","","","","","","","","","","","","","","","","","","","","","","","","","","","","","","","","","","","","","","","","","","","","","","","","","","","","","","","","","","","","","","","","","","","","","","","","","","","","","","","","","","SYN106AAXX  16064 65319 12960 50000 10240 20226 39571 40080 60064 80002 333 02100 20240 50614 55089 59015 85076;","","","","","","","","","",""
"65319099999","2005-05-16T13:00:00","10.3166667","1.3833333","461.0","NATITINGOU, BN","FM-12","4","","76","91","","","","9","61","FEW:01 13 SCT:03 20 BKN:05 256","29.76","28.27","6.21","80","220","","5","","","","","","","","","","","","","","","","","","","","","","","","","","","","","","","","","","","","","","","","","","","","","","","","","","","","","","","","","","","","","","","","","","","","","","","","","","","","","","","","","","","","","","","","","","","SYN106AAXX  16124 65319 32460 72204 10330 20245 39575 40079 83802 333 0//00 59006 81613 83820 85076 94919 95839;","","","","","","","","","",""
"65319099999","2005-05-16T19:00:00","10.3166667","1.3833333","461.0","NATITINGOU, BN","FM-12","4","","68","84","","||TS","","9","59","FEW:01 13 SCT:03 20 FEW:01 30","29.72","28.22","4.97","73","220","","11","","","","","","","","","","","","","","","","","","","","","","","","","","","","","","","","","","","","","","","","","","","","","","","","","","","","","","","","","","","","","","","","","","","","","","","","","","","","","","","","","","","","","","","","","","","SYN118AAXX  16184 65319 31458 72210 10290 20201 39558 40065 71799 8497/ 333 10354 59001 81613 83820 81930 87461 94946 95834;","","","","","","","","","",""
"65319099999","2005-05-17T01:00:00","10.3166667","1.3833333","461.0","NATITINGOU, BN","FM-12","4","","69","78","","","","9","73","BKN:05 256","29.76","28.27","6.21","72","000","","0","","","","","","","","","","","","","","","","","","","","","","","","","","","","","","","","","","","","","","","","","","","","","","","","","","","","","","","","","","","","","","","","","","","","","","","","","","","","","","","","","","","","","","","","","","","SYN082AAXX  17004 65319 33960 50000 10256 20205 39575 40078 80002 333 0//00 59001 85076;","","","","","","","","","",""
"65319099999","2005-05-17T07:00:00","10.3166667","1.3833333","461.0","NATITINGOU, BN","FM-12","4","","70","75","","","","9","85","FEW:01 108","29.76","28.26","6.21","72","000","","0","","","","","","","","","","","","","","","","","","","","","","","","","","","","","","","","","","","","","","","","","","","","","","","","","","","","","","","","","","","","","","","","","","","","","","","","","","","","","","","","","","","","","","","","","","","SYN106AAXX  17064 65319 32960 70000 10240 20213 39570 40078 81036 333 02200 20235 50774 55099 59001 81361 87276;","","","","","","","","","",""
"65319099999","2005-05-17T13:00:00","10.3166667","1.3833333","461.0","NATITINGOU, BN","FM-12","4","","76","92","","","","9","61","FEW:02 13 SCT:04 20","29.76","28.28","6.21","80","220","","5","","","","","","","","","","","","","","","","","","","","","","","","","","","","","","","","","","","","","","","","","","","","","","","","","","","","","","","","","","","","","","","","","","","","","","","","","","","","","","","","","","","","","","","","","","","SYN100AAXX  17124 65319 32460 72204 10332 20246 39576 40079 85802 333 0//00 58001 82613 84820 94919 95839;","","","","","","","","","",""
"65319099999","2005-05-17T19:00:00","10.3166667","1.3833333","461.0","NATITINGOU, BN","FM-12","4","","72","90","","","","9","55","FEW:02 13 SCT:03 20 FEW:01 30","29.68","28.19","6.21","77","000","","0","","","","","","","","","","","","","","","","","","","","","","","","","","","","","","","","","","","","","","","","","","","","","","","","","","","","","","","","","","","","","","","","","","","","","","","","","","","","","","","","","","","","","","","","","","","SYN112AAXX  17184 65319 32460 70000 10320 20220 39546 40050 85902 333 10350 59012 82613 83820 81930 85076 94944 95874;","","","","","","","","","",""
"65319099999","2005-05-18T01:00:00","10.3166667","1.3833333","461.0","NATITINGOU, BN","FM-12","4","","77","82","","","","9","85","SCT:03 108","29.75","28.27","6.21","78","000","","0","","","","","","","","","","","","","","","","","","","","","","","","","","","","","","","","","","","","","","","","","","","","","","","","","","","","","","","","","","","","","","","","","","","","","","","","","","","","","","","","","","","","","","","","","","","SYN088AAXX  18004 65319 33960 70000 10280 20252 39573 40075 83032 333 0//00 59002 83361 85076;","","","","","","","","","",""
"65319099999","2005-05-18T07:00:00","10.3166667","1.3833333","461.0","NATITINGOU, BN","FM-12","4","","73","78","","","","9","87","","29.78","28.28","6.21","75","000","","0","","","","","","","","","","","","","","","","","","","","","","","","","","","","","","","","","","","","","","","","","","","","","","","","","","","","","","","","","","","","","","","","","","","","","","","","","","","","","","","","","","","","","","","","","","","SYN100AAXX  18064 65319 32960 50000 10253 20230 39578 40083 80002 333 02300 20248 50544 55098 58008 85076;","","","","","","","","","",""
"65319099999","2005-05-18T13:00:00","10.3166667","1.3833333","461.0","NATITINGOU, BN","FM-12","4","","78","92","","","","9","64","FEW:01 13 SCT:04 20 BKN:05 256","29.78","28.30","6.21","82","220","","7","","","","","","","","","","","","","","","","","","","","","","","","","","","","","","","","","","","","","","","","","","","","","","","","","","","","","","","","","","","","","","","","","","","","","","","","","","","","","","","","","","","","","","","","","","","SYN106AAXX  18124 65319 32460 72206 10332 20254 39583 40085 84802 333 0//00 58007 81613 84820 85076 94919 95839;","","","","","","","","","",""
"65319099999","2005-05-18T19:00:00","10.3166667","1.3833333","461.0","NATITINGOU, BN","FM-12","4","","78","92","","||TS","","9","64","FEW:02 13 SCT:03 20 FEW:01 30","29.69","28.09","6.21","82","000","","0","","","","","","","","","","","","","","","","","","","","","","","","","","","","","","","","","","","","","","","","","","","","","","","","","","","","","","","","","","","","","","","","","","","","","","","","","","","","","","","","","","","","","","","","","","","SYN118AAXX  18184 65319 31460 70000 10332 20254 39511 40053 71799 85902 333 10360 58005 82613 83820 81930 85076 94942 95877;","","","","","","","","","",""
"65319099999","2005-05-19T07:00:00","10.3166667","1.3833333","461.0","NATITINGOU, BN","FM-12","4","","72","75","","","","9","91","","29.67","28.25","6.21","73","000","","0","","","","","","","","","","","","","","","","","","","","","","","","","","","","","","","","","","","","","","","","","","","","","","","","","","","","","","","","","","","","","","","","","","","","","","","","","","","","","","","","","","","","","","","","","","","SYN100AAXX  19064 65319 32960 50000 10238 20222 39566 40046 80002 333 02300 20228 50784 55104 59012 85076;","","","","","","","","","",""
"65319099999","2005-05-20T19:00:00","10.3166667","1.3833333","461.0","NATITINGOU, BN","FM-12","4","","77","88","","","","9","71","BKN:07 256","29.72","28.23","6.21","80","000","","0","","","","","","","","","","","","","","","","","","","","","","","","","","","","","","","","","","","","","","","","","","","","","","","","","","","","","","","","","","","","","","","","","","","","","","","","","","","","","","","","","","","","","","","","","","","SYN082AAXX  20184 65319 32960 70000 10311 20252 39560 40064 80008 333 10336 58005 87276;","","","","","","","","","",""
"65319099999","2005-05-21T01:00:00","10.3166667","1.3833333","461.0","NATITINGOU, BN","FM-12","4","","69","79","","","","9","73","BKN:07 256","29.77","28.28","6.21","72","000","","0","","","","","","","","","","","","","","","","","","","","","","","","","","","","","","","","","","","","","","","","","","","","","","","","","","","","","","","","","","","","","","","","","","","","","","","","","","","","","","","","","","","","","","","","","","","SYN082AAXX  21004 65319 33960 70000 10260 20208 39578 40082 80006 333 0//00 59002 87276;","","","","","","","","","",""
"65319099999","2005-05-22T01:00:00","10.3166667","1.3833333","461.0","NATITINGOU, BN","FM-12","4","","64","76","","","","9","68","FEW:02 13 FEW:01 30 SCT:03 108","29.73","28.25","6.21","68","200","","5","","","","","","","","","","","","","","","","","","","","","","","","","","","","","","","","","","","","","","","","","","","","","","","","","","","","","","","","","","","","","","","","","","","","","","","","","","","","","","","","","","","","","","","","","","","SYN124AAXX  22004 65319 11460 72004 10243 20180 39565 40068 69921 72996 82932 333 0//13 59014 82613 81930 83361 85076 94947 95877;","","","","","","","","","",""
"65319099999","2005-05-22T07:00:00","10.3166667","1.3833333","461.0","NATITINGOU, BN","FM-12","4","","67","73","","","","9","79","","29.75","28.25","6.21","69","000","","0","","","","","","","","","","","","","","","","","","","","","","","","","","","","","","","","","","","","","","","","","","","","","","","","","","","","","","","","","","","","","","","","","","","","","","","","","","","","","","","","","","","","","","","","","","","SYN106AAXX  22064 65319 12960 50000 10230 20192 39566 40074 69924 8307/ 333 02400 20225 50654 55073 59001 87361;","","","","","","","","","",""
"65319099999","2005-05-22T13:00:00","10.3166667","1.3833333","461.0","NATITINGOU, BN","FM-12","4","","71","90","","","","9","54","BKN:07 256","29.80","28.31","6.21","77","180","","5","","","","","","","","","","","","","","","","","","","","","","","","","","","","","","","","","","","","","","","","","","","","","","","","","","","","","","","","","","","","","","","","","","","","","","","","","","","","","","","","","","","","","","","","","","","SYN082AAXX  22124 65319 32960 71804 10323 20217 39586 40091 80008 333 0//00 58012 87276;","","","","","","","","","",""
"65319099999","2005-05-22T19:00:00","10.3166667","1.3833333","461.0","NATITINGOU, BN","FM-12","4","","71","89","","","","9","55","BKN:07 256","29.75","28.25","6.21","76","220","","5","","","","","","","","","","","","","","","","","","","","","","","","","","","","","","","","","","","","","","","","","","","","","","","","","","","","","","","","","","","","","","","","","","","","","","","","","","","","","","","","","","","","","","","","","","","SYN082AAXX  22184 65319 32960 72204 10318 20216 39567 40073 80008 333 10349 58013 87276;","","","","","","","","","",""
"65319099999","2005-05-23T07:00:00","10.3166667","1.3833333","461.0","NATITINGOU, BN","FM-12","4","","64","75","","","","9","70","SCT:03 108","29.84","28.35","6.21","68","000","","0","","","","","","","","","","","","","","","","","","","","","","","","","","","","","","","","","","","","","","","","","","","","","","","","","","","","","","","","","","","","","","","","","","","","","","","","","","","","","","","","","","","","","","","","","","","SYN106AAXX  23064 65319 32960 70000 10238 20179 39599 40106 83032 333 02100 20233 50674 55101 58033 83361 85076;","","","","","","","","","",""
"65319099999","2005-05-23T13:00:00","10.3166667","1.3833333","461.0","NATITINGOU, BN","FM-12","4","","69","94","","","","9","44","SCT:03 108","29.81","28.33","6.21","76","220","","7","","","","","","","","","","","","","","","","","","","","","","","","","","","","","","","","","","","","","","","","","","","","","","","","","","","","","","","","","","","","","","","","","","","","","","","","","","","","","","","","","","","","","","","","","","","SYN088AAXX  23124 65319 32960 72206 10345 20207 39593 40096 83032 333 0//00 58007 83361 85076;","","","","","","","","","",""
"65319099999","2005-05-23T19:00:00","10.3166667","1.3833333","461.0","NATITINGOU, BN","FM-12","4","","70","89","","","","9","53","BKN:05 256","29.78","28.28","6.21","76","220","","5","","","","","","","","","","","","","","","","","","","","","","","","","","","","","","","","","","","","","","","","","","","","","","","","","","","","","","","","","","","","","","","","","","","","","","","","","","","","","","","","","","","","","","","","","","","SYN082AAXX  23184 65319 32960 52204 10318 20212 39577 40083 80002 333 10346 58010 85076;","","","","","","","","","",""
"65319099999","2005-05-24T01:00:00","10.3166667","1.3833333","461.0","NATITINGOU, BN","FM-12","4","","72","79","","","","9","81","SCT:03 256","29.82","28.33","6.21","74","000","","0","","","","","","","","","","","","","","","","","","","","","","","","","","","","","","","","","","","","","","","","","","","","","","","","","","","","","","","","","","","","","","","","","","","","","","","","","","","","","","","","","","","","","","","","","","","SYN082AAXX  24004 65319 33960 30000 10260 20225 39594 40097 80002 333 0//00 59006 83076;","","","","","","","","","",""
"65319099999","2005-05-24T13:00:00","10.3166667","1.3833333","461.0","NATITINGOU, BN","FM-12","4","","74","94","","","","9","52","BKN:05 256","29.78","28.30","6.21","79","180","","5","","","","","","","","","","","","","","","","","","","","","","","","","","","","","","","","","","","","","","","","","","","","","","","","","","","","","","","","","","","","","","","","","","","","","","","","","","","","","","","","","","","","","","","","","","","SYN082AAXX  24124 65319 32960 51804 10345 20233 39584 40086 80002 333 0//00 59009 85076;","","","","","","","","","",""
"65319099999","2005-05-24T19:00:00","10.3166667","1.3833333","461.0","NATITINGOU, BN","FM-12","4","","73","93","","","","9","53","SCT:03 108","29.75","28.26","6.21","79","180","","7","","","","","","","","","","","","","","","","","","","","","","","","","","","","","","","","","","","","","","","","","","","","","","","","","","","","","","","","","","","","","","","","","","","","","","","","","","","","","","","","","","","","","","","","","","","SYN088AAXX  24184 65319 32960 71806 10337 20228 39569 40073 83032 333 10360 59008 83361 85076;","","","","","","","","","",""
"65319099999","2005-05-25T01:00:00","10.3166667","1.3833333","461.0","NATITINGOU, BN","FM-12","4","","74","83","","","","9","76","SCT:03 256","29.80","28.32","6.21","77","000","","0","","","","","","","","","","","","","","","","","","","","","","","","","","","","","","","","","","","","","","","","","","","","","","","","","","","","","","","","","","","","","","","","","","","","","","","","","","","","","","","","","","","","","","","","","","","SYN082AAXX  25004 65319 33960 30000 10283 20236 39591 40092 80002 333 0//00 59003 83076;","","","","","","","","","",""
"65319099999","2005-05-25T07:00:00","10.3166667","1.3833333","461.0","NATITINGOU, BN","FM-12","4","","74","78","","","","9","89","SCT:03 13","29.81","28.32","6.21","75","200","","7","","","","","","","","","","","","","","","","","","","","","","","","","","","","","","","","","","","","","","","","","","","","","","","","","","","","","","","","","","","","","","","","","","","","","","","","","","","","","","","","","","","","","","","","","","","SYN106AAXX  25064 65319 32460 72006 10253 20234 39591 40095 83502 333 02100 20250 50624 55104 58006 83613 85076;","","","","","","","","","",""
"65319099999","2005-05-25T13:00:00","10.3166667","1.3833333","461.0","NATITINGOU, BN","FM-12","4","","76","95","","","","9","54","FEW:01 13 SCT:03 20 BKN:05 256","29.82","28.34","6.21","81","280","","11","","","","","","","","","","","","","","","","","","","","","","","","","","","","","","","","","","","","","","","","","","","","","","","","","","","","","","","","","","","","","","","","","","","","","","","","","","","","","","","","","","","","","","","","","","","SYN106AAXX  25124 65319 32460 72810 10349 20242 39597 40098 83802 333 0//00 58013 81613 83820 85076 94919 95834;","","","","","","","","","",""
"65319099999","2005-05-25T19:00:00","10.3166667","1.3833333","461.0","NATITINGOU, BN","FM-12","4","","69","84","","","","9","60","BKN:07 256","29.76","28.26","6.21","74","000","","0","","","","","","","","","","","","","","","","","","","","","","","","","","","","","","","","","","","","","","","","","","","","","","","","","","","","","","","","","","","","","","","","","","","","","","","","","","","","","","","","","","","","","","","","","","","SYN094AAXX  25184 65319 11960 70000 10291 20206 39571 40078 69902 72996 80006 333 10367 58002 87276;","","","","","","","","","",""
"65319099999","2005-05-26T07:00:00","10.3166667","1.3833333","461.0","NATITINGOU, BN","FM-12","4","","68","71","","||RA","","9","88","SCT:03 13","29.82","28.31","4.97","69","220","","5","","","","","","","","","","","","","","","","","","","","","","","","","","","","","","","","","","","","","","","","","","","","","","","","","","","","","","","","","","","","","","","","","","","","","","","","","","","","","","","","","","","","","","","","","","","SYN118AAXX  26064 65319 11458 82204 10219 20198 39588 40099 60134 79196 8357/ 333 02462 20200 50824 55087 59003 83613 88461;","","","","","","","","","",""
"65319099999","2005-05-26T13:00:00","10.3166667","1.3833333","461.0","NATITINGOU, BN","FM-12","4","","76","85","","","","9","74","SCT:03 13 BKN:05 20","29.85","28.35","6.21","78","200","","11","","","","","","","","","","","","","","","","","","","","","","","","","","","","","","","","","","","","","","","","","","","","","","","","","","","","","","","","","","","","","","","","","","","","","","","","","","","","","","","","","","","","","","","","","","","SYN112AAXX  26124 65319 11460 72010 10295 20243 39601 40107 69941 70266 878// 333 0//56 58004 83613 85820 94919 95839;","","","","","","","","","",""
"65319099999","2005-05-26T19:00:00","10.3166667","1.3833333","461.0","NATITINGOU, BN","FM-12","4","","76","85","","","","9","75","BKN:07 108","29.81","28.30","6.21","78","280","","5","","","","","","","","","","","","","","","","","","","","","","","","","","","","","","","","","","","","","","","","","","","","","","","","","","","","","","","","","","","","","","","","","","","","","","","","","","","","","","","","","","","","","","","","","","","SYN088AAXX  26184 65319 12960 72804 10295 20246 39585 40096 69942 8703/ 333 10322 58014 87361;","","","","","","","","","",""
"65319099999","2005-05-27T01:00:00","10.3166667","1.3833333","461.0","NATITINGOU, BN","FM-12","4","","76","79","","","","9","89","BKN:07 108","29.86","28.36","6.21","77","220","","5","","","","","","","","","","","","","","","","","","","","","","","","","","","","","","","","","","","","","","","","","","","","","","","","","","","","","","","","","","","","","","","","","","","","","","","","","","","","","","","","","","","","","","","","","","","SYN082AAXX  27004 65319 33960 72204 10262 20242 39604 40111 8703/ 333 0//00 58015 87361;","","","","","","","","","",""
"65319099999","2005-05-27T07:00:00","10.3166667","1.3833333","461.0","NATITINGOU, BN","FM-12","4","","74","77","","","","","90","","29.87","28.37","6.21","75","200","","5","","","","","","","","","","","","","","","","","","","","","","","","","","","","","","","","","","","","","","","","","","","","","","","","","","","","","","","","","","","","","","","","","","","","","","","","","","","","","","","","","","","","","","","","","","","SYN066AAXX  27064 65319 12460 72004 10252 20235 39606 40114 69944 875//;","","","","","","","","","",""
"65319099999","2005-05-27T13:00:00","10.3166667","1.3833333","461.0","NATITINGOU, BN","FM-12","4","","75","89","","","","9","64","FEW:01 13 SCT:03 20 BKN:05 256","29.85","28.36","6.21","79","280","","5","","","","","","","","","","","","","","","","","","","","","","","","","","","","","","","","","","","","","","","","","","","","","","","","","","","","","","","","","","","","","","","","","","","","","","","","","","","","","","","","","","","","","","","","","","","SYN106AAXX  27124 65319 32460 72804 10315 20238 39603 40109 83832 333 0//00 58002 81613 83820 85076 94915 95838;","","","","","","","","","",""
"65319099999","2005-05-27T19:00:00","10.3166667","1.3833333","461.0","NATITINGOU, BN","FM-12","4","","68","81","","","","9","64","FEW:02 13 SCT:03 20 FEW:01 30","29.84","28.34","6.21","72","360","","9","","","","","","","","","","","","","","","","","","","","","","","","","","","","","","","","","","","","","","","","","","","","","","","","","","","","","","","","","","","","","","","","","","","","","","","","","","","","","","","","","","","","","","","","","","","SYN112AAXX  27184 65319 32460 73608 10275 20201 39596 40105 85902 333 10345 58011 82613 83820 81930 85076 94943 95845;","","","","","","","","","",""
"65319099999","2005-05-28T01:00:00","10.3166667","1.3833333","461.0","NATITINGOU, BN","FM-12","4","","73","78","","","","9","84","SCT:03 13 FEW:01 30 BKN:07 108","29.87","28.38","6.21","75","220","","5","","","","","","","","","","","","","","","","","","","","","","","","","","","","","","","","","","","","","","","","","","","","","","","","","","","","","","","","","","","","","","","","","","","","","","","","","","","","","","","","","","","","","","","","","","","SYN106AAXX  28004 65319 33460 72204 10255 20226 39609 40115 8397/ 333 0//00 58005 83613 81930 87361 94943 95813;","","","","","","","","","",""
"65319099999","2005-05-28T07:00:00","10.3166667","1.3833333","461.0","NATITINGOU, BN","FM-12","4","","72","74","","","","9","91","","29.87","28.36","6.21","73","000","","0","","","","","","","","","","","","","","","","","","","","","","","","","","","","","","","","","","","","","","","","","","","","","","","","","","","","","","","","","","","","","","","","","","","","","","","","","","","","","","","","","","","","","","","","","","","SYN100AAXX  28064 65319 32460 70000 10235 20220 39604 40116 875// 333 02300 20230 50454 55068 59002 87613;","","","","","","","","","",""
"65319099999","2005-05-28T13:00:00","10.3166667","1.3833333","461.0","NATITINGOU, BN","FM-12","4","","75","90","","","","9","62","FEW:01 13 SCT:04 20 BKN:05 256","29.85","28.36","6.21","79","220","","5","","","","","","","","","","","","","","","","","","","","","","","","","","","","","","","","","","","","","","","","","","","","","","","","","","","","","","","","","","","","","","","","","","","","","","","","","","","","","","","","","","","","","","","","","","","SYN106AAXX  28124 65319 32460 72204 10320 20239 39604 40110 84802 333 0//00 58001 81613 84820 85076 94919 95839;","","","","","","","","","",""
"65319099999","2005-05-28T19:00:00","10.3166667","1.3833333","461.0","NATITINGOU, BN","FM-12","4","","77","89","","","","9","68","FEW:01 20","29.80","28.30","6.21","80","220","","7","","","","","","","","","","","","","","","","","","","","","","","","","","","","","","","","","","","","","","","","","","","","","","","","","","","","","","","","","","","","","","","","","","","","","","","","","","","","","","","","","","","","","","","","","","","SYN088AAXX  28184 65319 32560 72206 10316 20250 39584 40091 81236 333 10346 59012 81820 87276;","","","","","","","","","",""
"65319099999","2005-05-29T01:00:00","10.3166667","1.3833333","461.0","NATITINGOU, BN","FM-12","4","","69","78","","","","9","73","BKN:05 256","29.84","28.35","6.21","72","220","","5","","","","","","","","","","","","","","","","","","","","","","","","","","","","","","","","","","","","","","","","","","","","","","","","","","","","","","","","","","","","","","","","","","","","","","","","","","","","","","","","","","","","","","","","","","","SYN082AAXX  29004 65319 33960 52204 10255 20204 39600 40106 80002 333 0//00 59009 85076;","","","","","","","","","",""
"65319099999","2005-05-29T07:00:00","10.3166667","1.3833333","461.0","NATITINGOU, BN","FM-12","4","","72","75","","","","9","90","FEW:01 108","29.88","28.38","6.21","73","000","","0","","","","","","","","","","","","","","","","","","","","","","","","","","","","","","","","","","","","","","","","","","","","","","","","","","","","","","","","","","","","","","","","","","","","","","","","","","","","","","","","","","","","","","","","","","","SYN106AAXX  29064 65319 32960 70000 10240 20223 39612 40120 81038 333 02200 20234 50704 55103 58008 81361 87276;","","","","","","","","","",""
"65319099999","2005-05-29T13:00:00","10.3166667","1.3833333","461.0","NATITINGOU, BN","FM-12","4","","74","90","","","","9","60","FEW:01 13 BKN:05 20","29.82","28.33","6.21","78","200","","9","","","","","","","","","","","","","","","","","","","","","","","","","","","","","","","","","","","","","","","","","","","","","","","","","","","","","","","","","","","","","","","","","","","","","","","","","","","","","","","","","","","","","","","","","","","SYN100AAXX  29124 65319 32460 72008 10322 20235 39594 40099 85802 333 0//00 59010 81613 85820 94919 95839;","","","","","","","","","",""
"65319099999","2005-05-29T19:00:00","10.3166667","1.3833333","461.0","NATITINGOU, BN","FM-12","4","","73","89","","","","9","61","BKN:07 256","29.79","28.29","6.21","78","220","","7","","","","","","","","","","","","","","","","","","","","","","","","","","","","","","","","","","","","","","","","","","","","","","","","","","","","","","","","","","","","","","","","","","","","","","","","","","","","","","","","","","","","","","","","","","","SYN082AAXX  29184 65319 32960 72206 10315 20230 39581 40087 80008 333 10340 59003 87276;","","","","","","","","","",""
"65319099999","2005-05-30T07:00:00","10.3166667","1.3833333","461.0","NATITINGOU, BN","FM-12","4","","73","77","","","","9","88","","29.84","28.34","6.21","74","220","","5","","","","","","","","","","","","","","","","","","","","","","","","","","","","","","","","","","","","","","","","","","","","","","","","","","","","","","","","","","","","","","","","","","","","","","","","","","","","","","","","","","","","","","","","","","","SYN100AAXX  30064 65319 33960 72204 10250 20228 39598 40104 80006 333 02300 20245 50554 55087 59014 87276;","","","","","","","","","",""
"65319099999","2005-05-30T13:00:00","10.3166667","1.3833333","461.0","NATITINGOU, BN","FM-12","4","","74","87","","","","9","64","BKN:05 13 SCT:03 20","29.86","28.36","6.21","78","200","","7","","","","","","","","","","","","","","","","","","","","","","","","","","","","","","","","","","","","","","","","","","","","","","","","","","","","","","","","","","","","","","","","","","","","","","","","","","","","","","","","","","","","","","","","","","","SYN100AAXX  30124 65319 32460 72006 10308 20233 39605 40111 878// 333 0//00 58011 85613 83820 94914 95835;","","","","","","","","","",""
"65319099999","2005-05-30T19:00:00","10.3166667","1.3833333","461.0","NATITINGOU, BN","FM-12","4","","69","72","","||RA","","9","90","SCT:03 13 FEW:01 30 OVC:08 108","29.90","28.38","4.97","70","360","","5","","","","","","","","","","","","","","","","","","","","","","","","","","","","","","","","","","","","","","","","","","","","","","","","","","","","","","","","","","","","","","","","","","","","","","","","","","","","","","","","","","","","","","","","","","","SYN118AAXX  30184 65319 11458 83604 10222 20204 39610 40126 60212 76196 8897/ 333 10307 58029 83613 81930 88361 94943 95873;","","","","","","","","","",""
"65319099999","2005-05-31T10:00:00","10.3166667","1.3833333","461.0","NATITINGOU, BN","FM-12","4","","69","71","","","","9","95","FEW:01 13 SCT:04 108","29.91","28.38","6.21","70","000","","0","","","","","","","","","","","","","","","","","","","","","","","","","","","","","","","","","","","","","","","","","","","","","","","","","","","","","","","","","","","","","","","","","","","","","","","","","","","","","","","","","","","","","","","","","","","SYN118AAXX  31094 65319 12460 70000 10215 20207 39610 40128 60214 81532 333 0//00 20210 50334 55022 58012 81613 84361 85076;","","","","","","","","","",""
"65319099999","2005-05-31T13:00:00","10.3166667","1.3833333","461.0","NATITINGOU, BN","FM-12","4","","73","86","","","","9","66","FEW:01 13 SCT:03 20 BKN:05 108","29.91","28.40","6.21","77","180","","5","","","","","","","","","","","","","","","","","","","","","","","","","","","","","","","","","","","","","","","","","","","","","","","","","","","","","","","","","","","","","","","","","","","","","","","","","","","","","","","","","","","","","","","","","","","SYN106AAXX  31124 65319 32460 71804 10300 20229 39617 40128 83832 333 0//00 58012 81613 83820 85361 94919 95839;","","","","","","","","","",""
"65319099999","2005-05-31T19:00:00","10.3166667","1.3833333","461.0","NATITINGOU, BN","FM-12","4","","72","79","","","","9","80","BKN:05 108","29.88","28.36","6.21","74","000","","0","","","","","","","","","","","","","","","","","","","","","","","","","","","","","","","","","","","","","","","","","","","","","","","","","","","","","","","","","","","","","","","","","","","","","","","","","","","","","","","","","","","","","","","","","","","SYN100AAXX  31184 65319 11960 70000 10260 20222 39605 40119 60012 70166 85032 333 10307 59005 85361 83076;","","","","","","","","","",""
"65319099999","2005-06-01T07:00:00","10.3166667","1.3833333","461.0","NATITINGOU, BN","FM-12","4","","73","75","","","","9","94","SCT:03 108","29.90","28.39","6.21","74","000","","0","","","","","","","","","","","","","","","","","","","","","","","","","","","","","","","","","","","","","","","","","","","","","","","","","","","","","","","","","","","","","","","","","","","","","","","","","","","","","","","","","","","","","","","","","","","SYN112AAXX  01064 65319 12960 70000 10237 20227 39613 40126 60014 83032 333 02161 20230 50334 55063 58003 83361 85076;","","","","","","","","","",""
"65319099999","2005-06-01T19:00:00","10.3166667","1.3833333","461.0","NATITINGOU, BN","FM-12","4","","75","81","","","","9","81","FEW:02 20 FEW:01 30 SCT:03 108","29.82","28.31","6.21","77","000","","0","","","","","","","","","","","","","","","","","","","","","","","","","","","","","","","","","","","","","","","","","","","","","","","","","","","","","","","","","","","","","","","","","","","","","","","","","","","","","","","","","","","","","","","","","","","SYN118AAXX  01184 65319 11560 70000 10275 20240 39587 40098 69912 70196 82932 333 10310 59018 82820 81930 83361 94944 95874;","","","","","","","","","",""
"65319099999","2005-06-02T01:00:00","10.3166667","1.3833333","461.0","NATITINGOU, BN","FM-12","4","","75","77","","","","9","94","BKN:05 256","29.83","28.33","6.21","76","000","","0","","","","","","","","","","","","","","","","","","","","","","","","","","","","","","","","","","","","","","","","","","","","","","","","","","","","","","","","","","","","","","","","","","","","","","","","","","","","","","","","","","","","","","","","","","","SYN082AAXX  02004 65319 33960 50000 10248 20237 39593 40101 80002 333 0//00 59023 85076;","","","","","","","","","",""
"65319099999","2005-06-02T13:00:00","10.3166667","1.3833333","461.0","NATITINGOU, BN","FM-12","4","","76","86","","||RA","","9","72","FEW:02 13 BKN:05 20","29.83","28.33","6.21","79","200","","5","","","","","","","","","","","","","","","","","","","","","","","","","","","","","","","","","","","","","","","","","","","","","","","","","","","","","","","","","","","","","","","","","","","","","","","","","","","","","","","","","","","","","","","","","","","SYN112AAXX  02124 65319 11460 72004 10300 20244 39594 40102 69901 76166 86802 333 0//11 59016 82613 85820 94919 95839;","","","","","","","","","",""
"65319099999","2005-06-03T01:00:00","10.3166667","1.3833333","461.0","NATITINGOU, BN","FM-12","4","","74","76","","","","9","92","FEW:01 30 BKN:05 256","29.82","28.32","6.21","75","000","","0","","","","","","","","","","","","","","","","","","","","","","","","","","","","","","","","","","","","","","","","","","","","","","","","","","","","","","","","","","","","","","","","","","","","","","","","","","","","","","","","","","","","","","","","","","","SYN106AAXX  03004 65319 33560 50000 10245 20231 39590 40098 713// 81902 333 0//00 59003 81930 85076 94944 95814;","","","","","","","","","",""
"65319099999","2005-06-03T07:00:00","10.3166667","1.3833333","461.0","NATITINGOU, BN","FM-12","4","","73","75","","","","9","94","","29.83","28.32","6.21","74","000","","0","","","","","","","","","","","","","","","","","","","","","","","","","","","","","","","","","","","","","","","","","","","","","","","","","","","","","","","","","","","","","","","","","","","","","","","","","","","","","","","","","","","","","","","","","","","SYN106AAXX  03064 65319 12960 50000 10237 20227 39591 40103 69964 80002 333 02200 20232 50364 55068 58002 85076;","","","","","","","","","",""
"65319099999","2005-06-03T13:00:00","10.3166667","1.3833333","461.0","NATITINGOU, BN","FM-12","4","","76","89","","","","9","64","FEW:01 13 SCT:03 20 BKN:05 256","29.83","28.33","6.21","79","180","","2","","","","","","","","","","","","","","","","","","","","","","","","","","","","","","","","","","","","","","","","","","","","","","","","","","","","","","","","","","","","","","","","","","","","","","","","","","","","","","","","","","","","","","","","","","","SYN106AAXX  03124 65319 32460 71802 10317 20242 39595 40102 83802 333 0//00 58001 81613 83820 85076 94919 95839;","","","","","","","","","",""
"65319099999","2005-06-03T19:00:00","10.3166667","1.3833333","461.0","NATITINGOU, BN","FM-12","4","","75","81","","","","9","81","FEW:02 13 BKN:07 108","29.80","28.29","6.21","77","000","","0","","","","","","","","","","","","","","","","","","","","","","","","","","","","","","","","","","","","","","","","","","","","","","","","","","","","","","","","","","","","","","","","","","","","","","","","","","","","","","","","","","","","","","","","","","","SYN106AAXX  03184 65319 31460 70000 10275 20240 39581 40092 70399 8287/ 333 10327 58009 82613 87461 94906 95816;","","","","","","","","","",""
"65319099999","2005-06-04T01:00:00","10.3166667","1.3833333","461.0","NATITINGOU, BN","FM-12","4","","74","78","","","","9","89","BKN:05 256","29.85","28.36","6.21","75","000","","0","","","","","","","","","","","","","","","","","","","","","","","","","","","","","","","","","","","","","","","","","","","","","","","","","","","","","","","","","","","","","","","","","","","","","","","","","","","","","","","","","","","","","","","","","","","SYN082AAXX  04004 65319 33960 50000 10253 20234 39604 40110 80002 333 0//00 59014 85076;","","","","","","","","","",""
"65319099999","2005-06-04T07:00:00","10.3166667","1.3833333","461.0","NATITINGOU, BN","FM-12","4","","69","72","","||TS","","9","92","SCT:03 13 FEW:01 30 OVC:08 108","29.90","28.38","4.97","70","000","","0","","","","","","","","","","","","","","","","","","","","","","","","","","","","","","","","","","","","","","","","","","","","","","","","","","","","","","","","","","","","","","","","","","","","","","","","","","","","","","","","","","","","","","","","","","","SYN136AAXX  04064 65319 11458 80000 10220 20206 39612 40125 60084 79596 8397/ 333 02254 20216 50474 55074 58021 83613 81930 88461 94948 95838;","","","","","","","","","",""
"65319099999","2005-06-04T13:00:00","10.3166667","1.3833333","461.0","NATITINGOU, BN","FM-12","4","","75","82","","","","9","80","SCT:03 13 BKN:05 20","29.86","28.38","6.21","77","280","","7","","","","","","","","","","","","","","","","","","","","","","","","","","","","","","","","","","","","","","","","","","","","","","","","","","","","","","","","","","","","","","","","","","","","","","","","","","","","","","","","","","","","","","","","","","","SYN112AAXX  04124 65319 11460 72806 10277 20239 39611 40111 69911 70296 878// 333 0//56 58016 83613 85820 94919 95839;","","","","","","","","","",""
"65319099999","2005-06-04T19:00:00","10.3166667","1.3833333","461.0","NATITINGOU, BN","FM-12","4","","71","76","","","","9","86","BKN:07 108","29.84","28.32","6.21","73","360","","5","","","","","","","","","","","","","","","","","","","","","","","","","","","","","","","","","","","","","","","","","","","","","","","","","","","","","","","","","","","","","","","","","","","","","","","","","","","","","","","","","","","","","","","","","","","SYN094AAXX  04184 65319 11960 73604 10242 20217 39591 40106 60082 72996 8707/ 333 10296 58010 87361;","","","","","","","","","",""
"65319099999","2005-06-05T01:00:00","10.3166667","1.3833333","461.0","NATITINGOU, BN","FM-12","4","","71","73","","","","9","91","BKN:05 256","29.87","28.36","6.21","72","000","","0","","","","","","","","","","","","","","","","","","","","","","","","","","","","","","","","","","","","","","","","","","","","","","","","","","","","","","","","","","","","","","","","","","","","","","","","","","","","","","","","","","","","","","","","","","","SYN082AAXX  05004 65319 33960 50000 10230 20215 39604 40116 80002 333 0//00 58000 85076;","","","","","","","","","",""
"65319099999","2005-06-05T07:00:00","10.3166667","1.3833333","461.0","NATITINGOU, BN","FM-12","4","","70","72","","","","9","96","BKN:05 108","29.89","28.37","6.21","71","000","","0","","","","","","","","","","","","","","","","","","","","","","","","","","","","","","","","","","","","","","","","","","","","","","","","","","","","","","","","","","","","","","","","","","","","","","","","","","","","","","","","","","","","","","","","","","","SYN112AAXX  05064 65319 12960 70000 10220 20213 39607 40123 60064 85032 333 02159 20215 50344 55024 59005 85361 83076;","","","","","","","","","",""
"65319099999","2005-06-05T13:00:00","10.3166667","1.3833333","461.0","NATITINGOU, BN","FM-12","4","","71","86","","","","9","61","FEW:02 13 SCT:03 20 BKN:05 256","29.88","28.38","6.21","75","000","","0","","","","","","","","","","","","","","","","","","","","","","","","","","","","","","","","","","","","","","","","","","","","","","","","","","","","","","","","","","","","","","","","","","","","","","","","","","","","","","","","","","","","","","","","","","","SYN112AAXX  05124 65319 31460 70000 10300 20218 39610 40120 70144 84802 333 0//00 59001 82613 83820 85076 94915 95837;","","","","","","","","","",""
"65319099999","2005-06-06T13:00:00","10.3166667","1.3833333","461.0","NATITINGOU, BN","FM-12","4","","76","89","","","","9","66","FEW:01 13 SCT:03 20 BKN:07 256","29.83","28.34","6.21","79","220","","5","","","","","","","","","","","","","","","","","","","","","","","","","","","","","","","","","","","","","","","","","","","","","","","","","","","","","","","","","","","","","","","","","","","","","","","","","","","","","","","","","","","","","","","","","","","SYN106AAXX  06124 65319 32460 72204 10315 20244 39597 40102 83808 333 0//00 59013 81613 83820 87276 94919 95839;","","","","","","","","","",""
"65319099999","2005-06-06T19:00:00","10.3166667","1.3833333","461.0","NATITINGOU, BN","FM-12","4","","76","86","","","","9","71","BKN:07 256","29.77","28.27","6.21","79","220","","5","","","","","","","","","","","","","","","","","","","","","","","","","","","","","","","","","","","","","","","","","","","","","","","","","","","","","","","","","","","","","","","","","","","","","","","","","","","","","","","","","","","","","","","","","","","SYN082AAXX  06184 65319 32960 72204 10302 20244 39575 40082 80006 333 10328 59011 87276;","","","","","","","","","",""
"65319099999","2005-06-07T01:00:00","10.3166667","1.3833333","461.0","NATITINGOU, BN","FM-12","4","","76","80","","","","9","89","BKN:05 256","29.82","28.33","6.21","77","000","","0","","","","","","","","","","","","","","","","","","","","","","","","","","","","","","","","","","","","","","","","","","","","","","","","","","","","","","","","","","","","","","","","","","","","","","","","","","","","","","","","","","","","","","","","","","","SYN082AAXX  07004 65319 33960 50000 10264 20244 39592 40097 80002 333 0//00 59004 85076;","","","","","","","","","",""
"65319099999","2005-06-07T13:00:00","10.3166667","1.3833333","461.0","NATITINGOU, BN","FM-12","4","","75","90","","","","9","62","FEW:02 13 BKN:05 20 BKN:07 256","29.80","28.31","6.21","79","200","","9","","","","","","","","","","","","","","","","","","","","","","","","","","","","","","","","","","","","","","","","","","","","","","","","","","","","","","","","","","","","","","","","","","","","","","","","","","","","","","","","","","","","","","","","","","","SYN106AAXX  07124 65319 32460 72008 10320 20239 39588 40093 86808 333 0//00 59009 82613 85820 87276 94919 95839;","","","","","","","","","",""
"65319099999","2005-06-08T01:00:00","10.3166667","1.3833333","461.0","NATITINGOU, BN","FM-12","4","","71","72","","||RA","","9","94","OVC:08 108","29.86","28.36","6.21","71","000","","0","","","","","","","","","","","","","","","","","","","","","","","","","","","","","","","","","","","","","","","","","","","","","","","","","","","","","","","","","","","","","","","","","","","","","","","","","","","","","","","","","","","","","","","","","","","SYN094AAXX  08004 65319 11960 80000 10225 20215 39603 40111 60321 76196 8807/ 333 0//51 58011 88461;","","","","","","","","","",""
"65319099999","2005-06-08T07:00:00","10.3166667","1.3833333","461.0","NATITINGOU, BN","FM-12","4","","70","72","","","","9","96","SCT:03 13","29.82","28.31","6.21","71","200","","7","","","","","","","","","","","","","","","","","","","","","","","","","","","","","","","","","","","","","","","","","","","","","","","","","","","","","","","","","","","","","","","","","","","","","","","","","","","","","","","","","","","","","","","","","","","SYN118AAXX  08064 65319 11460 72006 10220 20213 39587 40097 60334 70166 8357/ 333 02456 20216 50784 55090 58000 83613 87361;","","","","","","","","","",""
"65319099999","2005-06-08T19:00:00","10.3166667","1.3833333","461.0","NATITINGOU, BN","FM-12","4","","72","85","","","","9","65","FEW:01 13 SCT:03 20 FEW:01 30","29.81","28.31","6.21","76","200","","5","","","","","","","","","","","","","","","","","","","","","","","","","","","","","","","","","","","","","","","","","","","","","","","","","","","","","","","","","","","","","","","","","","","","","","","","","","","","","","","","","","","","","","","","","","","SYN112AAXX  08184 65319 32460 72004 10295 20223 39586 40096 84932 333 10315 58015 81613 83820 81930 85076 94918 95834;","","","","","","","","","",""
"65319099999","2005-06-09T01:00:00","10.3166667","1.3833333","461.0","NATITINGOU, BN","FM-12","4","","73","78","","","","9","86","BKN:05 256","29.86","28.37","6.21","75","000","","0","","","","","","","","","","","","","","","","","","","","","","","","","","","","","","","","","","","","","","","","","","","","","","","","","","","","","","","","","","","","","","","","","","","","","","","","","","","","","","","","","","","","","","","","","","","SYN082AAXX  09004 65319 33960 50000 10253 20227 39606 40113 80002 333 0//00 58003 85076;","","","","","","","","","",""
"65319099999","2005-06-09T13:00:00","10.3166667","1.3833333","461.0","NATITINGOU, BN","FM-12","4","","72","87","","","","9","61","FEW:01 13 SCT:03 20 BKN:05 256","29.85","28.38","6.21","76","200","","5","","","","","","","","","","","","","","","","","","","","","","","","","","","","","","","","","","","","","","","","","","","","","","","","","","","","","","","","","","","","","","","","","","","","","","","","","","","","","","","","","","","","","","","","","","","SYN106AAXX  09124 65319 32460 72004 10308 20225 39612 40109 83832 333 0//00 58026 81613 83820 85076 94919 95839;","","","","","","","","","",""
"65319099999","2005-06-09T19:00:00","10.3166667","1.3833333","461.0","NATITINGOU, BN","FM-12","4","","74","79","","||TS","","9","87","FEW:01 13 FEW:01 30 OVC:08 108","29.87","28.35","4.97","75","220","","5","","","","","","","","","","","","","","","","","","","","","","","","","","","","","","","","","","","","","","","","","","","","","","","","","","","","","","","","","","","","","","","","","","","","","","","","","","","","","","","","","","","","","","","","","","","SYN118AAXX  09184 65319 11458 72204 10259 20235 39602 40114 60212 79596 8397/ 333 10330 58016 81613 88461 81930 94948 95838;","","","","","","","","","",""
"65319099999","2005-06-10T01:00:00","10.3166667","1.3833333","461.0","NATITINGOU, BN","FM-12","4","","74","76","","","","9","94","BKN:05 256","29.86","28.37","6.21","75","000","","0","","","","","","","","","","","","","","","","","","","","","","","","","","","","","","","","","","","","","","","","","","","","","","","","","","","","","","","","","","","","","","","","","","","","","","","","","","","","","","","","","","","","","","","","","","","SYN094AAXX  10004 65319 11960 50000 10246 20235 39607 40113 69921 7019/ 80002 333 0//51 58004 85076;","","","","","","","","","",""
"65319099999","2005-06-10T07:00:00","10.3166667","1.3833333","461.0","NATITINGOU, BN","FM-12","4","","73","75","","","","9","94","SCT:04 13","29.89","28.38","6.21","74","000","","0","","","","","","","","","","","","","","","","","","","","","","","","","","","","","","","","","","","","","","","","","","","","","","","","","","","","","","","","","","","","","","","","","","","","","","","","","","","","","","","","","","","","","","","","","","","SYN112AAXX  10064 65319 12460 70000 10239 20229 39609 40121 60214 84502 333 02264 20231 50674 55070 58002 84613 85076;","","","","","","","","","",""
"65319099999","2005-06-10T13:00:00","10.3166667","1.3833333","461.0","NATITINGOU, BN","FM-12","4","","77","87","","","","9","71","FEW:02 13 BKN:05 20","29.89","28.39","6.21","80","280","","9","","","","","","","","","","","","","","","","","","","","","","","","","","","","","","","","","","","","","","","","","","","","","","","","","","","","","","","","","","","","","","","","","","","","","","","","","","","","","","","","","","","","","","","","","","","SYN100AAXX  10124 65319 32460 72808 10307 20249 39614 40122 86802 333 0//00 58002 82613 85820 94919 95839;","","","","","","","","","",""
"65319099999","2005-06-10T19:00:00","10.3166667","1.3833333","461.0","NATITINGOU, BN","FM-12","4","","76","86","","","","9","72","BKN:07 256","29.84","28.34","6.21","79","280","","5","","","","","","","","","","","","","","","","","","","","","","","","","","","","","","","","","","","","","","","","","","","","","","","","","","","","","","","","","","","","","","","","","","","","","","","","","","","","","","","","","","","","","","","","","","","SYN082AAXX  10184 65319 32960 72804 10300 20244 39596 40104 80006 333 10320 59006 87276;","","","","","","","","","",""
"65319099999","2005-06-12T01:00:00","10.3166667","1.3833333","461.0","NATITINGOU, BN","FM-12","4","","72","76","","","","9","90","BKN:05 13","29.88","28.37","6.21","73","180","","9","","","","","","","","","","","","","","","","","","","","","","","","","","","","","","","","","","","","","","","","","","","","","","","","","","","","","","","","","","","","","","","","","","","","","","","","","","","","","","","","","","","","","","","","","","","SYN088AAXX  12004 65319 33460 71808 10242 20225 39606 40118 85502 333 0//00 59004 85613 83076;","","","","","","","","","",""
"65319099999","2005-06-12T07:00:00","10.3166667","1.3833333","461.0","NATITINGOU, BN","FM-12","4","","68","72","","","","9","90","SCT:03 13","29.89","28.38","6.21","69","000","","0","","","","","","","","","","","","","","","","","","","","","","","","","","","","","","","","","","","","","","","","","","","","","","","","","","","","","","","","","","","","","","","","","","","","","","","","","","","","","","","","","","","","","","","","","","","SYN106AAXX  12064 65319 32460 70000 10220 20202 39609 40121 8307/ 333 02100 20220 50184 55023 58003 83613 87361;","","","","","","","","","",""
"65319099999","2005-06-12T13:00:00","10.3166667","1.3833333","461.0","NATITINGOU, BN","FM-12","4","","69","83","","","","9","63","FEW:01 13 SCT:03 20 BKN:07 108","29.91","28.40","6.21","73","180","","7","","","","","","","","","","","","","","","","","","","","","","","","","","","","","","","","","","","","","","","","","","","","","","","","","","","","","","","","","","","","","","","","","","","","","","","","","","","","","","","","","","","","","","","","","","","SYN106AAXX  12124 65319 32460 71806 10286 20208 39619 40129 8483/ 333 0//00 58015 81613 83820 87361 94919 95819;","","","","","","","","","",""
"65319099999","2005-06-12T19:00:00","10.3166667","1.3833333","461.0","NATITINGOU, BN","FM-12","4","","72","82","","","","9","72","FEW:01 13","29.86","28.35","6.21","75","220","","5","","","","","","","","","","","","","","","","","","","","","","","","","","","","","","","","","","","","","","","","","","","","","","","","","","","","","","","","","","","","","","","","","","","","","","","","","","","","","","","","","","","","","","","","","","","SYN088AAXX  12184 65319 32460 72204 10279 20223 39600 40112 81532 333 10309 58013 81613 85076;","","","","","","","","","",""
"65319099999","2005-06-13T01:00:00","10.3166667","1.3833333","461.0","NATITINGOU, BN","FM-12","4","","73","76","","","","9","90","BKN:05 256","29.87","28.37","6.21","74","220","","2","","","","","","","","","","","","","","","","","","","","","","","","","","","","","","","","","","","","","","","","","","","","","","","","","","","","","","","","","","","","","","","","","","","","","","","","","","","","","","","","","","","","","","","","","","","SYN082AAXX  13004 65319 33960 52202 10246 20229 39606 40116 80002 333 0//00 58000 85076;","","","","","","","","","",""
"65319099999","2005-06-13T07:00:00","10.3166667","1.3833333","461.0","NATITINGOU, BN","FM-12","4","","72","74","","","","9","94","","29.91","28.39","4.97","73","200","","5","","","","","","","","","","","","","","","","","","","","","","","","","","","","","","","","","","","","","","","","","","","","","","","","","","","","","","","","","","","","","","","","","","","","","","","","","","","","","","","","","","","","","","","","","","","SYN100AAXX  13064 65319 32958 72004 10235 20225 39615 40127 875// 333 02100 20228 50454 55070 58006 87613;","","","","","","","","","",""
"65319099999","2005-06-13T13:00:00","10.3166667","1.3833333","461.0","NATITINGOU, BN","FM-12","4","","73","86","","","","9","66","FEW:02 13 BKN:05 20","29.86","28.36","6.21","77","200","","9","","","","","","","","","","","","","","","","","","","","","","","","","","","","","","","","","","","","","","","","","","","","","","","","","","","","","","","","","","","","","","","","","","","","","","","","","","","","","","","","","","","","","","","","","","","SYN100AAXX  13124 65319 32460 72008 10300 20229 39604 40112 86802 333 0//00 59015 82613 85820 94919 95839;","","","","","","","","","",""
"65319099999","2005-06-14T01:00:00","10.3166667","1.3833333","461.0","NATITINGOU, BN","FM-12","4","","74","79","","","","9","84","BKN:05 256","29.85","28.36","6.21","75","000","","0","","","","","","","","","","","","","","","","","","","","","","","","","","","","","","","","","","","","","","","","","","","","","","","","","","","","","","","","","","","","","","","","","","","","","","","","","","","","","","","","","","","","","","","","","","","SYN082AAXX  14004 65319 33960 50000 10260 20231 39603 40110 80002 333 0//00 59003 85076;","","","","","","","","","",""
"65319099999","2005-06-14T07:00:00","10.3166667","1.3833333","461.0","NATITINGOU, BN","FM-12","4","","72","76","","","","9","90","SCT:04 108","29.89","28.39","6.21","73","200","","5","","","","","","","","","","","","","","","","","","","","","","","","","","","","","","","","","","","","","","","","","","","","","","","","","","","","","","","","","","","","","","","","","","","","","","","","","","","","","","","","","","","","","","","","","","","SYN106AAXX  14064 65319 32960 72004 10242 20225 39613 40122 84032 333 02200 20238 50564 55088 59002 84361 85076;","","","","","","","","","",""
"65319099999","2005-06-15T07:00:00","10.3166667","1.3833333","461.0","NATITINGOU, BN","FM-12","4","","68","72","","","","9","87","SCT:03 108","29.87","28.33","6.21","69","000","","0","","","","","","","","","","","","","","","","","","","","","","","","","","","","","","","","","","","","","","","","","","","","","","","","","","","","","","","","","","","","","","","","","","","","","","","","","","","","","","","","","","","","","","","","","","","SYN112AAXX  15064 65319 12960 70000 10225 20202 39592 40115 60084 83038 333 02100 20220 50464 55056 59014 83361 87276;","","","","","","","","","",""
"65319099999","2005-06-15T13:00:00","10.3166667","1.3833333","461.0","NATITINGOU, BN","FM-12","4","","76","85","","","","9","74","FEW:01 13 SCT:03 20 BKN:05 256","29.91","28.41","6.21","78","280","","7","","","","","","","","","","","","","","","","","","","","","","","","","","","","","","","","","","","","","","","","","","","","","","","","","","","","","","","","","","","","","","","","","","","","","","","","","","","","","","","","","","","","","","","","","","","SYN106AAXX  15124 65319 32460 72806 10297 20245 39620 40130 83802 333 0//00 58011 81613 83820 85076 94919 95839;","","","","","","","","","",""
"65319099999","2005-06-15T19:00:00","10.3166667","1.3833333","461.0","NATITINGOU, BN","FM-12","4","","76","86","","","","9","73","FEW:02 13 FEW:01 30 BKN:05 256","29.85","28.35","6.21","79","220","","7","","","","","","","","","","","","","","","","","","","","","","","","","","","","","","","","","","","","","","","","","","","","","","","","","","","","","","","","","","","","","","","","","","","","","","","","","","","","","","","","","","","","","","","","","","","SYN106AAXX  15184 65319 32460 72206 10298 20245 39599 40109 83902 333 10327 58009 82613 81930 85076 94941 95831;","","","","","","","","","",""
"65319099999","2005-06-16T01:00:00","10.3166667","1.3833333","461.0","NATITINGOU, BN","FM-12","4","","72","76","","","","9","90","BKN:07 108","29.93","28.43","6.21","73","000","","0","","","","","","","","","","","","","","","","","","","","","","","","","","","","","","","","","","","","","","","","","","","","","","","","","","","","","","","","","","","","","","","","","","","","","","","","","","","","","","","","","","","","","","","","","","","SYN088AAXX  16004 65319 31960 70000 10242 20225 39626 40136 7019/ 8707/ 333 0//00 58007 87461;","","","","","","","","","",""
"65319099999","2005-06-16T07:00:00","10.3166667","1.3833333","461.0","NATITINGOU, BN","FM-12","4","","71","74","","","","9","91","FEW:01 13 BKN:07 108","29.92","28.41","4.97","72","200","","5","","","","","","","","","","","","","","","","","","","","","","","","","","","","","","","","","","","","","","","","","","","","","","","","","","","","","","","","","","","","","","","","","","","","","","","","","","","","","","","","","","","","","","","","","","","SYN130AAXX  16064 65319 11458 72004 10235 20219 39621 40132 60014 72166 8287/ 333 02161 20229 50354 55067 58022 81613 87461 94904 95814;","","","","","","","","","",""
"65319099999","2005-06-16T13:00:00","10.3166667","1.3833333","461.0","NATITINGOU, BN","FM-12","4","","75","86","","","","9","69","BKN:07 108","29.90","28.39","6.21","78","200","","7","","","","","","","","","","","","","","","","","","","","","","","","","","","","","","","","","","","","","","","","","","","","","","","","","","","","","","","","","","","","","","","","","","","","","","","","","","","","","","","","","","","","","","","","","","","SYN082AAXX  16124 65319 32960 72006 10300 20237 39615 40125 8703/ 333 0//00 59005 87361;","","","","","","","","","",""
"65319099999","2005-06-17T07:00:00","10.3166667","1.3833333","461.0","NATITINGOU, BN","FM-12","4","","74","76","","","","9","92","","29.86","28.36","6.21","75","000","","0","","","","","","","","","","","","","","","","","","","","","","","","","","","","","","","","","","","","","","","","","","","","","","","","","","","","","","","","","","","","","","","","","","","","","","","","","","","","","","","","","","","","","","","","","","","SYN100AAXX  17064 65319 32960 50000 10245 20231 39605 40113 80002 333 02200 20230 50614 55066 59016 85076;","","","","","","","","","",""
"65319099999","2005-06-17T13:00:00","10.3166667","1.3833333","461.0","NATITINGOU, BN","FM-12","4","","76","87","","","","9","69","FEW:02 13 BKN:06 20","29.88","28.38","6.21","79","200","","9","","","","","","","","","","","","","","","","","","","","","","","","","","","","","","","","","","","","","","","","","","","","","","","","","","","","","","","","","","","","","","","","","","","","","","","","","","","","","","","","","","","","","","","","","","","SYN100AAXX  17124 65319 32460 72008 10305 20242 39611 40119 86802 333 0//00 59004 82613 86820 94919 95839;","","","","","","","","","",""
"65319099999","2005-06-18T07:00:00","10.3166667","1.3833333","461.0","NATITINGOU, BN","FM-12","4","","68","70","","","","9","93","SCT:03 13","29.91","28.39","4.97","69","000","","0","","","","","","","","","","","","","","","","","","","","","","","","","","","","","","","","","","","","","","","","","","","","","","","","","","","","","","","","","","","","","","","","","","","","","","","","","","","","","","","","","","","","","","","","","","","SYN112AAXX  18064 65319 12458 70000 10212 20201 39614 40129 60204 83502 333 02300 20205 50484 55066 58009 83613 85076;","","","","","","","","","",""
"65319099999","2005-06-19T01:00:00","10.3166667","1.3833333","461.0","NATITINGOU, BN","FM-12","4","","72","75","","","","9","90","SCT:03 108","29.91","28.40","6.21","73","000","","0","","","","","","","","","","","","","","","","","","","","","","","","","","","","","","","","","","","","","","","","","","","","","","","","","","","","","","","","","","","","","","","","","","","","","","","","","","","","","","","","","","","","","","","","","","","SYN088AAXX  19004 65319 33960 70000 10238 20220 39617 40128 83032 333 0//00 59003 83361 85076;","","","","","","","","","",""
"65319099999","2005-06-19T07:00:00","10.3166667","1.3833333","461.0","NATITINGOU, BN","FM-12","4","","70","72","","","","9","96","FEW:01 13 BKN:07 256","29.90","28.39","6.21","71","000","","0","","","","","","","","","","","","","","","","","","","","","","","","","","","","","","","","","","","","","","","","","","","","","","","","","","","","","","","","","","","","","","","","","","","","","","","","","","","","","","","","","","","","","","","","","","","SYN118AAXX  19064 65319 32460 70000 10220 20213 39614 40126 81806 333 02000 20215 50484 55072 58000 81613 87276 94904 95814;","","","","","","","","","",""
"65319099999","2005-06-20T01:00:00","10.3166667","1.3833333","461.0","NATITINGOU, BN","FM-12","4","","71","73","","","","9","91","OVC:08 108","29.88","28.38","6.21","72","220","","5","","","","","","","","","","","","","","","","","","","","","","","","","","","","","","","","","","","","","","","","","","","","","","","","","","","","","","","","","","","","","","","","","","","","","","","","","","","","","","","","","","","","","","","","","","","SYN094AAXX  20004 65319 11960 82204 10230 20215 39609 40119 60141 72196 8807/ 333 0//51 59008 88461;","","","","","","","","","",""
"65319099999","2005-06-20T07:00:00","10.3166667","1.3833333","461.0","NATITINGOU, BN","FM-12","4","","72","73","","","","9","95","","29.90","28.38","6.21","72","000","","0","","","","","","","","","","","","","","","","","","","","","","","","","","","","","","","","","","","","","","","","","","","","","","","","","","","","","","","","","","","","","","","","","","","","","","","","","","","","","","","","","","","","","","","","","","","SYN106AAXX  20064 65319 12960 70000 10230 20221 39612 40125 60144 8707/ 333 02157 20221 50494 55079 59002 87361;","","","","","","","","","",""
"65319099999","2005-06-20T13:00:00","10.3166667","1.3833333","461.0","NATITINGOU, BN","FM-12","4","","76","83","","","","9","77","SCT:03 13 BKN:05 20","29.91","28.40","6.21","78","220","","5","","","","","","","","","","","","","","","","","","","","","","","","","","","","","","","","","","","","","","","","","","","","","","","","","","","","","","","","","","","","","","","","","","","","","","","","","","","","","","","","","","","","","","","","","","","SYN100AAXX  20124 65319 32460 72204 10286 20242 39619 40130 878// 333 0//00 59008 83613 85820 94919 95839;","","","","","","","","","",""
"65319099999","2005-06-21T01:00:00","10.3166667","1.3833333","461.0","NATITINGOU, BN","FM-12","4","","74","77","","","","9","92","SCT:03 108","29.89","28.39","6.21","75","000","","0","","","","","","","","","","","","","","","","","","","","","","","","","","","","","","","","","","","","","","","","","","","","","","","","","","","","","","","","","","","","","","","","","","","","","","","","","","","","","","","","","","","","","","","","","","","SYN100AAXX  21004 65319 11960 70000 10250 20236 39613 40123 69921 7006/ 83032 333 0//16 58004 83361 85076;","","","","","","","","","",""
"65319099999","2005-06-21T07:00:00","10.3166667","1.3833333","461.0","NATITINGOU, BN","FM-12","4","","72","73","","","","9","96","","29.91","28.39","6.21","72","000","","0","","","","","","","","","","","","","","","","","","","","","","","","","","","","","","","","","","","","","","","","","","","","","","","","","","","","","","","","","","","","","","","","","","","","","","","","","","","","","","","","","","","","","","","","","","","SYN106AAXX  21064 65319 12960 50000 10230 20223 39614 40128 69924 80002 333 02157 20225 50144 55032 58002 85076;","","","","","","","","","",""
"65319099999","2005-06-21T19:00:00","10.3166667","1.3833333","461.0","NATITINGOU, BN","FM-12","4","","74","81","","","","9","78","FEW:01 13 SCT:03 20 BKN:05 256","29.85","28.34","6.21","76","000","","0","","","","","","","","","","","","","","","","","","","","","","","","","","","","","","","","","","","","","","","","","","","","","","","","","","","","","","","","","","","","","","","","","","","","","","","","","","","","","","","","","","","","","","","","","","","SYN118AAXX  21184 65319 11460 70000 10274 20233 39597 40109 69902 70396 83832 333 10322 59003 81613 83820 85076 94919 95839;","","","","","","","","","",""
"65319099999","2005-06-22T01:00:00","10.3166667","1.3833333","461.0","NATITINGOU, BN","FM-12","4","","71","75","","","","9","86","BKN:07 256","29.87","28.37","6.21","72","000","","0","","","","","","","","","","","","","","","","","","","","","","","","","","","","","","","","","","","","","","","","","","","","","","","","","","","","","","","","","","","","","","","","","","","","","","","","","","","","","","","","","","","","","","","","","","","SYN082AAXX  22004 65319 33960 70000 10238 20214 39607 40116 80006 333 0//00 59006 87276;","","","","","","","","","",""
"65319099999","2005-06-22T07:00:00","10.3166667","1.3833333","461.0","NATITINGOU, BN","FM-12","4","","71","72","","","","9","95","","29.89","28.38","6.21","71","000","","0","","","","","","","","","","","","","","","","","","","","","","","","","","","","","","","","","","","","","","","","","","","","","","","","","","","","","","","","","","","","","","","","","","","","","","","","","","","","","","","","","","","","","","","","","","","SYN106AAXX  22064 65319 12960 70000 10225 20216 39609 40121 69904 80008 333 02251 20219 50494 55068 59005 87276;","","","","","","","","","",""
"65319099999","2005-06-22T13:00:00","10.3166667","1.3833333","461.0","NATITINGOU, BN","FM-12","4","","76","87","","","","9","69","FEW:02 13 BKN:05 20","29.89","28.39","6.21","79","280","","5","","","","","","","","","","","","","","","","","","","","","","","","","","","","","","","","","","","","","","","","","","","","","","","","","","","","","","","","","","","","","","","","","","","","","","","","","","","","","","","","","","","","","","","","","","","SYN099AAXX  22124 65319 32460 72804 10305 20242 39613 40123 86802 333 0//00 59002 82613 85820 94919 9839;","","","","","","","","","",""
"65319099999","2005-06-22T19:00:00","10.3166667","1.3833333","461.0","NATITINGOU, BN","FM-12","4","","74","83","","","","9","76","BKN:07 108","29.82","28.31","6.21","77","000","","0","","","","","","","","","","","","","","","","","","","","","","","","","","","","","","","","","","","","","","","","","","","","","","","","","","","","","","","","","","","","","","","","","","","","","","","","","","","","","","","","","","","","","","","","","","","SYN094AAXX  22184 65319 11960 70000 10283 20236 39587 40098 60032 70296 8707/ 333 10317 59010 87361;","","","","","","","","","",""
"65319099999","2005-06-23T01:00:00","10.3166667","1.3833333","461.0","NATITINGOU, BN","FM-12","4","","76","79","","","","9","92","BKN:07 108","29.83","28.34","6.21","77","000","","0","","","","","","","","","","","","","","","","","","","","","","","","","","","","","","","","","","","","","","","","","","","","","","","","","","","","","","","","","","","","","","","","","","","","","","","","","","","","","","","","","","","","","","","","","","","SYN082AAXX  23004 65319 33960 70000 10260 20246 39596 40102 8707/ 333 0//00 59021 87361;","","","","","","","","","",""
"65319099999","2005-06-23T07:00:00","10.3166667","1.3833333","461.0","NATITINGOU, BN","FM-12","4","","73","76","","","","9","90","","29.86","28.35","6.21","74","000","","0","","","","","","","","","","","","","","","","","","","","","","","","","","","","","","","","","","","","","","","","","","","","","","","","","","","","","","","","","","","","","","","","","","","","","","","","","","","","","","","","","","","","","","","","","","","SYN100AAXX  23064 65319 12960 70000 10245 20228 39601 40111 80006 333 02159 20240 50394 55063 59008 87276;","","","","","","","","","",""
"65319099999","2005-06-23T13:00:00","10.3166667","1.3833333","461.0","NATITINGOU, BN","FM-12","4","","75","84","","","","9","75","SCT:03 13 SCT:04 20 BKN:07 256","29.85","28.35","6.21","78","240","","5","","","","","","","","","","","","","","","","","","","","","","","","","","","","","","","","","","","","","","","","","","","","","","","","","","","","","","","","","","","","","","","","","","","","","","","","","","","","","","","","","","","","","","","","","","","SYN106AAXX  23124 65319 32460 72404 10290 20241 39602 40110 86808 333 0//00 59011 83613 84820 87276 94919 95839;","","","","","","","","","",""
"65319099999","2005-06-23T19:00:00","10.3166667","1.3833333","461.0","NATITINGOU, BN","FM-12","4","","76","84","","","","9","77","SCT:03 13","29.79","28.29","6.21","78","220","","2","","","","","","","","","","","","","","","","","","","","","","","","","","","","","","","","","","","","","","","","","","","","","","","","","","","","","","","","","","","","","","","","","","","","","","","","","","","","","","","","","","","","","","","","","","","SYN088AAXX  23184 65319 32460 72202 10287 20242 39579 40087 83508 333 10310 59008 83613 87276;","","","","","","","","","",""
"65319099999","2005-06-24T01:00:00","10.3166667","1.3833333","461.0","NATITINGOU, BN","FM-12","4","","76","78","","","","9","94","SCT:04 13","29.83","28.33","6.21","77","200","","5","","","","","","","","","","","","","","","","","","","","","","","","","","","","","","","","","","","","","","","","","","","","","","","","","","","","","","","","","","","","","","","","","","","","","","","","","","","","","","","","","","","","","","","","","","","SYN088AAXX  24004 65319 33460 72004 10253 20242 39592 40100 875// 333 0//00 59004 84613 85076;","","","","","","","","","",""
"65319099999","2005-06-24T07:00:00","10.3166667","1.3833333","461.0","NATITINGOU, BN","FM-12","4","","70","72","","","","9","91","","29.82","28.31","6.21","71","200","","5","","","","","","","","","","","","","","","","","","","","","","","","","","","","","","","","","","","","","","","","","","","","","","","","","","","","","","","","","","","","","","","","","","","","","","","","","","","","","","","","","","","","","","","","","","","SYN100AAXX  24064 65319 32960 52004 10225 20210 39587 40098 80002 333 02100 20220 50454 55062 58014 85076;","","","","","","","","","",""
"65319099999","2005-06-24T13:00:00","10.3166667","1.3833333","461.0","NATITINGOU, BN","FM-12","4","","72","82","","","","9","72","BKN:07 13","29.87","28.36","4.97","75","200","","5","","","","","","","","","","","","","","","","","","","","","","","","","","","","","","","","","","","","","","","","","","","","","","","","","","","","","","","","","","","","","","","","","","","","","","","","","","","","","","","","","","","","","","","","","","","SYN082AAXX  24124 65319 32458 72004 10280 20225 39605 40115 875// 333 0//00 58003 87613;","","","","","","","","","",""
"65319099999","2005-06-24T19:00:00","10.3166667","1.3833333","461.0","NATITINGOU, BN","FM-12","4","","72","76","","","","9","89","FEW:01 13","29.82","28.30","4.97","73","000","","0","","","","","","","","","","","","","","","","","","","","","","","","","","","","","","","","","","","","","","","","","","","","","","","","","","","","","","","","","","","","","","","","","","","","","","","","","","","","","","","","","","","","","","","","","","","SYN100AAXX  24184 65319 11458 70000 10242 20222 39585 40099 60052 70196 8157/ 333 10284 58006 81613 87461;","","","","","","","","","",""
"65319099999","2005-06-25T07:00:00","10.3166667","1.3833333","461.0","NATITINGOU, BN","FM-12","4","","69","72","","","","9","91","","29.81","28.29","6.21","70","200","","5","","","","","","","","","","","","","","","","","","","","","","","","","","","","","","","","","","","","","","","","","","","","","","","","","","","","","","","","","","","","","","","","","","","","","","","","","","","","","","","","","","","","","","","","","","","SYN106AAXX  25064 65319 12960 72004 10220 20205 39580 40095 60054 8703/ 333 02161 20210 50224 55026 59007 87361;","","","","","","","","","",""
"65319099999","2005-06-26T07:00:00","10.3166667","1.3833333","461.0","NATITINGOU, BN","FM-12","4","","73","75","","","","9","92","BKN:07 13 FEW:01 30","29.93","28.42","3.73","74","000","","0","","","","","","","","","","","","","","","","","","","","","","","","","","","","","","","","","","","","","","","","","","","","","","","","","","","","","","","","","","","","","","","","","","","","","","","","","","","","","","","","","","","","","","","","","","","SYN118AAXX  26064 65319 32456 70000 10239 20226 39624 40136 879// 333 02100 20231 50394 55074 58044 87613 81930 94942 95832;","","","","","","","","","",""
"65319099999","2005-06-26T13:00:00","10.3166667","1.3833333","461.0","NATITINGOU, BN","FM-12","4","","72","77","","","","9","82","SCT:04 13 BKN:05 20 FEW:01 30","29.98","28.46","6.21","74","240","","7","","","","","","","","","","","","","","","","","","","","","","","","","","","","","","","","","","","","","","","","","","","","","","","","","","","","","","","","","","","","","","","","","","","","","","","","","","","","","","","","","","","","","","","","","","","SYN118AAXX  26124 65319 11460 72406 10252 20220 39638 40152 60151 70396 879// 333 0//57 58029 84613 85820 81930 94943 95839;","","","","","","","","","",""
"65319099999","2005-06-27T01:00:00","10.3166667","1.3833333","461.0","NATITINGOU, BN","FM-12","4","","71","74","","","","9","90","SCT:03 13","29.96","28.43","6.21","72","280","","7","","","","","","","","","","","","","","","","","","","","","","","","","","","","","","","","","","","","","","","","","","","","","","","","","","","","","","","","","","","","","","","","","","","","","","","","","","","","","","","","","","","","","","","","","","","SYN100AAXX  27004 65319 11460 72806 10232 20214 39629 40144 69911 72166 8357/ 333 0//11 58017 83613 87361;","","","","","","","","","",""
"65319099999","2005-06-27T07:00:00","10.3166667","1.3833333","461.0","NATITINGOU, BN","FM-12","4","","70","72","","","","9","91","SCT:04 13","29.95","28.43","6.21","71","000","","0","","","","","","","","","","","","","","","","","","","","","","","","","","","","","","","","","","","","","","","","","","","","","","","","","","","","","","","","","","","","","","","","","","","","","","","","","","","","","","","","","","","","","","","","","","","SYN112AAXX  27064 65319 12460 70000 10225 20210 39628 40143 69914 8457/ 333 02200 20220 50304 55011 58004 84613 87361;","","","","","","","","","",""
"65319099999","2005-06-27T13:00:00","10.3166667","1.3833333","461.0","NATITINGOU, BN","FM-12","4","","72","83","","","","9","68","FEW:01 13 SCT:03 20 BKN:05 108","29.89","28.38","6.21","75","220","","7","","","","","","","","","","","","","","","","","","","","","","","","","","","","","","","","","","","","","","","","","","","","","","","","","","","","","","","","","","","","","","","","","","","","","","","","","","","","","","","","","","","","","","","","","","","SYN106AAXX  27124 65319 32460 72206 10284 20220 39611 40122 83832 333 0//00 59027 81613 83820 85361 94919 95839;","","","","","","","","","",""
"65319099999","2005-06-27T19:00:00","10.3166667","1.3833333","461.0","NATITINGOU, BN","FM-12","4","","72","83","","","","9","72","FEW:01 13 BKN:05 256","29.88","28.37","6.21","75","240","","5","","","","","","","","","","","","","","","","","","","","","","","","","","","","","","","","","","","","","","","","","","","","","","","","","","","","","","","","","","","","","","","","","","","","","","","","","","","","","","","","","","","","","","","","","","","SYN100AAXX  27184 65319 32460 72404 10281 20225 39606 40118 82832 333 10302 59002 81613 85076 94919 95834;","","","","","","","","","",""
"65319099999","2005-06-28T07:00:00","10.3166667","1.3833333","461.0","NATITINGOU, BN","FM-12","4","","71","72","","","","9","96","","29.92","28.40","6.21","71","000","","0","","","","","","","","","","","","","","","","","","","","","","","","","","","","","","","","","","","","","","","","","","","","","","","","","","","","","","","","","","","","","","","","","","","","","","","","","","","","","","","","","","","","","","","","","","","SYN106AAXX  28064 65319 12960 70000 10221 20214 39619 40132 69914 80006 333 02257 20216 50494 55092 59009 87276;","","","","","","","","","",""
"65319099999","2005-06-28T13:00:00","10.3166667","1.3833333","461.0","NATITINGOU, BN","FM-12","4","","72","85","","","","9","65","FEW:02 13 BKN:05 20","29.91","28.40","6.21","76","220","","9","","","","","","","","","","","","","","","","","","","","","","","","","","","","","","","","","","","","","","","","","","","","","","","","","","","","","","","","","","","","","","","","","","","","","","","","","","","","","","","","","","","","","","","","","","","SYN100AAXX  28124 65319 32460 72208 10295 20223 39617 40127 86802 333 0//00 58006 82613 85820 94919 95839;","","","","","","","","","",""
"65319099999","2005-06-29T01:00:00","10.3166667","1.3833333","461.0","NATITINGOU, BN","FM-12","4","","72","75","","||RA","","9","91","OVC:08 108","29.88","28.38","6.21","73","240","","7","","","","","","","","","","","","","","","","","","","","","","","","","","","","","","","","","","","","","","","","","","","","","","","","","","","","","","","","","","","","","","","","","","","","","","","","","","","","","","","","","","","","","","","","","","","SYN094AAXX  29004 65319 11960 82406 10240 20225 39609 40118 60041 79196 8807/ 333 0//51 59011 88461;","","","","","","","","","",""
"65319099999","2005-06-29T13:00:00","10.3166667","1.3833333","461.0","NATITINGOU, BN","FM-12","4","","74","81","","","","9","77","SCT:03 13 SCT:04 20","29.88","28.37","6.21","76","220","","11","","","","","","","","","","","","","","","","","","","","","","","","","","","","","","","","","","","","","","","","","","","","","","","","","","","","","","","","","","","","","","","","","","","","","","","","","","","","","","","","","","","","","","","","","","","SYN112AAXX  29124 65319 11460 72210 10275 20232 39606 40117 69951 70366 86802 333 0//15 59011 83613 84820 94919 95839;","","","","","","","","","",""
"65319099999","2005-06-30T13:00:00","10.3166667","1.3833333","461.0","NATITINGOU, BN","FM-12","4","","74","85","","","","9","69","FEW:01 13 BKN:05 20","29.90","28.40","6.21","77","240","","7","","","","","","","","","","","","","","","","","","","","","","","","","","","","","","","","","","","","","","","","","","","","","","","","","","","","","","","","","","","","","","","","","","","","","","","","","","","","","","","","","","","","","","","","","","","SYN100AAXX  30124 65319 32460 72406 10294 20231 39619 40124 85802 333 0//00 58008 81613 85820 94919 95839;","","","","","","","","","",""
"65319099999","2005-07-01T01:00:00","10.3166667","1.3833333","461.0","NATITINGOU, BN","FM-12","4","","72","76","","","","9","86","BKN:05 256","29.88","28.38","6.21","73","000","","0","","","","","","","","","","","","","","","","","","","","","","","","","","","","","","","","","","","","","","","","","","","","","","","","","","","","","","","","","","","","","","","","","","","","","","","","","","","","","","","","","","","","","","","","","","","SYN082AAXX  01004 65319 33960 50000 10245 20220 39609 40118 80002 333 0//00 58002 85076;","","","","","","","","","",""
"65319099999","2005-07-01T07:00:00","10.3166667","1.3833333","461.0","NATITINGOU, BN","FM-12","4","","70","73","","","","9","90","SCT:04 13","29.88","28.38","6.21","71","220","","5","","","","","","","","","","","","","","","","","","","","","","","","","","","","","","","","","","","","","","","","","","","","","","","","","","","","","","","","","","","","","","","","","","","","","","","","","","","","","","","","","","","","","","","","","","","SYN106AAXX  01064 65319 32460 72204 10230 20212 39609 40119 84506 333 02100 20223 50314 55081 58005 84613 87276;","","","","","","","","","",""
"65319099999","2005-07-01T19:00:00","10.3166667","1.3833333","461.0","NATITINGOU, BN","FM-12","4","","75","83","","","","9","76","FEW:01 30 BKN:07 108","29.82","28.31","6.21","77","220","","7","","","","","","","","","","","","","","","","","","","","","","","","","","","","","","","","","","","","","","","","","","","","","","","","","","","","","","","","","","","","","","","","","","","","","","","","","","","","","","","","","","","","","","","","","","","SYN100AAXX  01184 65319 32560 72206 10285 20238 39587 40097 8193/ 333 10316 58001 81930 87361 91944 95874;","","","","","","","","","",""
"65319099999","2005-07-02T07:00:00","10.3166667","1.3833333","461.0","NATITINGOU, BN","FM-12","4","","72","76","","","","9","88","","29.91","28.40","6.21","73","000","","0","","","","","","","","","","","","","","","","","","","","","","","","","","","","","","","","","","","","","","","","","","","","","","","","","","","","","","","","","","","","","","","","","","","","","","","","","","","","","","","","","","","","","","","","","","","SYN100AAXX  02064 65319 32960 70000 10245 20223 39617 40127 8707/ 333 02100 20235 50404 55047 58008 87361;","","","","","","","","","",""
"65319099999","2005-07-03T01:00:00","10.3166667","1.3833333","461.0","NATITINGOU, BN","FM-12","4","","71","72","","||TS","","9","96","FEW:01 30 OVC:08 108","29.94","28.42","4.97","71","240","","5","","","","","","","","","","","","","","","","","","","","","","","","","","","","","","","","","","","","","","","","","","","","","","","","","","","","","","","","","","","","","","","","","","","","","","","","","","","","","","","","","","","","","","","","","","","SYN112AAXX  03004 65319 11558 82404 10225 20218 39624 40138 60441 79596 8197/ 333 0//55 58005 81930 88461 94942 95872;","","","","","","","","","",""
"65319099999","2005-07-03T13:00:00","10.3166667","1.3833333","461.0","NATITINGOU, BN","FM-12","4","","71","81","","","","9","71","BKN:07 108","29.96","28.45","6.21","74","240","","5","","","","","","","","","","","","","","","","","","","","","","","","","","","","","","","","","","","","","","","","","","","","","","","","","","","","","","","","","","","","","","","","","","","","","","","","","","","","","","","","","","","","","","","","","","","SYN082AAXX  03124 65319 32960 72404 10275 20217 39633 40147 8703/ 333 0//00 58015 87361;","","","","","","","","","",""
"65319099999","2005-07-03T19:00:00","10.3166667","1.3833333","461.0","NATITINGOU, BN","FM-12","4","","72","81","","","","9","76","SCT:03 108","29.89","28.38","6.21","75","000","","0","","","","","","","","","","","","","","","","","","","","","","","","","","","","","","","","","","","","","","","","","","","","","","","","","","","","","","","","","","","","","","","","","","","","","","","","","","","","","","","","","","","","","","","","","","","SYN088AAXX  03184 65319 32960 70000 10270 20224 39609 40122 83032 333 10295 58010 83361 85076;","","","","","","","","","",""
"65319099999","2005-07-04T01:00:00","10.3166667","1.3833333","461.0","NATITINGOU, BN","FM-12","4","","72","74","","","","9","91","BKN:05 256","29.93","28.42","6.21","73","000","","0","","","","","","","","","","","","","","","","","","","","","","","","","","","","","","","","","","","","","","","","","","","","","","","","","","","","","","","","","","","","","","","","","","","","","","","","","","","","","","","","","","","","","","","","","","","SYN082AAXX  04004 65319 33960 50000 10235 20220 39624 40137 80002 333 0//00 58000 85076;","","","","","","","","","",""
"65319099999","2005-07-04T13:00:00","10.3166667","1.3833333","461.0","NATITINGOU, BN","FM-12","4","","72","85","","","","9","65","FEW:01 13 SCT:04 20","29.93","28.42","6.21","76","240","","5","","","","","","","","","","","","","","","","","","","","","","","","","","","","","","","","","","","","","","","","","","","","","","","","","","","","","","","","","","","","","","","","","","","","","","","","","","","","","","","","","","","","","","","","","","","SYN100AAXX  04124 65319 32460 72404 10295 20223 39623 40134 84832 333 0//00 59010 81613 84820 94919 95839;","","","","","","","","","",""
"65319099999","2005-07-04T19:00:00","10.3166667","1.3833333","461.0","NATITINGOU, BN","FM-12","4","","75","84","","","","9","74","BKN:05 108","29.82","28.33","6.21","78","000","","0","","","","","","","","","","","","","","","","","","","","","","","","","","","","","","","","","","","","","","","","","","","","","","","","","","","","","","","","","","","","","","","","","","","","","","","","","","","","","","","","","","","","","","","","","","","SYN088AAXX  04184 65319 32960 70000 10290 20238 39592 40097 85032 333 10035 59017 85361 83076;","","","","","","","","","",""
"65319099999","2005-07-05T07:00:00","10.3166667","1.3833333","461.0","NATITINGOU, BN","FM-12","4","","73","74","","","","9","96","","29.88","28.37","6.21","73","000","","0","","","","","","","","","","","","","","","","","","","","","","","","","","","","","","","","","","","","","","","","","","","","","","","","","","","","","","","","","","","","","","","","","","","","","","","","","","","","","","","","","","","","","","","","","","","SYN100AAXX  05064 65319 32960 50000 10235 20228 39607 40117 80002 333 02000 20230 50644 55054 59013 85076;","","","","","","","","","",""
"65319099999","2005-07-05T13:00:00","10.3166667","1.3833333","461.0","NATITINGOU, BN","FM-12","4","","74","84","","","","9","73","SCT:03 13 BKN:05 20","29.91","28.40","6.21","77","220","","9","","","","","","","","","","","","","","","","","","","","","","","","","","","","","","","","","","","","","","","","","","","","","","","","","","","","","","","","","","","","","","","","","","","","","","","","","","","","","","","","","","","","","","","","","","","SYN100AAXX  05124 65319 32460 72208 10288 20234 39617 40127 878// 333 0//00 59006 83613 85820 94919 95839;","","","","","","","","","",""
"65319099999","2005-07-06T01:00:00","10.3166667","1.3833333","461.0","NATITINGOU, BN","FM-12","4","","71","76","","","","9","85","SCT:03 13","29.93","28.42","6.21","73","180","","5","","","","","","","","","","","","","","","","","","","","","","","","","","","","","","","","","","","","","","","","","","","","","","","","","","","","","","","","","","","","","","","","","","","","","","","","","","","","","","","","","","","","","","","","","","","SYN088AAXX  06004 65319 33460 71804 10245 20219 39624 40135 83502 333 0//00 58010 83613 85076;","","","","","","","","","",""
"65319099999","2005-07-06T07:00:00","10.3166667","1.3833333","461.0","NATITINGOU, BN","FM-12","4","","70","72","","","","9","93","","29.91","28.40","6.21","71","000","","0","","","","","","","","","","","","","","","","","","","","","","","","","","","","","","","","","","","","","","","","","","","","","","","","","","","","","","","","","","","","","","","","","","","","","","","","","","","","","","","","","","","","","","","","","","","SYN100AAXX  06064 65319 32960 50000 10223 20211 39616 40127 80002 333 02200 20217 50484 55061 58009 85076;","","","","","","","","","",""
"65319099999","2005-07-07T13:00:00","10.3166667","1.3833333","461.0","NATITINGOU, BN","FM-12","4","","73","81","","","","9","77","SCT:03 13 BKN:05 20","30.00","28.48","6.21","75","300","","2","","","","","","","","","","","","","","","","","","","","","","","","","","","","","","","","","","","","","","","","","","","","","","","","","","","","","","","","","","","","","","","","","","","","","","","","","","","","","","","","","","","","","","","","","","","SYN100AAXX  07124 65319 32460 73002 10270 20227 39643 40158 878// 333 0//00 58023 83613 85820 94919 95839;","","","","","","","","","",""
"65319099999","2005-07-08T01:00:00","10.3166667","1.3833333","461.0","NATITINGOU, BN","FM-12","4","","72","75","","","","9","91","BKN:05 256","29.93","28.41","6.21","73","000","","0","","","","","","","","","","","","","","","","","","","","","","","","","","","","","","","","","","","","","","","","","","","","","","","","","","","","","","","","","","","","","","","","","","","","","","","","","","","","","","","","","","","","","","","","","","","SYN082AAXX  08004 65319 33960 50000 10240 20225 39622 40135 80002 333 0//00 59005 85076;","","","","","","","","","",""
"65319099999","2005-07-08T13:00:00","10.3166667","1.3833333","461.0","NATITINGOU, BN","FM-12","4","","72","85","","","","9","65","FEW:02 13 BKN:06 20","29.91","28.40","6.21","76","000","","0","","","","","","","","","","","","","","","","","","","","","","","","","","","","","","","","","","","","","","","","","","","","","","","","","","","","","","","","","","","","","","","","","","","","","","","","","","","","","","","","","","","","","","","","","","","SYN100AAXX  08124 65319 32460 70000 10297 20225 39617 40127 87802 333 0//00 59026 82613 86820 94919 95839;","","","","","","","","","",""
"65319099999","2005-07-09T07:00:00","10.3166667","1.3833333","461.0","NATITINGOU, BN","FM-12","4","","72","73","","","","9","96","","29.89","28.38","6.21","72","020","","5","","","","","","","","","","","","","","","","","","","","","","","","","","","","","","","","","","","","","","","","","","","","","","","","","","","","","","","","","","","","","","","","","","","","","","","","","","","","","","","","","","","","","","","","","","","SYN106AAXX  09064 65319 12960 70204 10230 20223 39609 40121 69924 8707/ 333 02159 20230 50274 55032 59013 87361;","","","","","","","","","",""
"65319099999","2005-07-09T13:00:00","10.3166667","1.3833333","461.0","NATITINGOU, BN","FM-12","4","","73","82","","","","9","74","SCT:03 13 BKN:05 20","29.92","28.41","6.21","76","220","","14","","","","","","","","","","","","","","","","","","","","","","","","","","","","","","","","","","","","","","","","","","","","","","","","","","","","","","","","","","","","","","","","","","","","","","","","","","","","","","","","","","","","","","","","","","","SYN100AAXX  09124 65319 32460 72212 10280 20230 39621 40133 878// 333 0//00 58004 83613 85820 94919 95839;","","","","","","","","","",""
"65319099999","2005-07-09T19:00:00","10.3166667","1.3833333","461.0","NATITINGOU, BN","FM-12","4","","74","76","","","","9","95","BKN:07 108","29.87","28.35","6.21","75","200","","5","","","","","","","","","","","","","","","","","","","","","","","","","","","","","","","","","","","","","","","","","","","","","","","","","","","","","","","","","","","","","","","","","","","","","","","","","","","","","","","","","","","","","","","","","","","SYN094AAXX  09184 65319 11960 72004 10245 20236 39602 40116 60072 72996 8707/ 333 10290 58013 87361;","","","","","","","","","",""
"65319099999","2005-07-10T01:00:00","10.3166667","1.3833333","461.0","NATITINGOU, BN","FM-12","4","","72","73","","","","9","94","BKN:07 108","29.95","28.43","6.21","72","000","","0","","","","","","","","","","","","","","","","","","","","","","","","","","","","","","","","","","","","","","","","","","","","","","","","","","","","","","","","","","","","","","","","","","","","","","","","","","","","","","","","","","","","","","","","","","","SYN082AAXX  10004 65319 33960 70000 10230 20220 39629 40141 8707/ 333 0//00 58016 87361;","","","","","","","","","",""
"65319099999","2005-07-10T07:00:00","10.3166667","1.3833333","461.0","NATITINGOU, BN","FM-12","4","","71","73","","","","9","93","","29.95","28.42","6.21","72","000","","0","","","","","","","","","","","","","","","","","","","","","","","","","","","","","","","","","","","","","","","","","","","","","","","","","","","","","","","","","","","","","","","","","","","","","","","","","","","","","","","","","","","","","","","","","","","SYN106AAXX  10064 65319 12960 70000 10228 20216 39625 40141 60074 8707/ 333 02259 20220 50154 55028 58016 87361;","","","","","","","","","",""
"65319099999","2005-07-10T13:00:00","10.3166667","1.3833333","461.0","NATITINGOU, BN","FM-12","4","","73","78","","","","9","84","SCT:03 13 BKN:07 108","29.96","28.44","6.21","75","220","","5","","","","","","","","","","","","","","","","","","","","","","","","","","","","","","","","","","","","","","","","","","","","","","","","","","","","","","","","","","","","","","","","","","","","","","","","","","","","","","","","","","","","","","","","","","","SYN112AAXX  10124 65319 11460 72204 10255 20226 39632 40147 69901 72166 8487/ 333 0//11 58011 83613 87361 94903 95813;","","","","","","","","","",""
"65319099999","2005-07-10T19:00:00","10.3166667","1.3833333","461.0","NATITINGOU, BN","FM-12","4","","69","72","","||RA","","9","91","SCT:03 13","29.97","28.44","6.21","70","000","","0","","","","","","","","","","","","","","","","","","","","","","","","","","","","","","","","","","","","","","","","","","","","","","","","","","","","","","","","","","","","","","","","","","","","","","","","","","","","","","","","","","","","","","","","","","","SYN100AAXX  10184 65319 11460 70000 10220 20205 39632 40150 60012 76166 8357/ 333 10265 58030 83613 87361;","","","","","","","","","",""
"65319099999","2005-07-11T01:00:00","10.3166667","1.3833333","461.0","NATITINGOU, BN","FM-12","4","","70","72","","","","9","96","SCT:03 13","29.99","28.47","6.21","71","200","","5","","","","","","","","","","","","","","","","","","","","","","","","","","","","","","","","","","","","","","","","","","","","","","","","","","","","","","","","","","","","","","","","","","","","","","","","","","","","","","","","","","","","","","","","","","","SYN100AAXX  11004 65319 11460 72004 10220 20213 39640 40156 69941 70066 8357/ 333 0//16 58012 83613 87361;","","","","","","","","","",""
"65319099999","2005-07-11T07:00:00","10.3166667","1.3833333","461.0","NATITINGOU, BN","FM-12","4","","70","71","","","","9","96","SCT:03 13 SCT:03 108","30.01","28.47","6.21","70","000","","0","","","","","","","","","","","","","","","","","","","","","","","","","","","","","","","","","","","","","","","","","","","","","","","","","","","","","","","","","","","","","","","","","","","","","","","","","","","","","","","","","","","","","","","","","","","SYN119AAXX  11064 65319 12460 70000 10218 20211 39641 40161 60014 83532 333 01900 20215 50214 55000 58016 83613 83361 85076/;","","","","","","","","","",""
"65319099999","2005-07-11T13:00:00","10.3166667","1.3833333","461.0","NATITINGOU, BN","FM-12","4","","70","81","","","","9","69","SCT:03 20 BKN:05 256","30.01","28.49","6.21","73","240","","7","","","","","","","","","","","","","","","","","","","","","","","","","","","","","","","","","","","","","","","","","","","","","","","","","","","","","","","","","","","","","","","","","","","","","","","","","","","","","","","","","","","","","","","","","","","SYN112AAXX  11124 65319 11560 72406 10273 20210 39647 40162 69921 72166 83232 333 0//53 58015 83820 85076 94904 95814;","","","","","","","","","",""
"65319099999","2005-07-11T19:00:00","10.3166667","1.3833333","461.0","NATITINGOU, BN","FM-12","4","","71","81","","","","9","71","BKN:07 108","29.92","28.40","6.21","74","000","","0","","","","","","","","","","","","","","","","","","","","","","","","","","","","","","","","","","","","","","","","","","","","","","","","","","","","","","","","","","","","","","","","","","","","","","","","","","","","","","","","","","","","","","","","","","","SYN088AAXX  11184 65319 12960 70000 10275 20217 39619 40133 69922 8707/ 333 10292 59013 87361;","","","","","","","","","",""
"65319099999","2005-07-12T01:00:00","10.3166667","1.3833333","461.0","NATITINGOU, BN","FM-12","4","","72","74","","","","9","91","BKN:05 256","29.94","28.42","6.21","73","000","","0","","","","","","","","","","","","","","","","","","","","","","","","","","","","","","","","","","","","","","","","","","","","","","","","","","","","","","","","","","","","","","","","","","","","","","","","","","","","","","","","","","","","","","","","","","","SYN082AAXX  12004 65319 33960 50000 10235 20220 39625 40138 80002 333 0//00 59015 85076;","","","","","","","","","",""
"65319099999","2005-07-12T07:00:00","10.3166667","1.3833333","461.0","NATITINGOU, BN","FM-12","4","","69","72","","","","9","91","","29.93","28.43","6.21","70","000","","0","","","","","","","","","","","","","","","","","","","","","","","","","","","","","","","","","","","","","","","","","","","","","","","","","","","","","","","","","","","","","","","","","","","","","","","","","","","","","","","","","","","","","","","","","","","SYN106AAXX  12064 65319 12960 70000 10220 20205 39627 40134 69924 8707/ 333 02059 20210 50404 55065 59014 87361;","","","","","","","","","",""
"65319099999","2005-07-12T13:00:00","10.3166667","1.3833333","461.0","NATITINGOU, BN","FM-12","4","","72","86","","","","9","64","FEW:02 13 BKN:06 20","29.90","28.39","6.21","76","000","","0","","","","","","","","","","","","","","","","","","","","","","","","","","","","","","","","","","","","","","","","","","","","","","","","","","","","","","","","","","","","","","","","","","","","","","","","","","","","","","","","","","","","","","","","","","","SYN100AAXX  12124 65319 32460 70000 10300 20224 39615 40125 87802 333 0//00 59032 82613 86820 94919 95839;","","","","","","","","","",""
"65319099999","2005-07-13T01:00:00","10.3166667","1.3833333","461.0","NATITINGOU, BN","FM-12","4","","72","76","","","","9","90","FEW:01 30 BKN:05 256","29.88","28.38","6.21","73","000","","0","","","","","","","","","","","","","","","","","","","","","","","","","","","","","","","","","","","","","","","","","","","","","","","","","","","","","","","","","","","","","","","","","","","","","","","","","","","","","","","","","","","","","","","","","","","SYN106AAXX  13004 65319 33560 50000 10242 20225 39609 40118 713// 81902 333 0//00 59016 81930 85076 94943 95813;","","","","","","","","","",""
"65319099999","2005-07-13T07:00:00","10.3166667","1.3833333","461.0","NATITINGOU, BN","FM-12","4","","70","72","","","","9","91","SCT:03 13 FEW:01 30 BKN:07 108","29.89","28.38","4.97","71","200","","5","","","","","","","","","","","","","","","","","","","","","","","","","","","","","","","","","","","","","","","","","","","","","","","","","","","","","","","","","","","","","","","","","","","","","","","","","","","","","","","","","","","","","","","","","","","SYN136AAXX  13064 65319 11458 72004 10225 20210 39609 40122 60134 72996 8397/ 333 02051 20220 50404 55081 59018 83613 81930 87361 94943 95873;","","","","","","","","","",""
"65319099999","2005-07-15T13:00:00","10.3166667","1.3833333","461.0","NATITINGOU, BN","FM-12","4","","73","81","","","","9","77","FEW:01 13 BKN:05 20","29.99","28.47","6.21","75","240","","5","","","","","","","","","","","","","","","","","","","","","","","","","","","","","","","","","","","","","","","","","","","","","","","","","","","","","","","","","","","","","","","","","","","","","","","","","","","","","","","","","","","","","","","","","","","SYN100AAXX  15124 65319 32460 72404 10270 20227 39641 40156 85802 333 0//00 58044 81613 85820 94919 95839;","","","","","","","","","",""
"65319099999","2005-07-15T19:00:00","10.3166667","1.3833333","461.0","NATITINGOU, BN","FM-12","4","","74","84","","","","9","71","BKN:05 20 BKN:05 256","29.91","28.40","6.21","77","320","","7","","","","","","","","","","","","","","","","","","","","","","","","","","","","","","","","","","","","","","","","","","","","","","","","","","","","","","","","","","","","","","","","","","","","","","","","","","","","","","","","","","","","","","","","","","","SYN100AAXX  15184 65319 32560 73206 10290 20233 39618 40130 85202 333 10305 58026 85820 85076 94919 95839;","","","","","","","","","",""
"65319099999","2005-07-16T01:00:00","10.3166667","1.3833333","461.0","NATITINGOU, BN","FM-12","4","","74","76","","","","9","92","BKN:05 256","29.99","28.48","6.21","75","000","","0","","","","","","","","","","","","","","","","","","","","","","","","","","","","","","","","","","","","","","","","","","","","","","","","","","","","","","","","","","","","","","","","","","","","","","","","","","","","","","","","","","","","","","","","","","","SYN082AAXX  16004 65319 33960 50000 10245 20231 39643 40156 80002 333 0//00 58013 85076;","","","","","","","","","",""
"65319099999","2005-07-16T07:00:00","10.3166667","1.3833333","461.0","NATITINGOU, BN","FM-12","4","","72","75","","","","9","91","SCT:03 13","29.97","28.46","6.21","73","000","","0","","","","","","","","","","","","","","","","","","","","","","","","","","","","","","","","","","","","","","","","","","","","","","","","","","","","","","","","","","","","","","","","","","","","","","","","","","","","","","","","","","","","","","","","","","","SYN106AAXX  16064 65319 32460 70000 10240 20225 39638 40149 83532 333 02100 20230 50274 55063 58005 83613 85076;","","","","","","","","","",""
"65319099999","2005-07-16T13:00:00","10.3166667","1.3833333","461.0","NATITINGOU, BN","FM-12","4","","74","88","","","","9","62","FEW:01 13 SCT:04 20 BKN:05 256","29.91","28.41","6.21","78","280","","7","","","","","","","","","","","","","","","","","","","","","","","","","","","","","","","","","","","","","","","","","","","","","","","","","","","","","","","","","","","","","","","","","","","","","","","","","","","","","","","","","","","","","","","","","","","SYN106AAXX  16124 65319 32460 72806 10312 20231 39622 40130 84802 333 0//00 59019 81613 84820 85076 94919 95839;","","","","","","","","","",""
"65319099999","2005-07-16T19:00:00","10.3166667","1.3833333","461.0","NATITINGOU, BN","FM-12","4","","74","85","","","","9","69","SCT:03 13 SCT:04 20 FEW:01 30","29.86","28.36","6.21","77","300","","5","","","","","","","","","","","","","","","","","","","","","","","","","","","","","","","","","","","","","","","","","","","","","","","","","","","","","","","","","","","","","","","","","","","","","","","","","","","","","","","","","","","","","","","","","","","SYN112AAXX  16184 65319 32460 73004 10295 20231 39604 40113 8697/ 333 10325 59014 83613 84820 81930 87361 94944 95839;","","","","","","","","","",""
"65319099999","2005-07-17T07:00:00","10.3166667","1.3833333","461.0","NATITINGOU, BN","FM-12","4","","70","71","","||RA","","9","95","BKN:05 13 FEW:01 30 OVC:08 108","29.89","28.38","4.97","70","000","","0","","","","","","","","","","","","","","","","","","","","","","","","","","","","","","","","","","","","","","","","","","","","","","","","","","","","","","","","","","","","","","","","","","","","","","","","","","","","","","","","","","","","","","","","","","","SYN136AAXX  17064 65319 11458 80000 10218 20209 39611 40123 60214 79196 8597/ 333 02151 20210 50654 55000 59027 85613 81930 88461 94944 95873;","","","","","","","","","",""
"65319099999","2005-07-17T13:00:00","10.3166667","1.3833333","461.0","NATITINGOU, BN","FM-12","4","","72","81","","","","9","75","SCT:03 20 BKN:07 108","29.91","28.40","6.21","75","180","","7","","","","","","","","","","","","","","","","","","","","","","","","","","","","","","","","","","","","","","","","","","","","","","","","","","","","","","","","","","","","","","","","","","","","","","","","","","","","","","","","","","","","","","","","","","","SYN112AAXX  17124 65319 11560 71806 10270 20222 39617 40129 69911 70266 8327/ 333 0//55 59005 83820 87361 94906 95814;","","","","","","","","","",""
"65319099999","2005-07-17T19:00:00","10.3166667","1.3833333","461.0","NATITINGOU, BN","FM-12","4","","72","76","","","","9","88","BKN:07 108","29.84","28.32","6.21","73","000","","0","","","","","","","","","","","","","","","","","","","","","","","","","","","","","","","","","","","","","","","","","","","","","","","","","","","","","","","","","","","","","","","","","","","","","","","","","","","","","","","","","","","","","","","","","","","SYN094AAXX  17184 65319 11960 70000 10245 20223 39590 40105 60052 70166 8703/ 333 10277 59014 87361;","","","","","","","","","",""
"65319099999","2005-07-18T01:00:00","10.3166667","1.3833333","461.0","NATITINGOU, BN","FM-12","4","","71","73","","","","9","91","OVC:08 13","29.86","28.35","6.21","72","220","","5","","","","","","","","","","","","","","","","","","","","","","","","","","","","","","","","","","","","","","","","","","","","","","","","","","","","","","","","","","","","","","","","","","","","","","","","","","","","","","","","","","","","","","","","","","","SYN082AAXX  18004 65319 33460 82204 10230 20215 39599 40111 885// 333 0//00 59013 88613;","","","","","","","","","",""
"65319099999","2005-07-18T07:00:00","10.3166667","1.3833333","461.0","NATITINGOU, BN","FM-12","4","","71","72","","","","9","98","","29.86","28.34","6.21","71","000","","0","","","","","","","","","","","","","","","","","","","","","","","","","","","","","","","","","","","","","","","","","","","","","","","","","","","","","","","","","","","","","","","","","","","","","","","","","","","","","","","","","","","","","","","","","","","SYN106AAXX  18064 65319 12460 70000 10222 20219 39597 40112 60054 875// 333 02059 20215 50284 55016 59014 87613;","","","","","","","","","",""
"65319099999","2005-07-18T13:00:00","10.3166667","1.3833333","461.0","NATITINGOU, BN","FM-12","4","","71","81","","","","","71","","","","6.21","","220","","9","","","","","","","","","","","","","","","","","","","","","","","","","","","","","","","","","","","","","","","","","","","","","","","","","","","","","","","","","","","","","","","","","","","","","","","","","","","","","","","","","","","","","","","","","","","SYN087AAXX  18124 65319 32460 72208 10275 20217 0//00 3 39599 40110 59018 82613 84820 85 EEE;","","","","","","","","","",""
"65319099999","2005-07-19T13:00:00","10.3166667","1.3833333","461.0","NATITINGOU, BN","FM-12","4","","73","82","","","","9","74","FEW:01 13 BKN:05 20","29.93","28.42","6.21","76","300","","7","","","","","","","","","","","","","","","","","","","","","","","","","","","","","","","","","","","","","","","","","","","","","","","","","","","","","","","","","","","","","","","","","","","","","","","","","","","","","","","","","","","","","","","","","","","SYN106AAXX  19124 65319 31460 73006 10280 20230 39625 40136 70144 85802 333 0//00 58026 81613 85820 94919 95839;","","","","","","","","","",""
"65319099999","2005-07-19T19:00:00","10.3166667","1.3833333","461.0","NATITINGOU, BN","FM-12","4","","72","82","","","","9","71","SCT:03 20 BKN:05 256","29.85","28.34","6.21","75","280","","7","","","","","","","","","","","","","","","","","","","","","","","","","","","","","","","","","","","","","","","","","","","","","","","","","","","","","","","","","","","","","","","","","","","","","","","","","","","","","","","","","","","","","","","","","","","SYN106AAXX  19184 65319 31560 72806 10280 20222 39596 40107 72999 83202 333 10300 58015 83820 85076 94904 95814;","","","","","","","","","",""
"65319099999","2005-07-20T01:00:00","10.3166667","1.3833333","461.0","NATITINGOU, BN","FM-12","4","","73","78","","","","9","86","FEW:01 30 BKN:07 108","29.93","28.42","6.21","75","000","","0","","","","","","","","","","","","","","","","","","","","","","","","","","","","","","","","","","","","","","","","","","","","","","","","","","","","","","","","","","","","","","","","","","","","","","","","","","","","","","","","","","","","","","","","","","","SYN106AAXX  20004 65319 31560 70000 10253 20227 39624 40135 713// 8197/ 333 0//00 58005 81930 87361 94946 95876;","","","","","","","","","",""
"65319099999","2005-07-21T07:00:00","10.3166667","1.3833333","461.0","NATITINGOU, BN","FM-12","4","","69","72","","","","9","93","","29.86","28.35","4.97","70","000","","0","","","","","","","","","","","","","","","","","","","","","","","","","","","","","","","","","","","","","","","","","","","","","","","","","","","","","","","","","","","","","","","","","","","","","","","","","","","","","","","","","","","","","","","","","","","SYN112AAXX  21064 65319 11958 70000 10220 20208 39601 40113 60234 72166 8707/ 333 02152 20215 50194 55059 59025 87361;","","","","","","","","","",""
"65319099999","2005-07-21T13:00:00","10.3166667","1.3833333","461.0","NATITINGOU, BN","FM-12","4","","74","83","","","","9","74","FEW:01 13 BKN:05 20","29.89","28.38","6.21","77","180","","5","","","","","","","","","","","","","","","","","","","","","","","","","","","","","","","","","","","","","","","","","","","","","","","","","","","","","","","","","","","","","","","","","","","","","","","","","","","","","","","","","","","","","","","","","","","SYN100AAXX  21124 65319 32460 71804 10285 20235 39612 40123 85832 333 0//00 58001 81613 85820 94919 95839;","","","","","","","","","",""
"65319099999","2005-07-21T19:00:00","10.3166667","1.3833333","461.0","NATITINGOU, BN","FM-12","4","","74","81","","","","9","81","FEW:02 20 FEW:01 30 BKN:05 256","29.88","28.36","6.21","76","220","","5","","","","","","","","","","","","","","","","","","","","","","","","","","","","","","","","","","","","","","","","","","","","","","","","","","","","","","","","","","","","","","","","","","","","","","","","","","","","","","","","","","","","","","","","","","","SYN118AAXX  21184 65319 11560 72204 10270 20234 39604 40117 69952 70366 82902 333 10295 58015 82820 81930 85076 94944 95874;","","","","","","","","","",""
"65319099999","2005-07-22T19:00:00","10.3166667","1.3833333","461.0","NATITINGOU, BN","FM-12","4","","72","74","","||TS","","9","91","BKN:05 13 FEW:02 30 OVC:08 108","29.90","28.38","4.97","73","000","","0","","","","","","","","","","","","","","","","","","","","","","","","","","","","","","","","","","","","","","","","","","","","","","","","","","","","","","","","","","","","","","","","","","","","","","","","","","","","","","","","","","","","","","","","","","","SYN118AAXX  22184 65319 11458 80000 10235 20220 39609 40125 60142 71796 8697/ 333 10310 58000 85613 82930 88461 94949 95879;","","","","","","","","","",""
"65319099999","2005-07-23T07:00:00","10.3166667","1.3833333","461.0","NATITINGOU, BN","FM-12","4","","70","72","","||FG","","9","96","FEW:01 13 FEW:01 30 SCT:03 108","29.92","28.39","0.19","71","000","","0","","","","","","","","","","","","","","","","","","","","","","","","","","","","","","","","","","","","","","","","","","","","","","","","","","","","","","","","","","","","","","","","","","","","","","","","","","","","","","","","","","","","","","","","","","","SYN142AAXX  23064 65319 11403 70000 10220 20213 39615 40132 60164 74664 83932 333 02100 20215 50484 55078 59009 81613 83361 85076 81930 94944 95832;","","","","","","","","","",""
"65319099999","2005-07-23T13:00:00","10.3166667","1.3833333","461.0","NATITINGOU, BN","FM-12","4","","74","85","","","","9","69","SCT:04 20 BKN:05 256","29.91","28.40","6.21","77","220","","5","","","","","","","","","","","","","","","","","","","","","","","","","","","","","","","","","","","","","","","","","","","","","","","","","","","","","","","","","","","","","","","","","","","","","","","","","","","","","","","","","","","","","","","","","","","SYN106AAXX  23124 65319 31560 72204 10295 20231 39617 40127 70344 84202 333 0//00 59004 84820 85076 94919 95839;","","","","","","","","","",""
"65319099999","2005-07-23T19:00:00","10.3166667","1.3833333","461.0","NATITINGOU, BN","FM-12","4","","72","77","","||TS","","9","84","FEW:01 30 BKN:07 108","29.88","28.36","6.21","74","000","","0","","","","","","","","","","","","","","","","","","","","","","","","","","","","","","","","","","","","","","","","","","","","","","","","","","","","","","","","","","","","","","","","","","","","","","","","","","","","","","","","","","","","","","","","","","","SYN112AAXX  23184 65319 11960 70000 10250 20221 39605 40120 60022 79596 8197/ 333 10312 59004 81930 87361 94944 95874;","","","","","","","","","",""
"65319099999","2005-07-24T07:00:00","10.3166667","1.3833333","461.0","NATITINGOU, BN","FM-12","4","","72","73","","","","9","96","SCT:04 13","29.91","28.39","6.21","72","000","","0","","","","","","","","","","","","","","","","","","","","","","","","","","","","","","","","","","","","","","","","","","","","","","","","","","","","","","","","","","","","","","","","","","","","","","","","","","","","","","","","","","","","","","","","","","","SYN112AAXX  24064 65319 12460 70000 10230 20223 39615 40130 60024 8457/ 333 02159 20225 50344 55074 58000 84613 87361;","","","","","","","","","",""
"65319099999","2005-07-24T19:00:00","10.3166667","1.3833333","461.0","NATITINGOU, BN","FM-12","4","","76","82","","||TS","","9","81","SCT:04 13 FEW:01 30 SCT:03 108","29.82","28.31","6.21","78","000","","0","","","","","","","","","","","","","","","","","","","","","","","","","","","","","","","","","","","","","","","","","","","","","","","","","","","","","","","","","","","","","","","","","","","","","","","","","","","","","","","","","","","","","","","","","","","SYN118AAXX  24184 65319 11460 70000 10280 20245 39587 40098 69942 71799 84932 333 10325 59018 84613 81930 83361 94948 95878;","","","","","","","","","",""
"65319099999","2005-07-25T01:00:00","10.3166667","1.3833333","461.0","NATITINGOU, BN","FM-12","4","","70","72","","||RA","","9","91","FEW:01 30 OVC:08 108","29.98","28.47","4.97","71","000","","0","","","","","","","","","","","","","","","","","","","","","","","","","","","","","","","","","","","","","","","","","","","","","","","","","","","","","","","","","","","","","","","","","","","","","","","","","","","","","","","","","","","","","","","","","","","SYN112AAXX  25004 65319 11558 80000 10225 20210 39640 40152 60041 76196 8197/ 333 0//16 58021 81930 88461 94943 95873;","","","","","","","","","",""
"65319099999","2005-07-25T07:00:00","10.3166667","1.3833333","461.0","NATITINGOU, BN","FM-12","4","","69","70","","","","9","99","BKN:05 13 FEW:01 30 BKN:07 108","29.87","28.36","4.97","69","200","","7","","","","","","","","","","","","","","","","","","","","","","","","","","","","","","","","","","","","","","","","","","","","","","","","","","","","","","","","","","","","","","","","","","","","","","","","","","","","","","","","","","","","","","","","","","","SYN130AAXX  25064 65319 11458 72006 10210 20208 39604 40116 60054 70296 8597/ 333 02054 20210 55078 59011 85613 81930 87361 94944 95874;","","","","","","","","","",""
"65319099999","2005-07-25T19:00:00","10.3166667","1.3833333","461.0","NATITINGOU, BN","FM-12","4","","77","83","","","","9","81","SCT:03 20 FEW:01 30 BKN:05 256","29.85","28.29","6.21","79","220","","5","","","","","","","","","","","","","","","","","","","","","","","","","","","","","","","","","","","","","","","","","","","","","","","","","","","","","","","","","","","","","","","","","","","","","","","","","","","","","","","","","","","","","","","","","","","SYN106AAXX  25184 65319 32560 72204 10285 20250 39579 40109 83902 333 10305 58010 83820 81930 85076 94944 95874;","","","","","","","","","",""
"65319099999","2005-07-26T19:00:00","10.3166667","1.3833333","461.0","NATITINGOU, BN","FM-12","4","","74","83","","","","9","74","FEW:01 13 SCT:03 20 BKN:05 256","29.85","28.34","6.21","77","220","","9","","","","","","","","","","","","","","","","","","","","","","","","","","","","","","","","","","","","","","","","","","","","","","","","","","","","","","","","","","","","","","","","","","","","","","","","","","","","","","","","","","","","","","","","","","","SYN106AAXX  26184 65319 32460 72208 10282 20232 39597 40107 83802 333 10302 58000 81613 83820 85076 94913 95837;","","","","","","","","","",""
"65319099999","2005-07-27T07:00:00","10.3166667","1.3833333","461.0","NATITINGOU, BN","FM-12","4","","72","74","","","","9","94","FEW:02 13","29.93","28.38","6.21","73","000","","0","","","","","","","","","","","","","","","","","","","","","","","","","","","","","","","","","","","","","","","","","","","","","","","","","","","","","","","","","","","","","","","","","","","","","","","","","","","","","","","","","","","","","","","","","","","SYN106AAXX  27064 65319 32460 70000 10232 20222 39611 40134 8257/ 333 02200 20230 50424 55055 58000 82613 87361;","","","","","","","","","",""
"65319099999","2005-07-27T13:00:00","10.3166667","1.3833333","461.0","NATITINGOU, BN","FM-12","4","","74","84","","","","9","71","FEW:02 13 BKN:05 20","29.93","28.42","6.21","77","300","","7","","","","","","","","","","","","","","","","","","","","","","","","","","","","","","","","","","","","","","","","","","","","","","","","","","","","","","","","","","","","","","","","","","","","","","","","","","","","","","","","","","","","","","","","","","","SYN100AAXX  27124 65319 32460 73006 10290 20233 39625 40135 86802 333 0//00 59013 82613 85820 94919 95839;","","","","","","","","","",""
"65319099999","2005-07-27T19:00:00","10.3166667","1.3833333","461.0","NATITINGOU, BN","FM-12","4","","74","84","","","","9","71","FEW:02 20 FEW:01 30 BKN:05 256","29.85","28.34","6.21","77","220","","5","","","","","","","","","","","","","","","","","","","","","","","","","","","","","","","","","","","","","","","","","","","","","","","","","","","","","","","","","","","","","","","","","","","","","","","","","","","","","","","","","","","","","","","","","","","SYN106AAXX  27184 65319 32560 72204 10290 20233 39597 40107 82902 333 10310 58000 82820 81930 85076 94944 95874;","","","","","","","","","",""
"65319099999","2005-07-28T01:00:00","10.3166667","1.3833333","461.0","NATITINGOU, BN","FM-12","4","","72","77","","","","9","86","BKN:05 256","29.91","28.40","6.21","74","200","","2","","","","","","","","","","","","","","","","","","","","","","","","","","","","","","","","","","","","","","","","","","","","","","","","","","","","","","","","","","","","","","","","","","","","","","","","","","","","","","","","","","","","","","","","","","","SYN082AAXX  28004 65319 33960 52002 10250 20225 39617 40127 80002 333 0//00 59010 85076;","","","","","","","","","",""
"65319099999","2005-08-03T13:00:00","10.3166667","1.3833333","461.0","NATITINGOU, BN","FM-12","4","","72","79","","","","9","81","SCT:03 13 BKN:05 20","29.93","28.41","6.21","74","220","","5","","","","","","","","","","","","","","","","","","","","","","","","","","","","","","","","","","","","","","","","","","","","","","","","","","","","","","","","","","","","","","","","","","","","","","","","","","","","","","","","","","","","","","","","","","","SYN112AAXX  03124 65319 11460 72204 10260 20224 39622 40136 60021 70396 878// 333 0//53 58013 83613 85820 94919 95839;","","","","","","","","","",""
"65319099999","2005-08-04T01:00:00","10.3166667","1.3833333","461.0","NATITINGOU, BN","FM-12","4","","72","74","","","","9","91","SCT:03 13","29.91","28.39","6.21","73","220","","5","","","","","","","","","","","","","","","","","","","","","","","","","","","","","","","","","","","","","","","","","","","","","","","","","","","","","","","","","","","","","","","","","","","","","","","","","","","","","","","","","","","","","","","","","","","SYN088AAXX  04004 65319 33460 72204 10235 20220 39614 40127 83502 333 0//00 58005 83613 85076;","","","","","","","","","",""
"65319099999","2005-08-04T07:00:00","10.3166667","1.3833333","461.0","NATITINGOU, BN","FM-12","4","","71","72","","","","9","96","SCT:03 13","29.91","28.39","6.21","71","000","","0","","","","","","","","","","","","","","","","","","","","","","","","","","","","","","","","","","","","","","","","","","","","","","","","","","","","","","","","","","","","","","","","","","","","","","","","","","","","","","","","","","","","","","","","","","","SYN112AAXX  04064 65319 12460 70000 10225 20218 39615 40128 60024 83502 333 02059 20215 50224 55038 58016 83613 85076;","","","","","","","","","",""
"65319099999","2005-08-04T13:00:00","10.3166667","1.3833333","461.0","NATITINGOU, BN","FM-12","4","","73","82","","","","9","73","FEW:02 13 SCT:04 20 BKN:07 108","29.92","28.41","6.21","76","280","","5","","","","","","","","","","","","","","","","","","","","","","","","","","","","","","","","","","","","","","","","","","","","","","","","","","","","","","","","","","","","","","","","","","","","","","","","","","","","","","","","","","","","","","","","","","","SYN106AAXX  04124 65319 32460 72804 10280 20227 39620 40132 8683/ 333 0//00 59002 82613 84820 87361 94919 95839;","","","","","","","","","",""
"65319099999","2005-08-04T19:00:00","10.3166667","1.3833333","461.0","NATITINGOU, BN","FM-12","4","","74","82","","","","9","76","FEW:01 13 SCT:03 108","29.88","28.37","6.21","76","280","","5","","","","","","","","","","","","","","","","","","","","","","","","","","","","","","","","","","","","","","","","","","","","","","","","","","","","","","","","","","","","","","","","","","","","","","","","","","","","","","","","","","","","","","","","","","","SYN094AAXX  04184 65319 32460 72804 10280 20233 39608 40120 81532 333 10297 58011 81613 83361 85076;","","","","","","","","","",""
"65319099999","2005-08-05T01:00:00","10.3166667","1.3833333","461.0","NATITINGOU, BN","FM-12","4","","74","76","","","","9","92","BKN:07 108","29.93","28.41","6.21","75","000","","0","","","","","","","","","","","","","","","","","","","","","","","","","","","","","","","","","","","","","","","","","","","","","","","","","","","","","","","","","","","","","","","","","","","","","","","","","","","","","","","","","","","","","","","","","","","SYN082AAXX  05004 65319 33960 70000 10244 20231 39622 40134 8707/ 333 0//00 58008 87361;","","","","","","","","","",""
"65319099999","2005-08-05T07:00:00","10.3166667","1.3833333","461.0","NATITINGOU, BN","FM-12","4","","72","74","","","","9","94","SCT:03 108","29.88","28.37","6.21","73","000","","0","","","","","","","","","","","","","","","","","","","","","","","","","","","","","","","","","","","","","","","","","","","","","","","","","","","","","","","","","","","","","","","","","","","","","","","","","","","","","","","","","","","","","","","","","","","SYN118AAXX  05064 65319 11960 70000 10234 20224 39608 40120 69954 70166 83032 333 02051 20226 50284 55059 59007 83361 85076;","","","","","","","","","",""
"65319099999","2005-08-05T19:00:00","10.3166667","1.3833333","461.0","NATITINGOU, BN","FM-12","4","","74","83","","","","9","74","FEW:02 13","29.82","28.31","6.21","77","220","","5","","","","","","","","","","","","","","","","","","","","","","","","","","","","","","","","","","","","","","","","","","","","","","","","","","","","","","","","","","","","","","","","","","","","","","","","","","","","","","","","","","","","","","","","","","","SYN088AAXX  05184 65319 32460 72204 10285 20235 39587 40097 82532 333 10294 59021 82613 85361;","","","","","","","","","",""
"65319099999","2005-08-06T01:00:00","10.3166667","1.3833333","461.0","NATITINGOU, BN","FM-12","4","","74","77","","","","9","89","BKN:05 256","29.86","28.35","6.21","75","220","","5","","","","","","","","","","","","","","","","","","","","","","","","","","","","","","","","","","","","","","","","","","","","","","","","","","","","","","","","","","","","","","","","","","","","","","","","","","","","","","","","","","","","","","","","","","","SYN082AAXX  06004 65319 33960 52204 10252 20232 39602 40112 80002 333 0//00 59020 85076;","","","","","","","","","",""
"65319099999","2005-08-06T07:00:00","10.3166667","1.3833333","461.0","NATITINGOU, BN","FM-12","4","","72","74","","","","9","91","","29.86","28.35","6.21","73","200","","5","","","","","","","","","","","","","","","","","","","","","","","","","","","","","","","","","","","","","","","","","","","","","","","","","","","","","","","","","","","","","","","","","","","","","","","","","","","","","","","","","","","","","","","","","","","SYN100AAXX  06064 65319 32460 72004 10235 20220 39601 40112 875// 333 02100 20230 50354 55048 59007 87613;","","","","","","","","","",""
"65319099999","2005-08-06T19:00:00","10.3166667","1.3833333","461.0","NATITINGOU, BN","FM-12","4","","74","81","","","","9","79","BKN:05 108","29.85","28.35","6.21","76","280","","5","","","","","","","","","","","","","","","","","","","","","","","","","","","","","","","","","","","","","","","","","","","","","","","","","","","","","","","","","","","","","","","","","","","","","","","","","","","","","","","","","","","","","","","","","","","SYN088AAXX  06184 65319 32960 72804 10270 20231 39599 40110 85032 333 10282 58012 85361 83076;","","","","","","","","","",""
"65319099999","2005-08-07T01:00:00","10.3166667","1.3833333","461.0","NATITINGOU, BN","FM-12","4","","71","76","","","","9","86","BKN:07 108","29.91","28.39","6.21","73","220","","9","","","","","","","","","","","","","","","","","","","","","","","","","","","","","","","","","","","","","","","","","","","","","","","","","","","","","","","","","","","","","","","","","","","","","","","","","","","","","","","","","","","","","","","","","","","SYN082AAXX  07004 65319 33960 72208 10242 20217 39615 40128 8707/ 333 0//00 58013 87361;","","","","","","","","","",""
"65319099999","2005-08-07T07:00:00","10.3166667","1.3833333","461.0","NATITINGOU, BN","FM-12","4","","71","73","","","","9","91","SCT:03 13","29.89","28.38","6.21","72","220","","7","","","","","","","","","","","","","","","","","","","","","","","","","","","","","","","","","","","","","","","","","","","","","","","","","","","","","","","","","","","","","","","","","","","","","","","","","","","","","","","","","","","","","","","","","","","SYN106AAXX  07064 65319 32460 72206 10230 20215 39609 40121 8357/ 333 02200 20225 50214 55017 58008 83613 87361;","","","","","","","","","",""
"65319099999","2005-08-07T13:00:00","10.3166667","1.3833333","461.0","NATITINGOU, BN","FM-12","4","","70","81","","","","9","71","SCT:04 13","29.91","28.40","6.21","73","220","","9","","","","","","","","","","","","","","","","","","","","","","","","","","","","","","","","","","","","","","","","","","","","","","","","","","","","","","","","","","","","","","","","","","","","","","","","","","","","","","","","","","","","","","","","","","","SYN088AAXX  07124 65319 32460 72208 10270 20212 39616 40129 8453/ 333 0//00 59004 84613 87361;","","","","","","","","","",""
"65319099999","2005-08-07T19:00:00","10.3166667","1.3833333","461.0","NATITINGOU, BN","FM-12","4","","73","81","","","","9","76","BKN:07 256","29.85","28.33","6.21","75","220","","5","","","","","","","","","","","","","","","","","","","","","","","","","","","","","","","","","","","","","","","","","","","","","","","","","","","","","","","","","","","","","","","","","","","","","","","","","","","","","","","","","","","","","","","","","","","SYN082AAXX  07184 65319 32960 72204 10274 20228 39595 40107 80006 333 10288 59004 87276;","","","","","","","","","",""
"65319099999","2005-08-08T01:00:00","10.3166667","1.3833333","461.0","NATITINGOU, BN","FM-12","4","","72","75","","","","9","91","BKN:05 256","29.94","28.42","6.21","73","220","","5","","","","","","","","","","","","","","","","","","","","","","","","","","","","","","","","","","","","","","","","","","","","","","","","","","","","","","","","","","","","","","","","","","","","","","","","","","","","","","","","","","","","","","","","","","","SYN082AAXX  08004 65319 33960 52204 10238 20222 39625 40138 80002 333 0//00 58010 85076;","","","","","","","","","",""
"65319099999","2005-08-08T07:00:00","10.3166667","1.3833333","461.0","NATITINGOU, BN","FM-12","4","","70","72","","","","9","94","FEW:02 13","29.91","28.39","6.21","71","220","","5","","","","","","","","","","","","","","","","","","","","","","","","","","","","","","","","","","","","","","","","","","","","","","","","","","","","","","","","","","","","","","","","","","","","","","","","","","","","","","","","","","","","","","","","","","","SYN106AAXX  08064 65319 32460 72204 10223 20213 39615 40128 82532 333 02200 20215 50294 55011 58006 82613 85076;","","","","","","","","","",""
"65319099999","2005-08-08T13:00:00","10.3166667","1.3833333","461.0","NATITINGOU, BN","FM-12","4","","72","82","","","","9","71","SCT:03 13 SCT:04 20","29.91","28.40","6.21","75","220","","9","","","","","","","","","","","","","","","","","","","","","","","","","","","","","","","","","","","","","","","","","","","","","","","","","","","","","","","","","","","","","","","","","","","","","","","","","","","","","","","","","","","","","","","","","","","SYN112AAXX  08124 65319 32460 72208 10280 20222 39619 40130 86802 333 0//00 58003 83613 84820 94964646464 CQ CQ CQ DE;","","","","","","","","","",""
"65319099999","2005-08-08T19:00:00","10.3166667","1.3833333","461.0","NATITINGOU, BN","FM-12","4","","72","81","","","","9","75","FEW:02 13 SCT:03 20 BKN:05 256","29.86","28.35","6.21","75","240","","5","","","","","","","","","","","","","","","","","","","","","","","","","","","","","","","","","","","","","","","","","","","","","","","","","","","","","","","","","","","","","","","","","","","","","","","","","","","","","","","","","","","","","","","","","","","SYN106AAXX  08184 65319 32460 72404 10272 20223 39599 40111 84832 333 10295 58004 82613 83820 85076 94916 95831;","","","","","","","","","",""
"65319099999","2005-08-09T01:00:00","10.3166667","1.3833333","461.0","NATITINGOU, BN","FM-12","4","","72","74","","","","9","91","BKN:05 13 FEW:01 30 SCT:03 256","29.93","28.41","6.21","73","000","","0","","","","","","","","","","","","","","","","","","","","","","","","","","","","","","","","","","","","","","","","","","","","","","","","","","","","","","","","","","","","","","","","","","","","","","","","","","","","","","","","","","","","","","","","","","","SYN118AAXX  09004 65319 11460 70000 10235 20220 39622 40134 69931 72166 85902 333 0//51 58006 85613 81930 83076 94943 95833;","","","","","","","","","",""
"65319099999","2005-08-09T13:00:00","10.3166667","1.3833333","461.0","NATITINGOU, BN","FM-12","4","","72","80","","","","9","77","SCT:03 13 BKN:05 20","29.96","28.45","6.21","74","200","","7","","","","","","","","","","","","","","","","","","","","","","","","","","","","","","","","","","","","","","","","","","","","","","","","","","","","","","","","","","","","","","","","","","","","","","","","","","","","","","","","","","","","","","","","","","","SYN112AAXX  09124 65319 11460 72006 10265 20221 39633 40147 69901 70366 878// 333 0//55 58014 83613 85820 94919 95839;","","","","","","","","","",""
"65319099999","2005-08-09T19:00:00","10.3166667","1.3833333","461.0","NATITINGOU, BN","FM-12","4","","74","81","","","","9","81","FEW:02 13 SCT:03 20 BKN:05 108","29.90","28.38","6.21","76","000","","0","","","","","","","","","","","","","","","","","","","","","","","","","","","","","","","","","","","","","","","","","","","","","","","","","","","","","","","","","","","","","","","","","","","","","","","","","","","","","","","","","","","","","","","","","","","SYN112AAXX  09184 65319 12460 70000 10270 20234 39612 40126 69902 84832 333 10282 58013 82613 83820 85361 94905 95816;","","","","","","","","","",""
"65319099999","2005-08-10T07:00:00","10.3166667","1.3833333","461.0","NATITINGOU, BN","FM-12","4","","72","73","","","","9","94","FEW:02 108","29.94","28.43","6.21","72","000","","0","","","","","","","","","","","","","","","","","","","","","","","","","","","","","","","","","","","","","","","","","","","","","","","","","","","","","","","","","","","","","","","","","","","","","","","","","","","","","","","","","","","","","","","","","","","SYN112AAXX  10064 65319 12960 70000 10230 20220 39626 40140 69904 82036 333 02000 20224 50204 55006 58006 82361 87276;","","","","","","","","","",""
"65319099999","2005-08-10T13:00:00","10.3166667","1.3833333","461.0","NATITINGOU, BN","FM-12","4","","73","82","","","","9","74","FEW:01 13 BKN:05 20 BKN:07 108","29.94","28.43","6.21","76","280","","5","","","","","","","","","","","","","","","","","","","","","","","","","","","","","","","","","","","","","","","","","","","","","","","","","","","","","","","","","","","","","","","","","","","","","","","","","","","","","","","","","","","","","","","","","","","SYN106AAXX  10124 65319 32460 72804 10280 20230 39628 40140 8583/ 333 0//00 59005 81613 85820 87361 94919 95839;","","","","","","","","","",""
"65319099999","2005-08-10T19:00:00","10.3166667","1.3833333","461.0","NATITINGOU, BN","FM-12","4","","72","81","","","","9","73","FEW:01 13 SCT:03 108 BKN:05 256","29.87","28.36","6.21","75","000","","0","","","","","","","","","","","","","","","","","","","","","","","","","","","","","","","","","","","","","","","","","","","","","","","","","","","","","","","","","","","","","","","","","","","","","","","","","","","","","","","","","","","","","","","","","","","SYN106AAXX  10184 65319 32460 70000 10275 20223 39604 40116 82832 333 10292 59008 81613 83361 85076 94919 95838;","","","","","","","","","",""
"65319099999","2005-08-11T13:00:00","10.3166667","1.3833333","461.0","NATITINGOU, BN","FM-12","4","","74","85","","","","9","69","FEW:02 13 BKN:05 20","29.87","28.36","6.21","77","240","","9","","","","","","","","","","","","","","","","","","","","","","","","","","","","","","","","","","","","","","","","","","","","","","","","","","","","","","","","","","","","","","","","","","","","","","","","","","","","","","","","","","","","","","","","","","","SYN100AAXX  11124 65319 32460 72408 10295 20231 39605 40115 86802 333 0//00 59023 82613 85820 94919 95839;","","","","","","","","","",""
"65319099999","2005-08-11T19:00:00","10.3166667","1.3833333","461.0","NATITINGOU, BN","FM-12","4","","76","81","","||TS","","9","85","FEW:02 13 SCT:03 20 FEW:01 30","29.79","28.29","6.21","77","000","","0","","","","","","","","","","","","","","","","","","","","","","","","","","","","","","","","","","","","","","","","","","","","","","","","","","","","","","","","","","","","","","","","","","","","","","","","","","","","","","","","","","","","","","","","","","","SYN124AAXX  11184 65319 11460 70000 10272 20245 39579 40089 60062 71796 84902 333 10310 59025 82613 83820 81930 85076 94942 95837;","","","","","","","","","",""
"65319099999","2005-08-12T01:00:00","10.3166667","1.3833333","461.0","NATITINGOU, BN","FM-12","4","","74","77","","","","9","92","BKN:05 256","29.83","28.33","6.21","75","000","","0","","","","","","","","","","","","","","","","","","","","","","","","","","","","","","","","","","","","","","","","","","","","","","","","","","","","","","","","","","","","","","","","","","","","","","","","","","","","","","","","","","","","","","","","","","","SYN082AAXX  12004 65319 33960 50000 10250 20236 39593 40101 80002 333 0//00 59021 85076;","","","","","","","","","",""
"65319099999","2005-08-12T07:00:00","10.3166667","1.3833333","461.0","NATITINGOU, BN","FM-12","4","","74","76","","","","9","94","","29.84","28.33","6.21","75","200","","5","","","","","","","","","","","","","","","","","","","","","","","","","","","","","","","","","","","","","","","","","","","","","","","","","","","","","","","","","","","","","","","","","","","","","","","","","","","","","","","","","","","","","","","","","","","SYN106AAXX  12064 65319 12460 72004 10242 20232 39594 40105 60064 875// 333 02100 20235 50374 55072 59016 87613;","","","","","","","","","",""
"65319099999","2005-08-12T13:00:00","10.3166667","1.3833333","461.0","NATITINGOU, BN","FM-12","4","","68","70","","||TS","","9","95","FEW:01 30 OVC:08 344","29.91","28.38","6.21","69","040","","5","","","","","","","","","","","","","","","","","","","","","","","","","","","","","","","","","","","","","","","","","","","","","","","","","","","","","","","","","","","","","","","","","","","","","","","","","","","","","","","","","","","","","","","","","","","SYN112AAXX  12124 65319 11560 80404 10210 20202 39612 40129 60351 79596 8197/ 333 0//51 58007 81930 88481 94944 95874;","","","","","","","","","",""
"65319099999","2005-08-12T19:00:00","10.3166667","1.3833333","461.0","NATITINGOU, BN","FM-12","4","","70","72","","","","9","96","SCT:03 13 SCT:03 108","29.78","28.26","6.21","71","200","","5","","","","","","","","","","","","","","","","","","","","","","","","","","","","","","","","","","","","","","","","","","","","","","","","","","","","","","","","","","","","","","","","","","","","","","","","","","","","","","","","","","","","","","","","","","","SYN106AAXX  12184 65319 11460 72004 10220 20213 39571 40085 60412 70196 83532 333 10245 59008 83613 83361 85076;","","","","","","","","","",""
"65319099999","2005-08-13T01:00:00","10.3166667","1.3833333","461.0","NATITINGOU, BN","FM-12","4","","71","72","","","","9","96","BKN:07 13","29.88","28.35","6.21","71","200","","5","","","","","","","","","","","","","","","","","","","","","","","","","","","","","","","","","","","","","","","","","","","","","","","","","","","","","","","","","","","","","","","","","","","","","","","","","","","","","","","","","","","","","","","","","","","SYN082AAXX  13004 65319 32460 72004 10222 20215 39600 40119 875// 333 0//00 58007 87613;","","","","","","","","","",""
"65319099999","2005-08-13T07:00:00","10.3166667","1.3833333","461.0","NATITINGOU, BN","FM-12","4","","71","72","","","","9","98","SCT:03 13","29.90","28.37","6.21","71","000","","0","","","","","","","","","","","","","","","","","","","","","","","","","","","","","","","","","","","","","","","","","","","","","","","","","","","","","","","","","","","","","","","","","","","","","","","","","","","","","","","","","","","","","","","","","","","SYN112AAXX  13064 65319 12460 70000 10220 20217 39608 40126 60414 8357/ 333 01959 20210 50184 55000 58014 83613 87361;","","","","","","","","","",""
"65319099999","2005-08-13T13:00:00","10.3166667","1.3833333","461.0","NATITINGOU, BN","FM-12","4","","72","80","","","","9","75","FEW:02 13 SCT:03 20 BKN:05 256","29.91","28.40","6.21","74","220","","11","","","","","","","","","","","","","","","","","","","","","","","","","","","","","","","","","","","","","","","","","","","","","","","","","","","","","","","","","","","","","","","","","","","","","","","","","","","","","","","","","","","","","","","","","","","SYN106AAXX  13124 65319 32460 72210 10269 20220 39616 40130 84832 333 0//00 58004 82613 83820 85076 94919 95839;","","","","","","","","","",""
"65319099999","2005-08-13T19:00:00","10.3166667","1.3833333","461.0","NATITINGOU, BN","FM-12","4","","72","79","","","","9","80","FEW:01 13 SCT:03 108 BKN:05 256","29.87","28.35","6.21","74","220","","7","","","","","","","","","","","","","","","","","","","","","","","","","","","","","","","","","","","","","","","","","","","","","","","","","","","","","","","","","","","","","","","","","","","","","","","","","","","","","","","","","","","","","","","","","","","SYN106AAXX  13184 65319 32460 72206 10261 20223 39602 40116 81832 333 10288 58031 81613 83361 85076 94906 95816;","","","","","","","","","",""
"65319099999","2005-08-14T04:00:00","10.3166667","1.3833333","461.0","NATITINGOU, BN","FM-12","4","","70","72","","","","9","95","BKN:07 108","29.89","28.38","6.21","71","000","","0","","","","","","","","","","","","","","","","","","","","","","","","","","","","","","","","","","","","","","","","","","","","","","","","","","","","","","","","","","","","","","","","","","","","","","","","","","","","","","","","","","","","","","","","","","","SYN076AAXX  14034 65319 42960 70000 10221 20212 39610 40123 8707/ 333 58018 87361;","","","","","","","","","",""
"65319099999","2005-08-14T07:00:00","10.3166667","1.3833333","461.0","NATITINGOU, BN","FM-12","4","","70","72","","","","9","95","","29.93","28.41","6.21","71","220","","2","","","","","","","","","","","","","","","","","","","","","","","","","","","","","","","","","","","","","","","","","","","","","","","","","","","","","","","","","","","","","","","","","","","","","","","","","","","","","","","","","","","","","","","","","","","SYN100AAXX  14064 65319 32960 72202 10222 20213 39620 40135 8707/ 333 02000 20214 50254 55073 58010 87361;","","","","","","","","","",""
"65319099999","2005-08-14T13:00:00","10.3166667","1.3833333","461.0","NATITINGOU, BN","FM-12","4","","72","79","","","","9","81","BKN:05 13 SCT:03 20","29.94","28.43","6.21","74","240","","5","","","","","","","","","","","","","","","","","","","","","","","","","","","","","","","","","","","","","","","","","","","","","","","","","","","","","","","","","","","","","","","","","","","","","","","","","","","","","","","","","","","","","","","","","","","SYN100AAXX  14124 65319 32460 72404 10260 20224 39626 40140 878// 333 0//00 58010 85613 83820 94914 95837;","","","","","","","","","",""
"65319099999","2005-08-14T19:00:00","10.3166667","1.3833333","461.0","NATITINGOU, BN","FM-12","4","","71","79","","","","9","78","SCT:03 13","29.90","28.38","6.21","74","000","","0","","","","","","","","","","","","","","","","","","","","","","","","","","","","","","","","","","","","","","","","","","","","","","","","","","","","","","","","","","","","","","","","","","","","","","","","","","","","","","","","","","","","","","","","","","","SYN088AAXX  14184 65319 32460 70000 10260 20219 39610 40125 8357/ 333 10278 58008 83613 87361;","","","","","","","","","",""
"65319099999","2005-08-15T01:00:00","10.3166667","1.3833333","461.0","NATITINGOU, BN","FM-12","4","","71","73","","","","9","93","SCT:03 13 FEW:01 30 SCT:03 108","29.96","28.44","6.21","72","000","","0","","","","","","","","","","","","","","","","","","","","","","","","","","","","","","","","","","","","","","","","","","","","","","","","","","","","","","","","","","","","","","","","","","","","","","","","","","","","","","","","","","","","","","","","","","","SYN112AAXX  15004 65319 33460 70000 10230 20218 39630 40145 83932 333 0//00 58009 83613 81930 83361 85076 94942 95812;","","","","","","","","","",""
"65319099999","2005-08-15T07:00:00","10.3166667","1.3833333","461.0","NATITINGOU, BN","FM-12","4","","71","72","","","","9","96","","29.93","28.41","6.21","71","220","","7","","","","","","","","","","","","","","","","","","","","","","","","","","","","","","","","","","","","","","","","","","","","","","","","","","","","","","","","","","","","","","","","","","","","","","","","","","","","","","","","","","","","","","","","","","","SYN100AAXX  15064 65319 32460 72206 10225 20218 39621 40135 875// 333 01800 20220 50264 55022 58001 87613;","","","","","","","","","",""
"65319099999","2005-08-15T13:00:00","10.3166667","1.3833333","461.0","NATITINGOU, BN","FM-12","4","","72","80","","","","9","77","SCT:03 13 BKN:05 20","29.96","28.44","6.21","74","280","","7","","","","","","","","","","","","","","","","","","","","","","","","","","","","","","","","","","","","","","","","","","","","","","","","","","","","","","","","","","","","","","","","","","","","","","","","","","","","","","","","","","","","","","","","","","","SYN120AAXX  15124 65319 32460 72806 10265 20221 39631 40145 878// 333 0//00 59005 83613 85820 949 CHECK 53/5 NEW ENDING ADDED;","","","","","","","","","",""
"65319099999","2005-08-15T19:00:00","10.3166667","1.3833333","461.0","NATITINGOU, BN","FM-12","4","","73","81","","","","9","77","SCT:03 20 SCT:03 108 BKN:05 256","29.88","28.37","6.21","75","240","","5","","","","","","","","","","","","","","","","","","","","","","","","","","","","","","","","","","","","","","","","","","","","","","","","","","","","","","","","","","","","","","","","","","","","","","","","","","","","","","","","","","","","","","","","","","","SYN106AAXX  15184 65319 32560 72404 10270 20227 39607 40119 83232 333 10280 59003 83820 83361 85076 94904 95814;","","","","","","","","","",""
"65319099999","2005-08-16T19:00:00","10.3166667","1.3833333","461.0","NATITINGOU, BN","FM-12","4","","70","72","","","","9","93","BKN:06 108","29.86","28.34","6.21","71","000","","0","","","","","","","","","","","","","","","","","","","","","","","","","","","","","","","","","","","","","","","","","","","","","","","","","","","","","","","","","","","","","","","","","","","","","","","","","","","","","","","","","","","","","","","","","","","SYN094AAXX  16184 65319 11960 70000 10225 20213 39598 40113 60242 70266 86032 333 10233 59004 86361;","","","","","","","","","",""
"65319099999","2005-08-17T07:00:00","10.3166667","1.3833333","461.0","NATITINGOU, BN","FM-12","4","","68","70","","","","9","95","FEW:02 13","29.88","28.35","6.21","69","000","","0","","","","","","","","","","","","","","","","","","","","","","","","","","","","","","","","","","","","","","","","","","","","","","","","","","","","","","","","","","","","","","","","","","","","","","","","","","","","","","","","","","","","","","","","","","","SYN118AAXX  17064 65319 11460 70000 10210 20202 39601 40119 60244 70266 8253/ 333 01857 20204 50044 55000 59009 82613 87361;","","","","","","","","","",""
"65319099999","2005-08-17T13:00:00","10.3166667","1.3833333","461.0","NATITINGOU, BN","FM-12","4","","70","75","","","","9","83","BKN:05 13 BKN:07 108","29.93","28.40","6.21","72","280","","9","","","","","","","","","","","","","","","","","","","","","","","","","","","","","","","","","","","","","","","","","","","","","","","","","","","","","","","","","","","","","","","","","","","","","","","","","","","","","","","","","","","","","","","","","","","SYN112AAXX  17124 65319 11460 72808 10240 20210 39618 40135 69931 70366 8687/ 333 0//14 58004 85613 87361 94904 95814;","","","","","","","","","",""
"65319099999","2005-08-17T19:00:00","10.3166667","1.3833333","461.0","NATITINGOU, BN","FM-12","4","","72","77","","","","9","84","FEW:02 13 SCT:03 20 FEW:01 30","29.88","28.35","6.21","74","000","","0","","","","","","","","","","","","","","","","","","","","","","","","","","","","","","","","","","","","","","","","","","","","","","","","","","","","","","","","","","","","","","","","","","","","","","","","","","","","","","","","","","","","","","","","","","","SYN124AAXX  17184 65319 11460 70000 10250 20221 39601 40117 69902 72166 84932 333 10262 58003 82613 83820 81930 85361 94942 95835;","","","","","","","","","",""
"65319099999","2005-08-18T07:00:00","10.3166667","1.3833333","461.0","NATITINGOU, BN","FM-12","4","","70","72","","","","9","93","","29.91","28.38","6.21","71","000","","0","","","","","","","","","","","","","","","","","","","","","","","","","","","","","","","","","","","","","","","","","","","","","","","","","","","","","","","","","","","","","","","","","","","","","","","","","","","","","","","","","","","","","","","","","","","SYN106AAXX  18064 65319 12460 70000 10223 20211 39612 40128 60014 875// 333 01919 20215 50214 55007 58011 87613;","","","","","","","","","",""
"65319099999","2005-08-18T13:00:00","10.3166667","1.3833333","461.0","NATITINGOU, BN","FM-12","4","","71","81","","","","9","74","FEW:01 13 BKN:05 20","29.93","28.41","6.21","74","200","","5","","","","","","","","","","","","","","","","","","","","","","","","","","","","","","","","","","","","","","","","","","","","","","","","","","","","","","","","","","","","","","","","","","","","","","","","","","","","","","","","","","","","","","","","","","","SYN112AAXX  18124 65319 11460 72004 10270 20219 39620 40134 60011 70266 85802 333 0//54 58002 81613 85820 94919 95839;","","","","","","","","","",""
"65319099999","2005-08-18T19:00:00","10.3166667","1.3833333","461.0","NATITINGOU, BN","FM-12","4","","76","81","","","","9","85","SCT:04 20 FEW:01 30 BKN:05 256","29.85","28.34","6.21","77","000","","0","","","","","","","","","","","","","","","","","","","","","","","","","","","","","","","","","","","","","","","","","","","","","","","","","","","","","","","","","","","","","","","","","","","","","","","","","","","","","","","","","","","","","","","","","","","SYN112AAXX  18184 65319 12560 70000 10270 20242 39597 40110 60012 84902 333 10303 59004 84820 81930 85076 94944 95874;","","","","","","","","","",""
"65319099999","2005-08-19T07:00:00","10.3166667","1.3833333","461.0","NATITINGOU, BN","FM-12","4","","72","73","","","","9","96","","29.96","28.44","6.21","72","000","","0","","","","","","","","","","","","","","","","","","","","","","","","","","","","","","","","","","","","","","","","","","","","","","","","","","","","","","","","","","","","","","","","","","","","","","","","","","","","","","","","","","","","","","","","","","","SYN112AAXX  19064 65319 11960 70000 10230 20223 39630 40144 60034 70266 8707/ 333 02053 20225 50294 55077 58018 87361;","","","","","","","","","",""
"65319099999","2005-08-19T13:00:00","10.3166667","1.3833333","461.0","NATITINGOU, BN","FM-12","4","","73","81","","","","9","76","FEW:01 13 SCT:03 20 BKN:07 256","29.96","28.44","6.21","75","300","","5","","","","","","","","","","","","","","","","","","","","","","","","","","","","","","","","","","","","","","","","","","","","","","","","","","","","","","","","","","","","","","","","","","","","","","","","","","","","","","","","","","","","","","","","","","","SYN106AAXX  19124 65319 32460 73004 10272 20226 39632 40144 83836 333 0//00 58012 81613 83820 87276 94919 95834;","","","","","","","","","",""
"65319099999","2005-08-20T01:00:00","10.3166667","1.3833333","461.0","NATITINGOU, BN","FM-12","4","","71","73","","","","9","93","BKN:05 256","29.93","28.42","6.21","72","000","","0","","","","","","","","","","","","","","","","","","","","","","","","","","","","","","","","","","","","","","","","","","","","","","","","","","","","","","","","","","","","","","","","","","","","","","","","","","","","","","","","","","","","","","","","","","","SYN094AAXX  20004 65319 32960 50000 10228 20216 39623 40137 60071 7019/ 80002 333 0//00 59007 85076;","","","","","","","","","",""
"65319099999","2005-08-20T07:00:00","10.3166667","1.3833333","461.0","NATITINGOU, BN","FM-12","4","","70","72","","","","9","95","BKN:05 108","29.91","28.39","6.21","71","000","","0","","","","","","","","","","","","","","","","","","","","","","","","","","","","","","","","","","","","","","","","","","","","","","","","","","","","","","","","","","","","","","","","","","","","","","","","","","","","","","","","","","","","","","","","","","","SYN112AAXX  20064 65319 12960 70000 10221 20212 39614 40130 60174 85032 333 02265 20214 50584 55044 59016 85361 83076;","","","","","","","","","",""
"65319099999","2005-08-20T19:00:00","10.3166667","1.3833333","461.0","NATITINGOU, BN","FM-12","4","","72","74","","||RA","","9","91","SCT:04 13 FEW:01 30 BKN:07 108","29.88","28.36","6.21","73","000","","0","","","","","","","","","","","","","","","","","","","","","","","","","","","","","","","","","","","","","","","","","","","","","","","","","","","","","","","","","","","","","","","","","","","","","","","","","","","","","","","","","","","","","","","","","","","SYN118AAXX  20184 65319 11460 70000 10235 20220 39603 40119 60162 79196 8497/ 333 10290 59011 84613 81930 87461 94943 95879;","","","","","","","","","",""
"65319099999","2005-08-21T07:00:00","10.3166667","1.3833333","461.0","NATITINGOU, BN","FM-12","4","","71","72","","||FG","","9","96","BKN:07 256","29.91","28.38","6.21","71","200","","5","","","","","","","","","","","","","","","","","","","","","","","","","","","","","","","","","","","","","","","","","","","","","","","","","","","","","","","","","","","","","","","","","","","","","","","","","","","","","","","","","","","","","","","","","","","SYN106AAXX  21064 65319 11960 72004 10225 20218 39612 40129 60224 74664 80008 333 02057 20215 55026 59002 87276;","","","","","","","","","",""
"65319099999","2005-08-21T13:00:00","10.3166667","1.3833333","461.0","NATITINGOU, BN","FM-12","4","","73","81","","","","9","77","FEW:01 13 BKN:05 20","29.93","28.42","6.21","75","220","","9","","","","","","","","","","","","","","","","","","","","","","","","","","","","","","","","","","","","","","","","","","","","","","","","","","","","","","","","","","","","","","","","","","","","","","","","","","","","","","","","","","","","","","","","","","","SYN106AAXX  21124 65319 31460 72208 10270 20227 39623 40137 70144 85802 333 0//00 58001 81613 85820 94919 95839;","","","","","","","","","",""
"65319099999","2005-08-21T19:00:00","10.3166667","1.3833333","461.0","NATITINGOU, BN","FM-12","4","","74","79","","||TS","","9","84","SCT:04 20 FEW:01 30 BKN:05 256","29.87","28.35","6.21","75","360","","5","","","","","","","","","","","","","","","","","","","","","","","","","","","","","","","","","","","","","","","","","","","","","","","","","","","","","","","","","","","","","","","","","","","","","","","","","","","","","","","","","","","","","","","","","","","SYN118AAXX  21184 65319 11560 73604 10260 20231 39602 40115 69942 71796 84902 333 10300 59001 84820 81930 85076 94944 95874;","","","","","","","","","",""
"65319099999","2005-08-22T01:00:00","10.3166667","1.3833333","461.0","NATITINGOU, BN","FM-12","4","","72","75","","","","9","91","SCT:03 108","29.90","28.39","6.21","73","000","","0","","","","","","","","","","","","","","","","","","","","","","","","","","","","","","","","","","","","","","","","","","","","","","","","","","","","","","","","","","","","","","","","","","","","","","","","","","","","","","","","","","","","","","","","","","","SYN100AAXX  22004 65319 11960 70000 10240 20225 39614 40126 69961 70096 83032 333 0//54 59006 83361 85076;","","","","","","","","","",""
"65319099999","2005-08-22T07:00:00","10.3166667","1.3833333","461.0","NATITINGOU, BN","FM-12","4","","72","75","","","","9","91","","29.88","28.37","6.21","73","000","","0","","","","","","","","","","","","","","","","","","","","","","","","","","","","","","","","","","","","","","","","","","","","","","","","","","","","","","","","","","","","","","","","","","","","","","","","","","","","","","","","","","","","","","","","","","","SYN106AAXX  22064 65319 12460 70000 10240 20225 39607 40119 60014 875// 333 02159 20230 50254 55063 59005 87613;","","","","","","","","","",""
"65319099999","2005-08-22T13:00:00","10.3166667","1.3833333","461.0","NATITINGOU, BN","FM-12","4","","72","82","","","","9","73","FEW:02 13 BKN:05 20","29.94","28.43","6.21","75","220","","2","","","","","","","","","","","","","","","","","","","","","","","","","","","","","","","","","","","","","","","","","","","","","","","","","","","","","","","","","","","","","","","","","","","","","","","","","","","","","","","","","","","","","","","","","","","SYN100AAXX  22124 65319 32460 72202 10277 20224 39627 40139 86802 333 0//00 58004 82613 85820 94919 95839;","","","","","","","","","",""
"65319099999","2005-08-22T19:00:00","10.3166667","1.3833333","461.0","NATITINGOU, BN","FM-12","4","","74","84","","","","9","73","FEW:01 13 SCT:03 20 BKN:05 256","29.85","28.35","6.21","77","000","","0","","","","","","","","","","","","","","","","","","","","","","","","","","","","","","","","","","","","","","","","","","","","","","","","","","","","","","","","","","","","","","","","","","","","","","","","","","","","","","","","","","","","","","","","","","","SYN106AAXX  22184 65319 32460 70000 10288 20234 39600 40110 83802 333 10307 59002 81613 83820 85076 94919 95834;","","","","","","","","","",""
"65319099999","2005-08-23T01:00:00","10.3166667","1.3833333","461.0","NATITINGOU, BN","FM-12","4","","74","77","","","","9","90","BKN:05 256","29.91","28.40","6.21","75","000","","0","","","","","","","","","","","","","","","","","","","","","","","","","","","","","","","","","","","","","","","","","","","","","","","","","","","","","","","","","","","","","","","","","","","","","","","","","","","","","","","","","","","","","","","","","","","SYN082AAXX  23004 65319 33960 50000 10250 20233 39619 40129 80002 333 0//00 58005 85076;","","","","","","","","","",""
"65319099999","2005-08-23T07:00:00","10.3166667","1.3833333","461.0","NATITINGOU, BN","FM-12","4","","72","73","","","","9","96","SCT:03 108","29.89","28.38","6.21","72","000","","0","","","","","","","","","","","","","","","","","","","","","","","","","","","","","","","","","","","","","","","","","","","","","","","","","","","","","","","","","","","","","","","","","","","","","","","","","","","","","","","","","","","","","","","","","","","SYN106AAXX  23064 65319 32960 70000 10230 20223 39612 40123 83038 333 02000 20225 50344 55055 58005 83361 87276;","","","","","","","","","",""
"65319099999","2005-08-23T11:00:00","10.3166667","1.3833333","461.0","NATITINGOU, BN","FM-12","4","","","77","","","","","","","","","6.21","","000","","0","","","","","","","","","","","","","","","","","","","","","","","","","","","","","","","","","","","","","","","","","","","","","","","","","","","","","","","","","","","","","","","","","","","","","","","","","","","","","","","","","","","","","","","","","","","SYN060AAXX  23104 65319 11960 70000 10252 81823 83361 85076 95831;","","","","","","","","","",""
"65319099999","2005-08-23T13:00:00","10.3166667","1.3833333","461.0","NATITINGOU, BN","FM-12","4","","71","77","","","","9","82","FEW:01 20 BKN:06 128","29.91","28.40","6.21","73","320","","11","","","","","","","","","","","","","","","","","","","","","","","","","","","","","","","","","","","","","","","","","","","","","","","","","","","","","","","","","","","","","","","","","","","","","","","","","","","","","","","","","","","","","","","","","","","SYN112AAXX  23124 65319 11560 73210 10250 20218 39803 40130 60161 70196 82832 333 0//63 58005 81620 86363 94908 95818;","","","","","","","","","",""
"65319099999","2005-08-23T19:00:00","10.3166667","1.3833333","461.0","NATITINGOU, BN","FM-12","4","","73","78","","","","9","86","BKN:05 108","29.81","28.30","6.21","75","000","","0","","","","","","","","","","","","","","","","","","","","","","","","","","","","","","","","","","","","","","","","","","","","","","","","","","","","","","","","","","","","","","","","","","","","","","","","","","","","","","","","","","","","","","","","","","","SYN100AAXX  23184 65319 11960 70000 10255 20229 39583 40095 69912 70396 85032 333 10265 59017 85361 83076;","","","","","","","","","",""
"65319099999","2005-08-24T01:00:00","10.3166667","1.3833333","461.0","NATITINGOU, BN","FM-12","4","","69","71","","","","9","94","BKN:05 256","29.95","28.41","6.21","70","000","","0","","","","","","","","","","","","","","","","","","","","","","","","","","","","","","","","","","","","","","","","","","","","","","","","","","","","","","","","","","","","","","","","","","","","","","","","","","","","","","","","","","","","","","","","","","","SYN082AAXX  24004 65319 33960 50000 10217 20206 39622 40141 80002 333 0//00 58003 85076;","","","","","","","","","",""
"65319099999","2005-08-24T07:00:00","10.3166667","1.3833333","461.0","NATITINGOU, BN","FM-12","4","","71","72","","","","9","96","","29.90","28.38","6.21","71","200","","5","","","","","","","","","","","","","","","","","","","","","","","","","","","","","","","","","","","","","","","","","","","","","","","","","","","","","","","","","","","","","","","","","","","","","","","","","","","","","","","","","","","","","","","","","","","SYN106AAXX  24064 65319 12460 72004 10225 20218 39611 40126 60074 875// 333 01800 20212 50184 55006 59001 87613;","","","","","","","","","",""
"65319099999","2005-08-24T13:00:00","10.3166667","1.3833333","461.0","NATITINGOU, BN","FM-12","4","","72","82","","","","9","71","FEW:02 13 BKN:05 20","29.93","28.41","6.21","75","180","","7","","","","","","","","","","","","","","","","","","","","","","","","","","","","","","","","","","","","","","","","","","","","","","","","","","","","","","","","","","","","","","","","","","","","","","","","","","","","","","","","","","","","","","","","","","","SYN100AAXX  24124 65319 32460 71806 10280 20222 39622 40136 86802 333 0//00 58001 82613 85820 94919 95839;","","","","","","","","","",""
"65319099999","2005-08-24T19:00:00","10.3166667","1.3833333","461.0","NATITINGOU, BN","FM-12","4","","74","83","","","","9","74","FEW:02 20 FEW:01 30 SCT:04 108","29.86","28.35","6.21","77","280","","5","","","","","","","","","","","","","","","","","","","","","","","","","","","","","","","","","","","","","","","","","","","","","","","","","","","","","","","","","","","","","","","","","","","","","","","","","","","","","","","","","","","","","","","","","","","SYN106AAXX  24184 65319 32560 72804 10285 20235 39601 40113 84932 333 10300 58018 82820 81930 84361 94944 95874;","","","","","","","","","",""
"65319099999","2005-08-25T13:00:00","10.3166667","1.3833333","461.0","NATITINGOU, BN","FM-12","4","","74","84","","","","9","73","FEW:02 13 BKN:05 20","29.92","28.41","6.21","77","220","","5","","","","","","","","","","","","","","","","","","","","","","","","","","","","","","","","","","","","","","","","","","","","","","","","","","","","","","","","","","","","","","","","","","","","","","","","","","","","","","","","","","","","","","","","","","","SYN100AAXX  25124 65319 32460 72204 10290 20236 39622 40132 86802 333 0//00 58000 82613 85820 94919 95839;","","","","","","","","","",""
"65319099999","2005-08-25T19:00:00","10.3166667","1.3833333","461.0","NATITINGOU, BN","FM-12","4","","","","","","","9","","SCT:03 13 FEW:01 30 BKN:07 108","29.91","28.38","6.21","","020","","24","","","","","","","","","","","","","","","","","","","","","","","","","","","","","","","","","","","","","","","","","","","","","","","","","","","","","","","","","","","","","","","","","","","","","","","","","","","","","","","","","","","","","","","","","","","SYN112AAXX  25184 65319 11460 10221 20201 39612 40129 60082 72996 8397/ 333 10305 58011 83613 81930 87461 94946 95836;","","","","","","","","","",""
"65319099999","2005-08-26T01:00:00","10.3166667","1.3833333","461.0","NATITINGOU, BN","FM-12","4","","67","70","","","","9","91","BKN:05 256","29.91","28.39","6.21","68","000","","0","","","","","","","","","","","","","","","","","","","","","","","","","","","","","","","","","","","","","","","","","","","","","","","","","","","","","","","","","","","","","","","","","","","","","","","","","","","","","","","","","","","","","","","","","","","SYN082AAXX  26004 65319 33960 50000 10210 20195 39614 40127 80002 333 0//00 59007 85076;","","","","","","","","","",""
"65319099999","2005-08-26T07:00:00","10.3166667","1.3833333","461.0","NATITINGOU, BN","FM-12","4","","68","70","","","","9","93","","29.92","28.38","6.21","69","000","","0","","","","","","","","","","","","","","","","","","","","","","","","","","","","","","","","","","","","","","","","","","","","","","","","","","","","","","","","","","","","","","","","","","","","","","","","","","","","","","","","","","","","","","","","","","","SYN112AAXX  26064 65319 11960 70000 10211 20200 39612 40131 60084 70266 8703/ 333 02052 20201 50274 55045 59012 87361;","","","","","","","","","",""
"65319099999","2005-08-26T13:00:00","10.3166667","1.3833333","461.0","NATITINGOU, BN","FM-12","4","","73","81","","","","9","76","FEW:02 13 SCT:03 20 BKN:07 108","29.92","28.40","6.21","75","180","","5","","","","","","","","","","","","","","","","","","","","","","","","","","","","","","","","","","","","","","","","","","","","","","","","","","","","","","","","","","","","","","","","","","","","","","","","","","","","","","","","","","","","","","","","","","","SYN106AAXX  26124 65319 32460 71804 10275 20228 39619 40133 8487/ 333 0//00 59003 82613 83820 87361 94913 95832;","","","","","","","","","",""
"65319099999","2005-08-27T01:00:00","10.3166667","1.3833333","461.0","NATITINGOU, BN","FM-12","4","","72","73","","","","9","96","SCT:03 13","29.90","28.38","6.21","72","000","","0","","","","","","","","","","","","","","","","","","","","","","","","","","","","","","","","","","","","","","","","","","","","","","","","","","","","","","","","","","","","","","","","","","","","","","","","","","","","","","","","","","","","","","","","","","","SYN100AAXX  27004 65319 11460 70000 10227 20220 39612 40125 60021 7006/ 83502 333 0//16 59002 83613 85076;","","","","","","","","","",""
"65319099999","2005-08-27T07:00:00","10.3166667","1.3833333","461.0","NATITINGOU, BN","FM-12","4","","70","72","","","","9","96","SCT:04 13","29.88","28.36","6.21","71","000","","0","","","","","","","","","","","","","","","","","","","","","","","","","","","","","","","","","","","","","","","","","","","","","","","","","","","","","","","","","","","","","","","","","","","","","","","","","","","","","","","","","","","","","","","","","","","SYN112AAXX  27064 65319 12460 70000 10220 20213 39604 40120 60144 84502 333 01916 20205 50084 55030 59008 84613 85076;","","","","","","","","","",""
"65319099999","2005-08-27T13:00:00","10.3166667","1.3833333","461.0","NATITINGOU, BN","FM-12","4","","73","84","","","","9","70","FEW:01 13 SCT:03 20 BKN:05 256","29.87","28.36","6.21","76","140","","7","","","","","","","","","","","","","","","","","","","","","","","","","","","","","","","","","","","","","","","","","","","","","","","","","","","","","","","","","","","","","","","","","","","","","","","","","","","","","","","","","","","","","","","","","","","SYN118AAXX  27124 65319 11460 71406 10290 20230 39604 40115 69931 70166 83862 333 0//51 59015 81613 83820 85076 94919 95839;","","","","","","","","","",""
"65319099999","2005-08-27T19:00:00","10.3166667","1.3833333","461.0","NATITINGOU, BN","FM-12","4","","74","84","","","","9","73","SCT:03 13 BKN:05 256","29.83","28.32","6.21","77","180","","5","","","","","","","","","","","","","","","","","","","","","","","","","","","","","","","","","","","","","","","","","","","","","","","","","","","","","","","","","","","","","","","","","","","","","","","","","","","","","","","","","","","","","","","","","","","SYN106AAXX  27184 65319 12460 71804 10288 20234 39591 40102 69932 83832 333 10307 59001 83613 85076 94904 95814;","","","","","","","","","",""
"65319099999","2005-08-28T01:00:00","10.3166667","1.3833333","461.0","NATITINGOU, BN","FM-12","4","","73","76","","","","9","91","BKN:05 256","29.88","28.38","6.21","74","000","","0","","","","","","","","","","","","","","","","","","","","","","","","","","","","","","","","","","","","","","","","","","","","","","","","","","","","","","","","","","","","","","","","","","","","","","","","","","","","","","","","","","","","","","","","","","","SYN082AAXX  28004 65319 33960 50000 10243 20227 39609 40119 80002 333 0//00 59003 85076;","","","","","","","","","",""
"65319099999","2005-08-28T07:00:00","10.3166667","1.3833333","461.0","NATITINGOU, BN","FM-12","4","","72","73","","","","9","95","SCT:04 13","29.91","28.38","6.21","72","000","","0","","","","","","","","","","","","","","","","","","","","","","","","","","","","","","","","","","","","","","","","","","","","","","","","","","","","","","","","","","","","","","","","","","","","","","","","","","","","","","","","","","","","","","","","","","","SYN112AAXX  28064 65319 12460 70000 10230 20221 39609 40130 69934 84502 333 01951 20224 50404 55094 59005 84613 87276;","","","","","","","","","",""
"65319099999","2005-08-28T13:00:00","10.3166667","1.3833333","461.0","NATITINGOU, BN","FM-12","4","","75","86","","","","9","69","FEW:02 13 BKN:05 20","29.86","28.36","6.21","78","240","","5","","","","","","","","","","","","","","","","","","","","","","","","","","","","","","","","","","","","","","","","","","","","","","","","","","","","","","","","","","","","","","","","","","","","","","","","","","","","","","","","","","","","","","","","","","","SYN100AAXX  28124 65319 32460 72404 10300 20237 39604 40113 86802 333 0//00 58000 82613 85820 94919 95839;","","","","","","","","","",""
"65319099999","2005-08-28T19:00:00","10.3166667","1.3833333","461.0","NATITINGOU, BN","FM-12","4","","74","83","","","","9","74","BKN:07 256","29.91","28.40","6.21","77","280","","5","","","","","","","","","","","","","","","","","","","","","","","","","","","","","","","","","","","","","","","","","","","","","","","","","","","","","","","","","","","","","","","","","","","","","","","","","","","","","","","","","","","","","","","","","","","SYN082AAXX  28184 65319 32960 72804 10285 20235 39617 40128 80008 333 10305 58026 87276;","","","","","","","","","",""
"65319099999","2005-08-29T07:00:00","10.3166667","1.3833333","461.0","NATITINGOU, BN","FM-12","4","","67","69","","","","9","93","SCT:03 13","29.80","28.29","4.97","68","000","","0","","","","","","","","","","","","","","","","","","","","","","","","","","","","","","","","","","","","","","","","","","","","","","","","","","","","","","","","","","","","","","","","","","","","","","","","","","","","","","","","","","","","","","","","","","","SYN118AAXX  29064 65319 11458 80000 10205 20193 39580 40092 60024 70266 8357/ 333 02024 20200 50079 55048 59024 83613 88361;","","","","","","","","","",""
"65319099999","2005-08-29T13:00:00","10.3166667","1.3833333","461.0","NATITINGOU, BN","FM-12","4","","70","73","","||RA","","9","91","FEW:02 13","29.86","28.33","4.97","71","220","","5","","","","","","","","","","","","","","","","","","","","","","","","","","","","","","","","","","","","","","","","","","","","","","","","","","","","","","","","","","","","","","","","","","","","","","","","","","","","","","","","","","","","","","","","","","","SYN094AAXX  29124 65319 11458 82204 10227 20211 39593 40111 60031 76366 8257/ 333 59011 82613 82461;","","","","","","","","","",""
"65319099999","2005-08-29T19:00:00","10.3166667","1.3833333","461.0","NATITINGOU, BN","FM-12","4","","71","73","","||RA","","9","91","FEW:02 13","29.85","28.33","4.97","72","220","","5","","","","","","","","","","","","","","","","","","","","","","","","","","","","","","","","","","","","","","","","","","","","","","","","","","","","","","","","","","","","","","","","","","","","","","","","","","","","","","","","","","","","","","","","","","","SYN100AAXX  29184 65319 11458 82204 10230 20215 39593 40110 60092 76166 8257/ 333 10244 58026 82613 88461;","","","","","","","","","",""
"65319099999","2005-08-30T01:00:00","10.3166667","1.3833333","461.0","NATITINGOU, BN","FM-12","4","","70","72","","","","9","96","BKN:07 13","29.87","28.35","4.97","71","000","","0","","","","","","","","","","","","","","","","","","","","","","","","","","","","","","","","","","","","","","","","","","","","","","","","","","","","","","","","","","","","","","","","","","","","","","","","","","","","","","","","","","","","","","","","","","","SYN094AAXX  30004 65319 11458 70000 10220 20213 39599 40115 69911 7036/ 875// 333 0//51 58015 87613;","","","","","","","","","",""
"65319099999","2005-08-30T07:00:00","10.3166667","1.3833333","461.0","NATITINGOU, BN","FM-12","4","","71","72","","||RA","","9","96","","29.91","28.38","4.97","71","000","","0","","","","","","","","","","","","","","","","","","","","","","","","","","","","","","","","","","","","","","","","","","","","","","","","","","","","","","","","","","","","","","","","","","","","","","","","","","","","","","","","","","","","","","","","","","","SYN112AAXX  30064 65319 11458 80000 10221 20214 39611 40128 60094 76166 885// 333 01864 20212 50144 55000 58031 88613;","","","","","","","","","",""
"65319099999","2005-08-30T13:00:00","10.3166667","1.3833333","461.0","NATITINGOU, BN","FM-12","4","","73","80","","","","9","81","SCT:03 13 SCT:04 20 BKN:07 108","29.93","28.41","6.21","75","080","","2","","","","","","","","","","","","","","","","","","","","","","","","","","","","","","","","","","","","","","","","","","","","","","","","","","","","","","","","","","","","","","","","","","","","","","","","","","","","","","","","","","","","","","","","","","","SYN118AAXX  30124 65319 11460 70802 10265 20229 39622 40136 69901 70166 8683/ 333 0//17 58029 83613 84820 87361 94919 95839;","","","","","","","","","",""
"65319099999","2005-08-30T19:00:00","10.3166667","1.3833333","461.0","NATITINGOU, BN","FM-12","4","","74","81","","","","9","81","FEW:01 13 SCT:03 20 BKN:05 256","29.86","28.35","6.21","76","000","","0","","","","","","","","","","","","","","","","","","","","","","","","","","","","","","","","","","","","","","","","","","","","","","","","","","","","","","","","","","","","","","","","","","","","","","","","","","","","","","","","","","","","","","","","","","","SYN106AAXX  30184 65319 32460 70000 10270 20234 39600 40113 83832 333 10290 58007 81613 83820 85076 94914 95835;","","","","","","","","","",""
"65319099999","2005-08-31T01:00:00","10.3166667","1.3833333","461.0","NATITINGOU, BN","FM-12","4","","71","73","","","","9","91","BKN:05 13","29.90","28.38","6.21","72","000","","0","","","","","","","","","","","","","","","","","","","","","","","","","","","","","","","","","","","","","","","","","","","","","","","","","","","","","","","","","","","","","","","","","","","","","","","","","","","","","","","","","","","","","","","","","","","SYN088AAXX  31004 65319 33460 70000 10230 20215 39612 40125 85502 333 0//00 58013 85613 83076;","","","","","","","","","",""
"65319099999","2005-08-31T07:00:00","10.3166667","1.3833333","461.0","NATITINGOU, BN","FM-12","4","","69","71","","||FG","","9","94","","29.90","28.38","0.19","70","000","","0","","","","","","","","","","","","","","","","","","","","","","","","","","","","","","","","","","","","","","","","","","","","","","","","","","","","","","","","","","","","","","","","","","","","","","","","","","","","","","","","","","","","","","","","","","","SYN112AAXX  31064 65319 11903 50000 10217 20206 39611 40125 69904 74444 80002 333 01919 20214 50304 55050 58000 85076;","","","","","","","","","",""
"65319099999","2005-08-31T13:00:00","10.3166667","1.3833333","461.0","NATITINGOU, BN","FM-12","4","","74","83","","","","9","73","FEW:01 13 SCT:04 20 BKN:05 256","29.90","28.39","6.21","77","220","","7","","","","","","","","","","","","","","","","","","","","","","","","","","","","","","","","","","","","","","","","","","","","","","","","","","","","","","","","","","","","","","","","","","","","","","","","","","","","","","","","","","","","","","","","","","","SYN112AAXX  31124 65319 31460 72206 10285 20231 39614 40125 70344 84802 333 0//00 59008 81613 84820 85076 94919 95839;","","","","","","","","","",""
"65319099999","2005-09-01T01:00:00","10.3166667","1.3833333","461.0","NATITINGOU, BN","FM-12","4","","72","74","","","","9","93","BKN:07 108","29.85","28.34","6.21","73","000","","0","","","","","","","","","","","","","","","","","","","","","","","","","","","","","","","","","","","","","","","","","","","","","","","","","","","","","","","","","","","","","","","","","","","","","","","","","","","","","","","","","","","","","","","","","","","SYN082AAXX  01004 65319 33960 70000 10235 20223 39598 40108 8707/ 333 0//00 59014 87361;","","","","","","","","","",""
"65319099999","2005-09-01T07:00:00","10.3166667","1.3833333","461.0","NATITINGOU, BN","FM-12","4","","72","73","","","","9","96","SCT:04 13","29.80","28.29","6.21","72","280","","5","","","","","","","","","","","","","","","","","","","","","","","","","","","","","","","","","","","","","","","","","","","","","","","","","","","","","","","","","","","","","","","","","","","","","","","","","","","","","","","","","","","","","","","","","","","SYN106AAXX  01064 65319 32460 72804 10230 20223 39580 40092 8457/ 333 01900 20225 50284 55030 59031 84613 87361;","","","","","","","","","",""
"65319099999","2005-09-01T13:00:00","10.3166667","1.3833333","461.0","NATITINGOU, BN","FM-12","4","","74","79","","||RA","","9","86","OVC:08 13","29.83","28.32","6.21","75","220","","5","","","","","","","","","","","","","","","","","","","","","","","","","","","","","","","","","","","","","","","","","","","","","","","","","","","","","","","","","","","","","","","","","","","","","","","","","","","","","","","","","","","","","","","","","","","SYN094AAXX  01124 65319 11460 82204 10262 20236 39590 40102 69901 76166 885// 333 0//51 59024 88613;","","","","","","","","","",""
"65319099999","2005-09-01T19:00:00","10.3166667","1.3833333","461.0","NATITINGOU, BN","FM-12","4","","69","71","","","","9","94","SCT:03 13 FEW:01 30 BKN:07 108","29.78","28.26","4.97","70","360","","5","","","","","","","","","","","","","","","","","","","","","","","","","","","","","","","","","","","","","","","","","","","","","","","","","","","","","","","","","","","","","","","","","","","","","","","","","","","","","","","","","","","","","","","","","","","SYN118AAXX  01184 65319 11458 73604 10217 20207 39570 40085 60082 72996 8397/ 333 10269 59010 83613 81930 87461 94948 95838;","","","","","","","","","",""
"65319099999","2005-09-02T01:00:00","10.3166667","1.3833333","461.0","NATITINGOU, BN","FM-12","4","","69","71","","","","9","96","BKN:05 13","29.86","","6.21","","","","","","","","","","","","","","","","","","","","","","","","","","","","","","","","","","","","","","","","","","","","","","","","","","","","","","","","","","","","","","","","","","","","","","","","","","","","","","","","","","","","","","","","","","","","","","","SYN100AAXX  02004 65319 11460 7//// 10214 20208 39885 40112 69911 72162 85502 333 0//51 58006 85613 83076;","","","","","","","","","",""
"65319099999","2005-09-02T07:00:00","10.3166667","1.3833333","461.0","NATITINGOU, BN","FM-12","4","","69","70","","","","9","96","","29.84","28.31","3.73","69","000","","0","","","","","","","","","","","","","","","","","","","","","","","","","","","","","","","","","","","","","","","","","","","","","","","","","","","","","","","","","","","","","","","","","","","","","","","","","","","","","","","","","","","","","","","","","","","SYN112AAXX  02064 65319 11456 70000 10212 20206 39588 40106 60084 72844 875// 333 01862 20205 50144 55000 58008 87613;","","","","","","","","","",""
"65319099999","2005-09-02T13:00:00","10.3166667","1.3833333","461.0","NATITINGOU, BN","FM-12","4","","71","78","","","","9","78","SCT:03 13 SCT:04 20","29.88","28.36","6.21","73","160","","7","","","","","","","","","","","","","","","","","","","","","","","","","","","","","","","","","","","","","","","","","","","","","","","","","","","","","","","","","","","","","","","","","","","","","","","","","","","","","","","","","","","","","","","","","","","SYN100AAXX  02124 65319 32460 71606 10255 20214 39604 40119 86802 333 0//00 58014 83613 84820 94919 95839;","","","","","","","","","",""
"65319099999","2005-09-02T19:00:00","10.3166667","1.3833333","461.0","NATITINGOU, BN","FM-12","4","","74","81","","","","9","80","SCT:03 13 SCT:03 20 BKN:05 256","29.83","28.32","6.21","76","000","","0","","","","","","","","","","","","","","","","","","","","","","","","","","","","","","","","","","","","","","","","","","","","","","","","","","","","","","","","","","","","","","","","","","","","","","","","","","","","","","","","","","","","","","","","","","","SYN106AAXX  02184 65319 32460 70000 10272 20234 39589 40102 85802 333 10290 58019 83613 83820 85076 94914 95837;","","","","","","","","","",""
"65319099999","2005-09-03T01:00:00","10.3166667","1.3833333","461.0","NATITINGOU, BN","FM-12","4","","72","74","","","","9","94","BKN:05 256","29.93","28.41","6.21","73","000","","0","","","","","","","","","","","","","","","","","","","","","","","","","","","","","","","","","","","","","","","","","","","","","","","","","","","","","","","","","","","","","","","","","","","","","","","","","","","","","","","","","","","","","","","","","","","SYN082AAXX  03004 65319 33960 50000 10232 20222 39620 40134 80002 333 0//00 58031 85076;","","","","","","","","","",""
"65319099999","2005-09-03T07:00:00","10.3166667","1.3833333","461.0","NATITINGOU, BN","FM-12","4","","69","70","","","","9","95","BKN:05 13","29.92","28.40","4.97","69","000","","0","","","","","","","","","","","","","","","","","","","","","","","","","","","","","","","","","","","","","","","","","","","","","","","","","","","","","","","","","","","","","","","","","","","","","","","","","","","","","","","","","","","","","","","","","","","SYN112AAXX  03064 65319 31458 70000 10213 20204 39618 40132 71022 8553/ 333 02000 20207 50304 55042 58030 85613 83361;","","","","","","","","","",""
"65319099999","2005-09-03T13:00:00","10.3166667","1.3833333","461.0","NATITINGOU, BN","FM-12","4","","72","82","","","","9","72","FEW:01 13 SCT:03 20 BKN:07 108","29.95","28.44","6.21","75","240","","2","","","","","","","","","","","","","","","","","","","","","","","","","","","","","","","","","","","","","","","","","","","","","","","","","","","","","","","","","","","","","","","","","","","","","","","","","","","","","","","","","","","","","","","","","","","SYN106AAXX  03124 65319 32460 72402 10278 20223 39630 40143 8383/ 333 0//00 58026 81613 83820 87361 94919 95839;","","","","","","","","","",""
"65319099999","2005-09-04T01:00:00","10.3166667","1.3833333","461.0","NATITINGOU, BN","FM-12","4","","72","74","","","","9","91","BKN:05 256","29.94","28.42","6.21","73","000","","0","","","","","","","","","","","","","","","","","","","","","","","","","","","","","","","","","","","","","","","","","","","","","","","","","","","","","","","","","","","","","","","","","","","","","","","","","","","","","","","","","","","","","","","","","","","SYN082AAXX  04004 65319 33960 50000 10236 20221 39625 40138 80002 333 0//00 58005 85076;","","","","","","","","","",""
"65319099999","2005-09-04T07:00:00","10.3166667","1.3833333","461.0","NATITINGOU, BN","FM-12","4","","71","73","","","","9","94","","29.93","28.41","6.21","72","000","","0","","","","","","","","","","","","","","","","","","","","","","","","","","","","","","","","","","","","","","","","","","","","","","","","","","","","","","","","","","","","","","","","","","","","","","","","","","","","","","","","","","","","","","","","","","","SYN100AAXX  04064 65319 32960 70000 10227 20217 39621 40135 8703/ 333 01800 20220 50304 55053 58003 87361;","","","","","","","","","",""
"65319099999","2005-09-04T19:00:00","10.3166667","1.3833333","461.0","NATITINGOU, BN","FM-12","4","","71","79","","||TS","","9","77","SCT:03 13 FEW:01 30 SCT:04 108","29.85","28.34","6.21","74","000","","0","","","","","","","","","","","","","","","","","","","","","","","","","","","","","","","","","","","","","","","","","","","","","","","","","","","","","","","","","","","","","","","","","","","","","","","","","","","","","","","","","","","","","","","","","","","SYN112AAXX  04184 65319 31460 70000 10260 20216 39597 40110 71799 83932 333 10305 59007 83613 81930 84361 94948 95878;","","","","","","","","","",""
"65319099999","2005-09-05T01:00:00","10.3166667","1.3833333","461.0","NATITINGOU, BN","FM-12","4","","72","75","","","","9","91","OVC:08 108","29.85","28.35","6.21","73","000","","0","","","","","","","","","","","","","","","","","","","","","","","","","","","","","","","","","","","","","","","","","","","","","","","","","","","","","","","","","","","","","","","","","","","","","","","","","","","","","","","","","","","","","","","","","","","SYN094AAXX  05004 65319 11960 80000 10240 20225 39599 40107 69971 7006/ 8807/ 333 0//15 59026 88361;","","","","","","","","","",""
"65319099999","2005-09-05T07:00:00","10.3166667","1.3833333","461.0","NATITINGOU, BN","FM-12","4","","68","70","","","","9","93","SCT:03 13","29.85","28.33","4.97","69","000","","0","","","","","","","","","","","","","","","","","","","","","","","","","","","","","","","","","","","","","","","","","","","","","","","","","","","","","","","","","","","","","","","","","","","","","","","","","","","","","","","","","","","","","","","","","","","SYN118AAXX  05064 65319 11458 80000 10210 20198 39592 40107 60044 72166 8307/ 333 02051 20205 50434 55064 59029 83613 88361;","","","","","","","","","",""
"65319099999","2005-09-05T13:00:00","10.3166667","1.3833333","461.0","NATITINGOU, BN","FM-12","4","","70","86","","","","9","60","FEW:01 13 SCT:03 20 BKN:06 108","29.86","28.36","6.21","75","020","","5","","","","","","","","","","","","","","","","","","","","","","","","","","","","","","","","","","","","","","","","","","","","","","","","","","","","","","","","","","","","","","","","","","","","","","","","","","","","","","","","","","","","","","","","","","","SYN106AAXX  05124 65319 32460 70204 10299 20213 39604 40113 83832 333 0//00 59023 81613 83820 86361 94919 95839;","","","","","","","","","",""
"65319099999","2005-09-05T19:00:00","10.3166667","1.3833333","461.0","NATITINGOU, BN","FM-12","4","","73","76","","","","9","92","FEW:01 13 BKN:07 108","29.85","28.32","4.97","74","000","","0","","","","","","","","","","","","","","","","","","","","","","","","","","","","","","","","","","","","","","","","","","","","","","","","","","","","","","","","","","","","","","","","","","","","","","","","","","","","","","","","","","","","","","","","","","","SYN112AAXX  05184 65319 11458 70000 10243 20229 39591 40107 60192 72166 8287/ 333 10304 59006 81613 87461 94919 95834;","","","","","","","","","",""
"65319099999","2005-09-06T01:00:00","10.3166667","1.3833333","461.0","NATITINGOU, BN","FM-12","4","","72","73","","","","9","95","SCT:03 13","29.88","28.38","6.21","72","000","","0","","","","","","","","","","","","","","","","","","","","","","","","","","","","","","","","","","","","","","","","","","","","","","","","","","","","","","","","","","","","","","","","","","","","","","","","","","","","","","","","","","","","","","","","","","","SYN088AAXX  06004 65319 33460 70000 10230 20221 39609 40119 83532 333 0//00 58010 83613 85361;","","","","","","","","","",""
"65319099999","2005-09-06T07:00:00","10.3166667","1.3833333","461.0","NATITINGOU, BN","FM-12","4","","71","73","","","","9","94","","29.88","28.36","3.73","72","220","","5","","","","","","","","","","","","","","","","","","","","","","","","","","","","","","","","","","","","","","","","","","","","","","","","","","","","","","","","","","","","","","","","","","","","","","","","","","","","","","","","","","","","","","","","","","","SYN106AAXX  06064 65319 12456 72204 10229 20219 39603 40118 60194 875// 333 02261 20221 50534 55072 58011 87613;","","","","","","","","","",""
"65319099999","2005-09-06T13:00:00","10.3166667","1.3833333","461.0","NATITINGOU, BN","FM-12","4","","73","83","","","","9","71","FEW:02 13 SCT:04 20","29.91","28.40","6.21","76","200","","5","","","","","","","","","","","","","","","","","","","","","","","","","","","","","","","","","","","","","","","","","","","","","","","","","","","","","","","","","","","","","","","","","","","","","","","","","","","","","","","","","","","","","","","","","","","SYN100AAXX  06124 65319 32460 72004 10285 20228 39619 40130 85832 333 0//00 58015 82613 84820 94919 95839;","","","","","","","","","",""
"65319099999","2005-09-07T07:00:00","10.3166667","1.3833333","461.0","NATITINGOU, BN","FM-12","4","","70","72","","","","9","94","SCT:03 108","29.94","28.42","6.21","71","000","","0","","","","","","","","","","","","","","","","","","","","","","","","","","","","","","","","","","","","","","","","","","","","","","","","","","","","","","","","","","","","","","","","","","","","","","","","","","","","","","","","","","","","","","","","","","","SYN106AAXX  07064 65319 32960 70000 10222 20212 39624 40138 83032 333 02000 20215 50414 55073 58021 83361 85076;","","","","","","","","","",""
"65319099999","2005-09-07T19:00:00","10.3166667","1.3833333","461.0","NATITINGOU, BN","FM-12","4","","75","81","","","","9","82","SCT:03 13","29.91","28.39","6.21","77","000","","0","","","","","","","","","","","","","","","","","","","","","","","","","","","","","","","","","","","","","","","","","","","","","","","","","","","","","","","","","","","","","","","","","","","","","","","","","","","","","","","","","","","","","","","","","","","SYN094AAXX  07184 65319 31460 70000 10274 20240 39614 40127 70399 83532 333 10307 58022 83613 85076;","","","","","","","","","",""
"65319099999","2005-09-08T01:00:00","10.3166667","1.3833333","461.0","NATITINGOU, BN","FM-12","4","","73","76","","","","9","91","BKN:05 256","29.95","28.44","6.21","74","360","","5","","","","","","","","","","","","","","","","","","","","","","","","","","","","","","","","","","","","","","","","","","","","","","","","","","","","","","","","","","","","","","","","","","","","","","","","","","","","","","","","","","","","","","","","","","","SYN082AAXX  08004 65319 33960 53604 10243 20227 39631 40143 80002 333 0//00 58012 85076;","","","","","","","","","",""
"65319099999","2005-09-08T07:00:00","10.3166667","1.3833333","461.0","NATITINGOU, BN","FM-12","4","","67","70","","||RA","","9","91","SCT:03 13","29.96","28.44","4.97","68","140","","5","","","","","","","","","","","","","","","","","","","","","","","","","","","","","","","","","","","","","","","","","","","","","","","","","","","","","","","","","","","","","","","","","","","","","","","","","","","","","","","","","","","","","","","","","","","SYN118AAXX  08064 65319 11458 81404 10210 20195 39630 40146 60114 76166 8387/ 333 01961 20201 50274 55061 58006 83613 88461;","","","","","","","","","",""
"65319099999","2005-09-08T13:00:00","10.3166667","1.3833333","461.0","NATITINGOU, BN","FM-12","4","","70","76","","","","9","82","SCT:03 13","29.96","28.44","6.21","72","000","","0","","","","","","","","","","","","","","","","","","","","","","","","","","","","","","","","","","","","","","","","","","","","","","","","","","","","","","","","","","","","","","","","","","","","","","","","","","","","","","","","","","","","","","","","","","","SYN100AAXX  08124 65319 11460 80000 10242 20209 39630 40145 60111 70266 8357/ 333 0//54 59009 83613 88361;","","","","","","","","","",""
"65319099999","2005-09-08T19:00:00","10.3166667","1.3833333","461.0","NATITINGOU, BN","FM-12","4","","71","76","","","","9","84","FEW:02 13","29.89","28.37","6.21","73","320","","2","","","","","","","","","","","","","","","","","","","","","","","","","","","","","","","","","","","","","","","","","","","","","","","","","","","","","","","","","","","","","","","","","","","","","","","","","","","","","","","","","","","","","","","","","","","SYN094AAXX  08184 65319 12460 73202 10247 20219 39607 40123 60112 8253/ 333 10276 59006 82613 87361;","","","","","","","","","",""
"65319099999","2005-09-09T01:00:00","10.3166667","1.3833333","461.0","NATITINGOU, BN","FM-12","4","","70","72","","","","9","96","BKN:05 256","29.97","28.44","6.21","71","000","","0","","","","","","","","","","","","","","","","","","","","","","","","","","","","","","","","","","","","","","","","","","","","","","","","","","","","","","","","","","","","","","","","","","","","","","","","","","","","","","","","","","","","","","","","","","","SYN082AAXX  09004 65319 33960 50000 10220 20213 39631 40149 80002 333 0//00 58000 85076;","","","","","","","","","",""
"65319099999","2005-09-09T07:00:00","10.3166667","1.3833333","461.0","NATITINGOU, BN","FM-12","4","","69","70","","","","9","95","SCT:03 13","29.93","28.41","6.21","69","000","","0","","","","","","","","","","","","","","","","","","","","","","","","","","","","","","","","","","","","","","","","","","","","","","","","","","","","","","","","","","","","","","","","","","","","","","","","","","","","","","","","","","","","","","","","","","","SYN106AAXX  09064 65319 32460 70000 10212 20204 39620 40137 8353/ 333 01800 20205 50214 55005 59010 83613 87361;","","","","","","","","","",""
"65319099999","2005-09-09T13:00:00","10.3166667","1.3833333","461.0","NATITINGOU, BN","FM-12","4","","71","83","","","","9","68","FEW:01 13 SCT:03 108 BKN:05 256","29.98","28.46","6.21","75","280","","5","","","","","","","","","","","","","","","","","","","","","","","","","","","","","","","","","","","","","","","","","","","","","","","","","","","","","","","","","","","","","","","","","","","","","","","","","","","","","","","","","","","","","","","","","","","SYN106AAXX  09124 65319 32460 72804 10284 20219 39638 40152 82832 333 0//00 58008 81613 83361 85076 94913 95813;","","","","","","","","","",""
"65319099999","2005-09-09T19:00:00","10.3166667","1.3833333","461.0","NATITINGOU, BN","FM-12","4","","76","83","","","","9","78","FEW:01 13","29.88","28.37","6.21","78","280","","5","","","","","","","","","","","","","","","","","","","","","","","","","","","","","","","","","","","","","","","","","","","","","","","","","","","","","","","","","","","","","","","","","","","","","","","","","","","","","","","","","","","","","","","","","","","SYN088AAXX  09184 65319 32460 72804 10283 20242 39608 40120 81502 333 10313 58001 81613 86276;","","","","","","","","","",""
"65319099999","2005-09-10T07:00:00","10.3166667","1.3833333","461.0","NATITINGOU, BN","FM-12","4","","70","72","","","","9","95","SCT:03 13","29.89","28.38","6.21","71","220","","5","","","","","","","","","","","","","","","","","","","","","","","","","","","","","","","","","","","","","","","","","","","","","","","","","","","","","","","","","","","","","","","","","","","","","","","","","","","","","","","","","","","","","","","","","","","SYN106AAXX  10064 65319 32460 72204 10220 20211 39610 40123 83506 333 01800 20213 50324 55052 59010 83613 87276;","","","","","","","","","",""
"65319099999","2005-09-11T07:00:00","10.3166667","1.3833333","461.0","NATITINGOU, BN","FM-12","4","","72","73","","","","9","94","","29.85","28.35","6.21","72","000","","0","","","","","","","","","","","","","","","","","","","","","","","","","","","","","","","","","","","","","","","","","","","","","","","","","","","","","","","","","","","","","","","","","","","","","","","","","","","","","","","","","","","","","","","","","","","SYN100AAXX  11064 65319 32960 50000 10230 20220 39599 40108 80002 333 01800 20225 50434 55085 59011 85076;","","","","","","","","","",""
"65319099999","2005-09-11T13:00:00","10.3166667","1.3833333","461.0","NATITINGOU, BN","FM-12","4","","75","87","","","","9","66","FEW:01 13 SCT:03 20 BKN:05 256","29.90","28.37","6.21","78","200","","7","","","","","","","","","","","","","","","","","","","","","","","","","","","","","","","","","","","","","","","","","","","","","","","","","","","","","","","","","","","","","","","","","","","","","","","","","","","","","","","","","","","","","","","","","","","SYN106AAXX  11124 65319 32460 72006 10308 20238 39608 40125 83832 333 0//00 58000 81613 83820 85076 94919 95838;","","","","","","","","","",""
"65319099999","2005-09-13T07:00:00","10.3166667","1.3833333","461.0","NATITINGOU, BN","FM-12","4","","70","72","","","","9","91","FEW:02 13 SCT:03 108","29.91","28.39","6.21","71","000","","0","","","","","","","","","","","","","","","","","","","","","","","","","","","","","","","","","","","","","","","","","","","","","","","","","","","","","","","","","","","","","","","","","","","","","","","","","","","","","","","","","","","","","","","","","","","SYN112AAXX  13064 65319 32460 70000 10225 20210 39615 40129 82532 333 02000 20220 50474 55082 58014 82613 83361 85076;","","","","","","","","","",""
"65319099999","2005-09-13T19:00:00","10.3166667","1.3833333","461.0","NATITINGOU, BN","FM-12","4","","75","85","","","","9","71","BKN:07 256","29.83","28.33","6.21","78","000","","0","","","","","","","","","","","","","","","","","","","","","","","","","","","","","","","","","","","","","","","","","","","","","","","","","","","","","","","","","","","","","","","","","","","","","","","","","","","","","","","","","","","","","","","","","","","SYN082AAXX  13184 65319 32960 70000 10296 20238 39593 40103 80006 333 10337 58014 87276;","","","","","","","","","",""
"65319099999","2005-09-14T01:00:00","10.3166667","1.3833333","461.0","NATITINGOU, BN","FM-12","4","","70","73","","","","9","89","SCT:03 13 FEW:01 30 BKN:07 108","29.88","28.38","4.97","71","000","","0","","","","","","","","","","","","","","","","","","","","","","","","","","","","","","","","","","","","","","","","","","","","","","","","","","","","","","","","","","","","","","","","","","","","","","","","","","","","","","","","","","","","","","","","","","","SYN118AAXX  14004 65319 11458 70000 10229 20210 39609 40118 60111 7299/ 8397/ 333 0//62 59003 83613 81930 87461 94946 95836;","","","","","","","","","",""
"65319099999","2005-09-14T07:00:00","10.3166667","1.3833333","461.0","NATITINGOU, BN","FM-12","4","","69","71","","","","9","93","FEW:01 13 SCT:03 108","29.90","28.39","6.21","70","000","","0","","","","","","","","","","","","","","","","","","","","","","","","","","","","","","","","","","","","","","","","","","","","","","","","","","","","","","","","","","","","","","","","","","","","","","","","","","","","","","","","","","","","","","","","","","","SYN118AAXX  14064 65319 12460 70000 10218 20206 39614 40126 60114 81532 333 01862 20211 50584 55095 59001 81613 83361 85076;","","","","","","","","","",""
"65319099999","2005-09-14T13:00:00","10.3166667","1.3833333","461.0","NATITINGOU, BN","FM-12","4","","76","86","","","","9","71","FEW:02 13 SCT:03 20 BKN:05 108","29.90","28.39","6.21","79","000","","0","","","","","","","","","","","","","","","","","","","","","","","","","","","","","","","","","","","","","","","","","","","","","","","","","","","","","","","","","","","","","","","","","","","","","","","","","","","","","","","","","","","","","","","","","","","SYN106AAXX  14124 65319 32460 70000 10302 20243 39615 40125 84832 333 0//00 58001 82613 83820 85361 94913 95837;","","","","","","","","","",""
"65319099999","2005-09-14T19:00:00","10.3166667","1.3833333","461.0","NATITINGOU, BN","FM-12","4","","73","78","","","","9","86","FEW:02 13 FEW:01 30 SCT:04 108","29.86","28.34","4.97","75","360","","5","","","","","","","","","","","","","","","","","","","","","","","","","","","","","","","","","","","","","","","","","","","","","","","","","","","","","","","","","","","","","","","","","","","","","","","","","","","","","","","","","","","","","","","","","","","SYN124AAXX  14184 65319 11458 73604 10253 20227 39597 40112 60042 72996 82932 333 10325 58004 82613 81930 84361 85076 94943 95873;","","","","","","","","","",""
"65319099999","2005-09-15T01:00:00","10.3166667","1.3833333","461.0","NATITINGOU, BN","FM-12","4","","73","76","","","","9","90","SCT:03 13","29.88","28.38","6.21","74","000","","0","","","","","","","","","","","","","","","","","","","","","","","","","","","","","","","","","","","","","","","","","","","","","","","","","","","","","","","","","","","","","","","","","","","","","","","","","","","","","","","","","","","","","","","","","","","SYN088AAXX  15004 65319 33460 70000 10247 20230 39611 40120 83506 333 0//00 58002 83613 87276;","","","","","","","","","",""
"65319099999","2005-09-15T07:00:00","10.3166667","1.3833333","461.0","NATITINGOU, BN","FM-12","4","","69","72","","","","9","90","","29.92","28.40","4.97","70","200","","5","","","","","","","","","","","","","","","","","","","","","","","","","","","","","","","","","","","","","","","","","","","","","","","","","","","","","","","","","","","","","","","","","","","","","","","","","","","","","","","","","","","","","","","","","","","SYN112AAXX  15064 65319 11458 72004 10222 20204 39617 40132 60054 70366 875// 333 01959 20217 50744 55078 58003 87613;","","","","","","","","","",""
"65319099999","2005-09-15T13:00:00","10.3166667","1.3833333","461.0","NATITINGOU, BN","FM-12","4","","74","85","","","","9","69","FEW:01 13 BKN:06 108","29.92","28.41","6.21","77","180","","7","","","","","","","","","","","","","","","","","","","","","","","","","","","","","","","","","","","","","","","","","","","","","","","","","","","","","","","","","","","","","","","","","","","","","","","","","","","","","","","","","","","","","","","","","","","SYN100AAXX  15124 65319 32460 71806 10296 20234 39622 40132 82832 333 0//00 58007 81613 86361 94904 95814;","","","","","","","","","",""
"65319099999","2005-09-15T19:00:00","10.3166667","1.3833333","461.0","NATITINGOU, BN","FM-12","4","","76","85","","","","9","76","FEW:01 13","29.86","28.35","6.21","78","200","","5","","","","","","","","","","","","","","","","","","","","","","","","","","","","","","","","","","","","","","","","","","","","","","","","","","","","","","","","","","","","","","","","","","","","","","","","","","","","","","","","","","","","","","","","","","","SYN088AAXX  15184 65319 32560 72004 10292 20246 39601 40113 83502 333 10319 58004 81613 85076;","","","","","","","","","",""
"65319099999","2005-09-16T01:00:00","10.3166667","1.3833333","461.0","NATITINGOU, BN","FM-12","4","","74","77","","","","9","92","FEW:02 13","29.93","28.42","6.21","75","000","","0","","","","","","","","","","","","","","","","","","","","","","","","","","","","","","","","","","","","","","","","","","","","","","","","","","","","","","","","","","","","","","","","","","","","","","","","","","","","","","","","","","","","","","","","","","","SYN088AAXX  16004 65319 33460 60000 10250 20236 39625 40134 82502 333 0//00 58014 82613 85076;","","","","","","","","","",""
"65319099999","2005-09-16T07:00:00","10.3166667","1.3833333","461.0","NATITINGOU, BN","FM-12","4","","71","73","","||TS","","9","92","OVC:08 13 FEW:01 30","29.96","28.45","4.97","72","080","","2","","","","","","","","","","","","","","","","","","","","","","","","","","","","","","","","","","","","","","","","","","","","","","","","","","","","","","","","","","","","","","","","","","","","","","","","","","","","","","","","","","","","","","","","","","","SYN124AAXX  16064 65319 31458 80802 10230 20217 39635 40147 79594 889// 333 02000 20223 50454 55077 58018 88613 81930 94948 95838;","","","","","","","","","",""
"65319099999","2005-09-16T13:00:00","10.3166667","1.3833333","461.0","NATITINGOU, BN","FM-12","4","","74","90","","","","9","61","FEW:01 13 SCT:03 20 BKN:05 256","29.85","28.35","6.21","78","200","","5","","","","","","","","","","","","","","","","","","","","","","","","","","","","","","","","","","","","","","","","","","","","","","","","","","","","","","","","","","","","","","","","","","","","","","","","","","","","","","","","","","","","","","","","","","","SYN118AAXX  16124 65319 11460 72004 10320 20236 39601 40107 69951 70396 83802 333 0//00 59021 81613 83820 85076 94915 95837;","","","","","","","","","",""
"65319099999","2005-09-16T19:00:00","10.3166667","1.3833333","461.0","NATITINGOU, BN","FM-12","4","","68","77","","||TS","","9","76","SCT:03 13 SCT:03 20 FEW:01 30","29.85","28.33","4.97","71","200","","7","","","","","","","","","","","","","","","","","","","","","","","","","","","","","","","","","","","","","","","","","","","","","","","","","","","","","","","","","","","","","","","","","","","","","","","","","","","","","","","","","","","","","","","","","","","SYN118AAXX  16184 65319 11458 72006 10248 20202 39594 40108 60042 71796 86932 333 10332 59007 83613 83820 81930 94945 95877;","","","","","","","","","",""
"65319099999","2005-09-17T01:00:00","10.3166667","1.3833333","461.0","NATITINGOU, BN","FM-12","4","","71","73","","","","9","91","FEW:02 13 SCT:03 108","29.87","28.37","6.21","72","000","","0","","","","","","","","","","","","","","","","","","","","","","","","","","","","","","","","","","","","","","","","","","","","","","","","","","","","","","","","","","","","","","","","","","","","","","","","","","","","","","","","","","","","","","","","","","","SYN100AAXX  17004 65319 31460 70000 10230 20215 39607 40115 7009/ B2536 333 0//00 59018 82613 83361 87276;","","","","","","","","","",""
"65319099999","2005-09-17T07:00:00","10.3166667","1.3833333","461.0","NATITINGOU, BN","FM-12","4","","69","71","","","","9","94","SCT:04 108","29.89","28.37","6.21","70","000","","0","","","","","","","","","","","","","","","","","","","","","","","","","","","","","","","","","","","","","","","","","","","","","","","","","","","","","","","","","","","","","","","","","","","","","","","","","","","","","","","","","","","","","","","","","","","SYN112AAXX  17064 65319 12960 70000 10217 20206 39607 40122 60044 84032 333 01959 20212 50524 55077 59028 84361 85076;","","","","","","","","","",""
"65319099999","2005-09-17T13:00:00","10.3166667","1.3833333","461.0","NATITINGOU, BN","FM-12","4","","77","87","","","","9","72","FEW:01 13 SCT:04 20 BKN:05 256","29.88","28.37","6.21","80","280","","5","","","","","","","","","","","","","","","","","","","","","","","","","","","","","","","","","","","","","","","","","","","","","","","","","","","","","","","","","","","","","","","","","","","","","","","","","","","","","","","","","","","","","","","","","","","SYN106AAXX  17124 65319 32460 72804 10305 20248 39608 40117 84802 333 0//00 58007 81613 84820 85076 94919 95839;","","","","","","","","","",""
"65319099999","2005-09-17T19:00:00","10.3166667","1.3833333","461.0","NATITINGOU, BN","FM-12","4","","75","82","","","","9","78","FEW:01 13 SCT:03 20 BKN:05 256","29.82","28.30","6.21","77","000","","0","","","","","","","","","","","","","","","","","","","","","","","","","","","","","","","","","","","","","","","","","","","","","","","","","","","","","","","","","","","","","","","","","","","","","","","","","","","","","","","","","","","","","","","","","","","SYN118AAXX  17184 65319 11460 70000 10280 20238 39582 40098 69932 70196 83802 333 10321 59012 81613 83820 85076 94919 95834;","","","","","","","","","",""
"65319099999","2005-09-18T01:00:00","10.3166667","1.3833333","461.0","NATITINGOU, BN","FM-12","4","","72","76","","","","9","88","BKN:05 256","29.88","28.38","6.21","73","000","","0","","","","","","","","","","","","","","","","","","","","","","","","","","","","","","","","","","","","","","","","","","","","","","","","","","","","","","","","","","","","","","","","","","","","","","","","","","","","","","","","","","","","","","","","","","","SYN082AAXX  18004 65319 33960 50000 10245 20223 39610 40119 80002 333 0//00 58003 85076;","","","","","","","","","",""
"65319099999","2005-09-18T07:00:00","10.3166667","1.3833333","461.0","NATITINGOU, BN","FM-12","4","","70","72","","","","9","94","","29.89","28.38","6.21","71","000","","0","","","","","","","","","","","","","","","","","","","","","","","","","","","","","","","","","","","","","","","","","","","","","","","","","","","","","","","","","","","","","","","","","","","","","","","","","","","","","","","","","","","","","","","","","","","SYN106AAXX  18064 65319 12960 70000 10220 20210 39610 40123 69934 80008 333 01951 20215 50484 55075 58003 87276;","","","","","","","","","",""
"65319099999","2005-09-18T13:00:00","10.3166667","1.3833333","461.0","NATITINGOU, BN","FM-12","4","","76","87","","","","9","70","FEW:02 13 BKN:06 20","29.88","28.38","6.21","79","240","","5","","","","","","","","","","","","","","","","","","","","","","","","","","","","","","","","","","","","","","","","","","","","","","","","","","","","","","","","","","","","","","","","","","","","","","","","","","","","","","","","","","","","","","","","","","","SYN100AAXX  18124 65319 32460 72404 10307 20246 39611 40120 86802 333 0//00 58003 82613 86820 94919 95839;","","","","","","","","","",""
"65319099999","2005-09-18T19:00:00","10.3166667","1.3833333","461.0","NATITINGOU, BN","FM-12","4","","74","77","","","","9","90","FEW:02 13 SCT:03 20 FEW:01 30","29.85","28.33","4.97","75","360","","5","","","","","","","","","","","","","","","","","","","","","","","","","","","","","","","","","","","","","","","","","","","","","","","","","","","","","","","","","","","","","","","","","","","","","","","","","","","","","","","","","","","","","","","","","","","SYN124AAXX  18184 65319 11458 73604 10250 20233 39592 40107 60102 72996 85902 333 10325 59005 82613 83820 81930 85076 94943 95875;","","","","","","","","","",""
"65319099999","2005-09-19T01:00:00","10.3166667","1.3833333","461.0","NATITINGOU, BN","FM-12","4","","69","73","","","","9","87","SCT:04 13 FEW:01 30 OVC:08 108","29.90","28.39","6.21","70","000","","0","","","","","","","","","","","","","","","","","","","","","","","","","","","","","","","","","","","","","","","","","","","","","","","","","","","","","","","","","","","","","","","","","","","","","","","","","","","","","","","","","","","","","","","","","","","SYN118AAXX  19004 65319 11460 80000 10230 20208 39615 40125 69911 72996 8497/ 333 0//13 58005 84613 81930 88361 94942 95872;","","","","","","","","","",""
"65319099999","2005-09-19T07:00:00","10.3166667","1.3833333","461.0","NATITINGOU, BN","FM-12","4","","69","72","","","","9","91","SCT:03 13","29.89","28.37","6.21","70","000","","0","","","","","","","","","","","","","","","","","","","","","","","","","","","","","","","","","","","","","","","","","","","","","","","","","","","","","","","","","","","","","","","","","","","","","","","","","","","","","","","","","","","","","","","","","","","SYN112AAXX  19064 65319 12460 70000 10220 20205 39607 40122 60104 8357/ 333 01919 20218 50374 55067 59003 83613 87361;","","","","","","","","","",""
"65319099999","2005-09-19T13:00:00","10.3166667","1.3833333","461.0","NATITINGOU, BN","FM-12","4","","78","89","","","","9","70","FEW:01 13 SCT:03 108 BKN:05 256","29.91","28.40","6.21","81","160","","5","","","","","","","","","","","","","","","","","","","","","","","","","","","","","","","","","","","","","","","","","","","","","","","","","","","","","","","","","","","","","","","","","","","","","","","","","","","","","","","","","","","","","","","","","","","SYN106AAXX  19124 65319 32460 71604 10315 20253 39618 40127 82832 333 0//00 59007 81613 83361 85076 94909 95819;","","","","","","","","","",""
"65319099999","2005-09-19T19:00:00","10.3166667","1.3833333","461.0","NATITINGOU, BN","FM-12","4","","74","79","","","","9","84","SCT:03 108","29.87","28.35","6.21","75","000","","0","","","","","","","","","","","","","","","","","","","","","","","","","","","","","","","","","","","","","","","","","","","","","","","","","","","","","","","","","","","","","","","","","","","","","","","","","","","","","","","","","","","","","","","","","","","SYN088AAXX  19184 65319 32460 70000 10261 20232 39601 40115 83036 333 10337 58009 83361 87276;","","","","","","","","","",""
"65319099999","2005-09-20T01:00:00","10.3166667","1.3833333","461.0","NATITINGOU, BN","FM-12","4","","71","75","","","","9","89","BKN:07 256","29.89","28.39","6.21","72","280","","5","","","","","","","","","","","","","","","","","","","","","","","","","","","","","","","","","","","","","","","","","","","","","","","","","","","","","","","","","","","","","","","","","","","","","","","","","","","","","","","","","","","","","","","","","","","SYN082AAXX  20004 65319 33960 72804 10238 20218 39614 40123 80006 333 0//00 59001 87276;","","","","","","","","","",""
"65319099999","2005-09-20T07:00:00","10.3166667","1.3833333","461.0","NATITINGOU, BN","FM-12","4","","72","73","","","","9","94","","29.88","28.36","1.86","72","220","","5","","","","","","","","","","","","","","","","","","","","","","","","","","","","","","","","","","","","","","","","","","","","","","","","","","","","","","","","","","","","","","","","","","","","","","","","","","","","","","","","","","","","","","","","","","","SYN106AAXX  20064 65319 31430 72204 10230 20220 39605 40118 71022 875// 333 01900 20221 50394 55061 59002 87613;","","","","","","","","","",""
"65319099999","2005-09-20T13:00:00","10.3166667","1.3833333","461.0","NATITINGOU, BN","FM-12","4","","71","76","","","","9","84","FEW:02 13 SCT:03 20 BKN:07 256","29.88","28.36","6.21","73","000","","0","","","","","","","","","","","","","","","","","","","","","","","","","","","","","","","","","","","","","","","","","","","","","","","","","","","","","","","","","","","","","","","","","","","","","","","","","","","","","","","","","","","","","","","","","","","SYN118AAXX  20124 65319 11460 70000 10245 20216 39603 40118 60011 70166 84806 333 0//00 59015 82613 83820 87276 94915 95837;","","","","","","","","","",""
"65319099999","2005-09-20T19:00:00","10.3166667","1.3833333","461.0","NATITINGOU, BN","FM-12","4","","74","81","","","","9","81","SCT:03 13 BKN:05 108","29.77","28.26","6.21","76","000","","0","","","","","","","","","","","","","","","","","","","","","","","","","","","","","","","","","","","","","","","","","","","","","","","","","","","","","","","","","","","","","","","","","","","","","","","","","","","","","","","","","","","","","","","","","","","SYN100AAXX  20184 65319 32460 70000 10270 20234 39571 40082 84832 333 10280 59030 83613 85361 94904 95817;","","","","","","","","","",""
"65319099999","2005-09-21T01:00:00","10.3166667","1.3833333","461.0","NATITINGOU, BN","FM-12","4","","74","76","","","","9","93","SCT:03 13","29.85","28.34","6.21","75","000","","0","","","","","","","","","","","","","","","","","","","","","","","","","","","","","","","","","","","","","","","","","","","","","","","","","","","","","","","","","","","","","","","","","","","","","","","","","","","","","","","","","","","","","","","","","","","SYN088AAXX  21004 65319 33460 70000 10243 20231 39597 40110 8353/ 333 0//00 59013 83613 87361;","","","","","","","","","",""
"65319099999","2005-09-21T07:00:00","10.3166667","1.3833333","461.0","NATITINGOU, BN","FM-12","4","","67","70","","||TS","","9","91","BKN:05 13 FEW:01 30 OVC:08 108","29.90","28.38","4.97","68","120","","5","","","","","","","","","","","","","","","","","","","","","","","","","","","","","","","","","","","","","","","","","","","","","","","","","","","","","","","","","","","","","","","","","","","","","","","","","","","","","","","","","","","","","","","","","","","SYN136AAXX  21064 65319 11458 81204 10210 20195 39610 40125 60054 79596 8597/ 333 01951 20205 50234 55019 58005 85613 81930 88461 94943 95873;","","","","","","","","","",""
"65319099999","2005-09-21T13:00:00","10.3166667","1.3833333","461.0","NATITINGOU, BN","FM-12","4","","71","80","","","","9","74","FEW:01 13 SCT:03 20 BKN:06 108","29.83","28.32","6.21","74","220","","2","","","","","","","","","","","","","","","","","","","","","","","","","","","","","","","","","","","","","","","","","","","","","","","","","","","","","","","","","","","","","","","","","","","","","","","","","","","","","","","","","","","","","","","","","","","SYN118AAXX  21124 65319 11460 72202 10268 20217 39590 40101 60021 72496 83832 333 0//52 59013 81613 83820 86361 94919 95834;","","","","","","","","","",""
"65319099999","2005-09-21T19:00:00","10.3166667","1.3833333","461.0","NATITINGOU, BN","FM-12","4","","74","80","","","","9","80","FEW:01 13","29.82","28.31","6.21","76","200","","2","","","","","","","","","","","","","","","","","","","","","","","","","","","","","","","","","","","","","","","","","","","","","","","","","","","","","","","","","","","","","","","","","","","","","","","","","","","","","","","","","","","","","","","","","","","SYN094AAXX  21184 65319 12460 72002 10268 20231 39586 40099 60022 81532 333 10293 58015 81613 85361;","","","","","","","","","",""
"65319099999","2005-09-22T01:00:00","10.3166667","1.3833333","461.0","NATITINGOU, BN","FM-12","4","","71","73","","","","9","93","SCT:03 108","29.86","28.35","6.21","72","000","","0","","","","","","","","","","","","","","","","","","","","","","","","","","","","","","","","","","","","","","","","","","","","","","","","","","","","","","","","","","","","","","","","","","","","","","","","","","","","","","","","","","","","","","","","","","","SYN088AAXX  22004 65319 33960 70000 10230 20218 39601 40113 83032 333 0//00 58004 83361 85076;","","","","","","","","","",""
"65319099999","2005-09-22T07:00:00","10.3166667","1.3833333","461.0","NATITINGOU, BN","FM-12","4","","69","72","","","","9","93","SCT:04 108","29.86","28.35","6.21","70","000","","0","","","","","","","","","","","","","","","","","","","","","","","","","","","","","","","","","","","","","","","","","","","","","","","","","","","","","","","","","","","","","","","","","","","","","","","","","","","","","","","","","","","","","","","","","","","SYN112AAXX  22064 65319 12960 70000 10220 20208 39600 40113 60024 84032 333 01851 20212 50324 55035 59010 84361 84076;","","","","","","","","","",""
"65319099999","2005-09-22T13:00:00","10.3166667","1.3833333","461.0","NATITINGOU, BN","FM-12","4","","75","86","","","","9","69","FEW:01 13 SCT:04 20 BKN:05 256","29.84","28.34","6.21","78","000","","0","","","","","","","","","","","","","","","","","","","","","","","","","","","","","","","","","","","","","","","","","","","","","","","","","","","","","","","","","","","","","","","","","","","","","","","","","","","","","","","","","","","","","","","","","","","SYN106AAXX  22124 65319 32460 70000 10300 20237 39597 40106 84802 333 0//00 58007 81613 84820 85076 94919 95839;","","","","","","","","","",""
"65319099999","2005-09-22T19:00:00","10.3166667","1.3833333","461.0","NATITINGOU, BN","FM-12","4","","70","78","","","","9","74","FEW:01 30 SCT:03 108 BKN:05 256","29.80","28.29","6.21","73","020","","7","","","","","","","","","","","","","","","","","","","","","","","","","","","","","","","","","","","","","","","","","","","","","","","","","","","","","","","","","","","","","","","","","","","","","","","","","","","","","","","","","","","","","","","","","","","SYN112AAXX  22184 65319 31460 70206 10258 20209 39579 40092 72999 81932 333 10320 59007 81930 83361 85076 94944 95874;","","","","","","","","","",""
"65319099999","2005-09-23T01:00:00","10.3166667","1.3833333","461.0","NATITINGOU, BN","FM-12","4","","72","74","","","","9","91","BKN:07 256","29.87","28.37","6.21","73","000","","0","","","","","","","","","","","","","","","","","","","","","","","","","","","","","","","","","","","","","","","","","","","","","","","","","","","","","","","","","","","","","","","","","","","","","","","","","","","","","","","","","","","","","","","","","","","SYN082AAXX  23004 65319 33960 70000 10235 20220 39606 40115 80006 333 0//00 58005 87276;","","","","","","","","","",""
"65319099999","2005-09-23T07:00:00","10.3166667","1.3833333","461.0","NATITINGOU, BN","FM-12","4","","71","73","","","","9","91","SCT:03 13","29.88","28.37","6.21","72","000","","0","","","","","","","","","","","","","","","","","","","","","","","","","","","","","","","","","","","","","","","","","","","","","","","","","","","","","","","","","","","","","","","","","","","","","","","","","","","","","","","","","","","","","","","","","","","SYN106AAXX  23064 65319 32460 70000 10230 20215 39607 40120 8357/ 333 01900 20225 50404 55073 58007 83613 87361;","","","","","","","","","",""
"65319099999","2005-09-23T13:00:00","10.3166667","1.3833333","461.0","NATITINGOU, BN","FM-12","4","","72","87","","","","9","60","FEW:01 13 SCT:03 20 BKN:05 108","29.83","28.33","6.21","76","000","","0","","","","","","","","","","","","","","","","","","","","","","","","","","","","","","","","","","","","","","","","","","","","","","","","","","","","","","","","","","","","","","","","","","","","","","","","","","","","","","","","","","","","","","","","","","","SYN106AAXX  23124 65319 32460 70000 10308 20222 39595 40103 83832 333 0//00 59002 81613 83820 85361 94919 95839;","","","","","","","","","",""
"65319099999","2005-09-23T19:00:00","10.3166667","1.3833333","461.0","NATITINGOU, BN","FM-12","4","","75","82","","","","9","78","FEW:01 13 FEW:01 30 BKN:06 256","29.79","28.29","6.21","77","000","","0","","","","","","","","","","","","","","","","","","","","","","","","","","","","","","","","","","","","","","","","","","","","","","","","","","","","","","","","","","","","","","","","","","","","","","","","","","","","","","","","","","","","","","","","","","","SYN106AAXX  23184 65319 32460 70000 10280 20238 39579 40089 82932 333 10332 58000 81613 81930 86076 94946 95836;","","","","","","","","","",""
"65319099999","2005-09-24T01:00:00","10.3166667","1.3833333","461.0","NATITINGOU, BN","FM-12","4","","70","76","","","","9","81","BKN:07 108","29.83","28.33","6.21","72","000","","0","","","","","","","","","","","","","","","","","","","","","","","","","","","","","","","","","","","","","","","","","","","","","","","","","","","","","","","","","","","","","","","","","","","","","","","","","","","","","","","","","","","","","","","","","","","SYN082AAXX  24004 65319 33960 70000 10246 20212 39594 40102 8703/ 333 0//00 59012 87361;","","","","","","","","","",""
"65319099999","2005-09-24T07:00:00","10.3166667","1.3833333","461.0","NATITINGOU, BN","FM-12","4","","69","72","","||DZ","","9","90","SCT:03 13","29.86","28.35","6.21","70","080","","5","","","","","","","","","","","","","","","","","","","","","","","","","","","","","","","","","","","","","","","","","","","","","","","","","","","","","","","","","","","","","","","","","","","","","","","","","","","","","","","","","","","","","","","","","","","SYN118AAXX  24064 65319 11460 70804 10220 20203 39600 40112 60044 75196 8357/ 333 02051 20214 50454 55070 59007 83613 87461;","","","","","","","","","",""
"65319099999","2005-09-24T13:00:00","10.3166667","1.3833333","461.0","NATITINGOU, BN","FM-12","4","","71","78","","||RA","","9","80","BKN:07 13","29.88","28.36","6.21","73","120","","5","","","","","","","","","","","","","","","","","","","","","","","","","","","","","","","","","","","","","","","","","","","","","","","","","","","","","","","","","","","","","","","","","","","","","","","","","","","","","","","","","","","","","","","","","","","SYN094AAXX  24124 65319 11460 71204 10255 20218 39605 40117 69901 76166 875// 333 0//51 58010 87613;","","","","","","","","","",""
"65319099999","2005-09-24T19:00:00","10.3166667","1.3833333","461.0","NATITINGOU, BN","FM-12","4","","73","79","","","","9","81","FEW:02 13 SCT:03 20","29.82","28.30","6.21","75","000","","0","","","","","","","","","","","","","","","","","","","","","","","","","","","","","","","","","","","","","","","","","","","","","","","","","","","","","","","","","","","","","","","","","","","","","","","","","","","","","","","","","","","","","","","","","","","SYN112AAXX  24184 65319 11460 70000 10262 20226 39585 40098 69902 70166 84832 333 10270 58006 82613 83820 94915 95837;","","","","","","","","","",""
"65319099999","2005-09-25T01:00:00","10.3166667","1.3833333","461.0","NATITINGOU, BN","FM-12","4","","69","72","","","","9","91","SCT:03 13","29.90","28.38","6.21","70","000","","0","","","","","","","","","","","","","","","","","","","","","","","","","","","","","","","","","","","","","","","","","","","","","","","","","","","","","","","","","","","","","","","","","","","","","","","","","","","","","","","","","","","","","","","","","","","SYN100AAXX  25004 65319 11460 80000 10220 20205 39610 40125 60011 7006/ 8357/ 333 0//56 58016 83613 88361;","","","","","","","","","",""
"65319099999","2005-09-25T07:00:00","10.3166667","1.3833333","461.0","NATITINGOU, BN","FM-12","4","","69","72","","","","9","93","SCT:03 13","29.87","28.35","6.21","70","200","","5","","","","","","","","","","","","","","","","","","","","","","","","","","","","","","","","","","","","","","","","","","","","","","","","","","","","","","","","","","","","","","","","","","","","","","","","","","","","","","","","","","","","","","","","","","","SYN112AAXX  25064 65319 12460 72004 10220 20208 39600 40114 60014 8353/ 333 01959 20215 50144 55012 58000 83613 87361;","","","","","","","","","",""
"65319099999","2005-09-25T13:00:00","10.3166667","1.3833333","461.0","NATITINGOU, BN","FM-12","4","","72","83","","","","9","70","FEW:01 13 SCT:03 20 BKN:07 108","29.90","28.39","6.21","75","180","","7","","","","","","","","","","","","","","","","","","","","","","","","","","","","","","","","","","","","","","","","","","","","","","","","","","","","","","","","","","","","","","","","","","","","","","","","","","","","","","","","","","","","","","","","","","","SYN106AAXX  25124 65319 32460 71806 10284 20224 39613 40126 8383/ 333 0//00 58008 81613 83820 87361 94919 95834;","","","","","","","","","",""
"65319099999","2005-09-25T19:00:00","10.3166667","1.3833333","461.0","NATITINGOU, BN","FM-12","4","","74","81","","","","9","80","FEW:01 13 BKN:07 256","29.85","28.33","6.21","76","000","","0","","","","","","","","","","","","","","","","","","","","","","","","","","","","","","","","","","","","","","","","","","","","","","","","","","","","","","","","","","","","","","","","","","","","","","","","","","","","","","","","","","","","","","","","","","","SYN100AAXX  25184 65319 32460 70000 10270 20233 39594 40107 82836 333 10307 58009 81613 87276 94919 95832;","","","","","","","","","",""
"65319099999","2005-09-26T01:00:00","10.3166667","1.3833333","461.0","NATITINGOU, BN","FM-12","4","","72","74","","","","9","92","BKN:05 256","29.90","28.39","6.21","73","000","","0","","","","","","","","","","","","","","","","","","","","","","","","","","","","","","","","","","","","","","","","","","","","","","","","","","","","","","","","","","","","","","","","","","","","","","","","","","","","","","","","","","","","","","","","","","","SYN082AAXX  26004 65319 33960 50000 10233 20220 39613 40124 80002 333 0//00 58003 85076;","","","","","","","","","",""
"65319099999","2005-09-26T07:00:00","10.3166667","1.3833333","461.0","NATITINGOU, BN","FM-12","4","","67","69","","||RA","","9","93","SCT:03 13","29.94","28.42","11.18","68","000","","0","","","","","","","","","","","","","","","","","","","","","","","","","","","","","","","","","","","","","","","","","","","","","","","","","","","","","","","","","","","","","","","","","","","","","","","","","","","","","","","","","","","","","","","","","","","SYN118AAXX  26064 65319 11468 80000 10206 20195 39624 40139 60034 76166 8357/ 333 01951 20200 50344 55040 58024 83613 88461;","","","","","","","","","",""
"65319099999","2005-09-26T13:00:00","10.3166667","1.3833333","461.0","NATITINGOU, BN","FM-12","4","","72","82","","","","9","71","FEW:01 13 SCT:03 20 BKN:07 108","29.89","28.38","6.21","75","220","","5","","","","","","","","","","","","","","","","","","","","","","","","","","","","","","","","","","","","","","","","","","","","","","","","","","","","","","","","","","","","","","","","","","","","","","","","","","","","","","","","","","","","","","","","","","","SYN118AAXX  26124 65319 11460 72204 10280 20222 39609 40121 69941 70366 8383/ 333 0//57 58004 81613 83820 87361 94913 95838;","","","","","","","","","",""
"65319099999","2005-09-26T19:00:00","10.3166667","1.3833333","461.0","NATITINGOU, BN","FM-12","4","","71","81","","","","9","74","FEW:01 13 BKN:05 256","29.83","28.32","6.21","74","000","","0","","","","","","","","","","","","","","","","","","","","","","","","","","","","","","","","","","","","","","","","","","","","","","","","","","","","","","","","","","","","","","","","","","","","","","","","","","","","","","","","","","","","","","","","","","","SYN100AAXX  26184 65319 32460 70000 10270 20219 39589 40102 82802 333 10302 59005 81613 85076 94903 95813;","","","","","","","","","",""
"65319099999","2005-09-27T01:00:00","10.3166667","1.3833333","461.0","NATITINGOU, BN","FM-12","4","","71","75","","","","9","88","BKN:07 108","29.88","28.38","6.21","72","000","","0","","","","","","","","","","","","","","","","","","","","","","","","","","","","","","","","","","","","","","","","","","","","","","","","","","","","","","","","","","","","","","","","","","","","","","","","","","","","","","","","","","","","","","","","","","","SYN082AAXX  27004 65319 33960 70000 10240 20218 39609 40120 8707/ 333 0//00 59004 87361;","","","","","","","","","",""
"65319099999","2005-09-27T07:00:00","10.3166667","1.3833333","461.0","NATITINGOU, BN","FM-12","4","","71","72","","","","9","96","","29.88","28.37","6.21","71","000","","0","","","","","","","","","","","","","","","","","","","","","","","","","","","","","","","","","","","","","","","","","","","","","","","","","","","","","","","","","","","","","","","","","","","","","","","","","","","","","","","","","","","","","","","","","","","SYN106AAXX  27064 65319 12460 70000 10225 20218 39607 40119 69944 875// 333 01759 20220 50324 55058 59017 87613;","","","","","","","","","",""
"65319099999","2005-09-27T11:00:00","10.3166667","1.3833333","461.0","NATITINGOU, BN","FM-12","4","","72","76","","","","9","88","FEW:02 13","29.90","28.38","4.97","73","000","","0","","","","","","","","","","","","","","","","","","","","","","","","","","","","","","","","","","","","","","","","","","","","","","","","","","","","","","","","","","","","","","","","","","","","","","","","","","","","","","","","","","","","","","","","","","","SYN100AAXX  27104 65319 11458 70000 10245 20223 39610 40126 60032 70166 8257/ 333 10309 58021 82613 87461;","","","","","","","","","",""
"65319099999","2005-09-27T13:00:00","10.3166667","1.3833333","461.0","NATITINGOU, BN","FM-12","4","","74","84","","","","9","72","FEW:01 13 SCT:03 20 BKN:07 108","29.93","28.42","6.21","77","200","","5","","","","","","","","","","","","","","","","","","","","","","","","","","","","","","","","","","","","","","","","","","","","","","","","","","","","","","","","","","","","","","","","","","","","","","","","","","","","","","","","","","","","","","","","","","","SYN106AAXX  27124 65319 32460 72004 10287 20231 39623 40134 8383/ 333 0//00 58014 81613 83820 87361 94919 95834;","","","","","","","","","",""
"65319099999","2005-09-27T19:00:00","10.3166667","1.3833333","461.0","NATITINGOU, BN","FM-12","4","","72","76","","","","9","88","FEW:02 13","29.90","28.38","4.97","73","000","","0","","","","","","","","","","","","","","","","","","","","","","","","","","","","","","","","","","","","","","","","","","","","","","","","","","","","","","","","","","","","","","","","","","","","","","","","","","","","","","","","","","","","","","","","","","","SYN100AAXX  27184 65319 11458 70000 10245 20223 39610 40126 60032 70166 8257/ 333 10309 58021 82613 87461;","","","","","","","","","",""
"65319099999","2005-09-28T01:00:00","10.3166667","1.3833333","461.0","NATITINGOU, BN","FM-12","4","","68","72","","","","9","87","SCT:03 13","29.93","28.42","4.97","69","060","","2","","","","","","","","","","","","","","","","","","","","","","","","","","","","","","","","","","","","","","","","","","","","","","","","","","","","","","","","","","","","","","","","","","","","","","","","","","","","","","","","","","","","","","","","","","","SYN100AAXX  28004 65319 11458 70602 10223 20200 39623 40136 69911 7216/ 8353/ 333 0//51 58014 83613 87461;","","","","","","","","","",""
"65319099999","2005-09-28T07:00:00","10.3166667","1.3833333","461.0","NATITINGOU, BN","FM-12","4","","68","71","","","","9","91","","29.93","28.41","6.21","69","000","","0","","","","","","","","","","","","","","","","","","","","","","","","","","","","","","","","","","","","","","","","","","","","","","","","","","","","","","","","","","","","","","","","","","","","","","","","","","","","","","","","","","","","","","","","","","","SYN112AAXX  28064 65319 11960 70000 10215 20200 39620 40137 60034 70266 8707/ 333 02053 20209 50224 55023 58013 87461;","","","","","","","","","",""
"65319099999","2005-09-28T19:00:00","10.3166667","1.3833333","461.0","NATITINGOU, BN","FM-12","4","","74","78","","","","9","88","FEW:02 13 FEW:01 30 SCT:03 108","29.82","28.30","6.21","75","000","","0","","","","","","","","","","","","","","","","","","","","","","","","","","","","","","","","","","","","","","","","","","","","","","","","","","","","","","","","","","","","","","","","","","","","","","","","","","","","","","","","","","","","","","","","","","","SYN124AAXX  28184 65319 11460 70000 10255 20234 39585 40099 60032 72166 84932 333 10320 59025 82613 81930 83361 85076 94942 95874;","","","","","","","","","",""
"65319099999","2005-09-29T01:00:00","10.3166667","1.3833333","461.0","NATITINGOU, BN","FM-12","4","","72","74","","","","9","91","FEW:01 30 BKN:05 256","29.89","28.38","6.21","73","000","","0","","","","","","","","","","","","","","","","","","","","","","","","","","","","","","","","","","","","","","","","","","","","","","","","","","","","","","","","","","","","","","","","","","","","","","","","","","","","","","","","","","","","","","","","","","","SYN106AAXX  29004 65319 31560 50000 10235 20220 39611 40121 7006/ 81902 333 0//00 59012 81930 85076 94942 95832;","","","","","","","","","",""
"65319099999","2005-09-29T07:00:00","10.3166667","1.3833333","461.0","NATITINGOU, BN","FM-12","4","","70","72","","","","9","96","SCT:03 108","29.88","28.36","6.21","71","000","","0","","","","","","","","","","","","","","","","","","","","","","","","","","","","","","","","","","","","","","","","","","","","","","","","","","","","","","","","","","","","","","","","","","","","","","","","","","","","","","","","","","","","","","","","","","","SYN112AAXX  29064 65319 12960 70000 10220 20213 39603 40117 60034 83032 333 01859 20220 50374 55057 59017 83361 85076;","","","","","","","","","",""
"65319099999","2005-09-29T13:00:00","10.3166667","1.3833333","461.0","NATITINGOU, BN","FM-12","4","","73","88","","","","9","62","FEW:01 13 SCT:03 20 BKN:05 256","29.86","28.36","6.21","77","180","","5","","","","","","","","","","","","","","","","","","","","","","","","","","","","","","","","","","","","","","","","","","","","","","","","","","","","","","","","","","","","","","","","","","","","","","","","","","","","","","","","","","","","","","","","","","","SYN106AAXX  29124 65319 32460 71804 10310 20229 39605 40113 83802 333 0//00 59003 81613 83820 85076 94919 95839;","","","","","","","","","",""
"65319099999","2005-09-29T19:00:00","10.3166667","1.3833333","461.0","NATITINGOU, BN","FM-12","4","","76","80","","","","9","89","SCT:03 13","29.83","28.31","4.97","77","000","","0","","","","","","","","","","","","","","","","","","","","","","","","","","","","","","","","","","","","","","","","","","","","","","","","","","","","","","","","","","","","","","","","","","","","","","","","","","","","","","","","","","","","","","","","","","","SYN100AAXX  29184 65319 11458 70000 10264 20245 39588 40101 60052 72166 8357/ 333 10328 58003 83613 87461;","","","","","","","","","",""
"65319099999","2005-09-30T01:00:00","10.3166667","1.3833333","461.0","NATITINGOU, BN","FM-12","4","","73","76","","","","9","92","BKN:05 256","29.85","28.37","6.21","74","000","","0","","","","","","","","","","","","","","","","","","","","","","","","","","","","","","","","","","","","","","","","","","","","","","","","","","","","","","","","","","","","","","","","","","","","","","","","","","","","","","","","","","","","","","","","","","","SYN094AAXX  30004 65319 11960 50000 10242 20229 39607 40108 60011 70196 80002 333 0//52 59004 85076;","","","","","","","","","",""
"65319099999","2005-09-30T07:00:00","10.3166667","1.3833333","461.0","NATITINGOU, BN","FM-12","4","","72","73","","","","9","94","","29.87","28.36","6.21","72","200","","5","","","","","","","","","","","","","","","","","","","","","","","","","","","","","","","","","","","","","","","","","","","","","","","","","","","","","","","","","","","","","","","","","","","","","","","","","","","","","","","","","","","","","","","","","","","SYN106AAXX  30064 65319 12960 72004 10230 20220 39603 40116 60064 80008 333 01963 20223 50434 55088 58000 87276;","","","","","","","","","",""
"65319099999","2005-09-30T13:00:00","10.3166667","1.3833333","461.0","NATITINGOU, BN","FM-12","4","","76","88","","","","9","68","FEW:02 13 SCT:04 20 BKN:07 256","29.83","28.33","6.21","79","220","","7","","","","","","","","","","","","","","","","","","","","","","","","","","","","","","","","","","","","","","","","","","","","","","","","","","","","","","","","","","","","","","","","","","","","","","","","","","","","","","","","","","","","","","","","","","","SYN106AAXX  30124 65319 32460 72206 10310 20243 39592 40100 85808 333 0//00 59013 82613 84820 87276 94919 95839;","","","","","","","","","",""
"65319099999","2005-09-30T19:00:00","10.3166667","1.3833333","461.0","NATITINGOU, BN","FM-12","4","","69","74","","||RA","","9","83","SCT:04 13 FEW:01 30 BKN:07 108","29.83","28.31","4.97","71","200","","5","","","","","","","","","","","","","","","","","","","","","","","","","","","","","","","","","","","","","","","","","","","","","","","","","","","","","","","","","","","","","","","","","","","","","","","","","","","","","","","","","","","","","","","","","","","SYN118AAXX  30184 65319 11458 72004 10235 20205 39587 40101 60022 79196 8497/ 333 10320 59001 84613 81930 87461 94945 95875;","","","","","","","","","",""
"65319099999","2005-10-01T01:00:00","10.3166667","1.3833333","461.0","NATITINGOU, BN","FM-12","4","","70","72","","","","9","91","BKN:05 256","29.83","28.33","6.21","71","000","","0","","","","","","","","","","","","","","","","","","","","","","","","","","","","","","","","","","","","","","","","","","","","","","","","","","","","","","","","","","","","","","","","","","","","","","","","","","","","","","","","","","","","","","","","","","","SYN094AAXX  01004 65319 11460 50000 10225 20210 39594 40102 69921 7006/ 80002 333 0//52 59013 85076;","","","","","","","","","",""
"65319099999","2005-10-01T07:00:00","10.3166667","1.3833333","461.0","NATITINGOU, BN","FM-12","4","","69","72","","","","9","91","BKN:05 13","29.87","28.35","6.21","70","000","","0","","","","","","","","","","","","","","","","","","","","","","","","","","","","","","","","","","","","","","","","","","","","","","","","","","","","","","","","","","","","","","","","","","","","","","","","","","","","","","","","","","","","","","","","","","","SYN112AAXX  01064 65319 12460 70000 10222 20207 39599 40114 60114 8557/ 333 01959 20210 50484 55061 59004 85613 87361;","","","","","","","","","",""
"65319099999","2005-10-01T13:00:00","10.3166667","1.3833333","461.0","NATITINGOU, BN","FM-12","4","","73","83","","","","9","71","FEW:01 13 SCT:04 20","29.88","28.37","6.21","76","180","","7","","","","","","","","","","","","","","","","","","","","","","","","","","","","","","","","","","","","","","","","","","","","","","","","","","","","","","","","","","","","","","","","","","","","","","","","","","","","","","","","","","","","","","","","","","","SYN100AAXX  01124 65319 32460 71806 10285 20228 39606 40118 84832 333 0//00 58014 81613 84820 94919 95839;","","","","","","","","","",""
"65319099999","2005-10-01T19:00:00","10.3166667","1.3833333","461.0","NATITINGOU, BN","FM-12","4","","76","83","","","","9","78","FEW:02 20 FEW:01 30 BKN:05 256","29.82","28.31","6.21","78","000","","0","","","","","","","","","","","","","","","","","","","","","","","","","","","","","","","","","","","","","","","","","","","","","","","","","","","","","","","","","","","","","","","","","","","","","","","","","","","","","","","","","","","","","","","","","","","SYN106AAXX  01184 65319 32560 70000 10285 20243 39587 40098 82902 333 10315 58000 82820 81930 85076 94944 95874;","","","","","","","","","",""
"65319099999","2005-10-02T01:00:00","10.3166667","1.3833333","461.0","NATITINGOU, BN","FM-12","4","","74","76","","","","9","92","BKN:05 256","29.88","28.38","6.21","75","000","","0","","","","","","","","","","","","","","","","","","","","","","","","","","","","","","","","","","","","","","","","","","","","","","","","","","","","","","","","","","","","","","","","","","","","","","","","","","","","","","","","","","","","","","","","","","","SYN082AAXX  02004 65319 33960 50000 10245 20231 39609 40119 80002 333 0//00 58015 85076;","","","","","","","","","",""
"65319099999","2005-10-02T07:00:00","10.3166667","1.3833333","461.0","NATITINGOU, BN","FM-12","4","","72","73","","","","9","96","","29.86","28.35","6.21","72","000","","0","","","","","","","","","","","","","","","","","","","","","","","","","","","","","","","","","","","","","","","","","","","","","","","","","","","","","","","","","","","","","","","","","","","","","","","","","","","","","","","","","","","","","","","","","","","SYN100AAXX  02064 65319 32960 70000 10230 20223 39602 40113 8707/ 333 02100 20225 50194 55056 58003 87361;","","","","","","","","","",""
"65319099999","2005-10-02T13:00:00","10.3166667","1.3833333","461.0","NATITINGOU, BN","FM-12","4","","73","79","","","","9","82","FEW:01 13 SCT:03 20 FEW:01 30","29.87","28.36","4.97","75","320","","2","","","","","","","","","","","","","","","","","","","","","","","","","","","","","","","","","","","","","","","","","","","","","","","","","","","","","","","","","","","","","","","","","","","","","","","","","","","","","","","","","","","","","","","","","","","SYN124AAXX  02124 65319 11458 73202 10262 20229 39603 40115 60081 72996 8597/ 333 0//61 59003 81613 83820 81930 87461 94969 95836;","","","","","","","","","",""
"65319099999","2005-10-02T19:00:00","10.3166667","1.3833333","461.0","NATITINGOU, BN","FM-12","4","","73","76","","||TS","","9","92","SCT:04 13 FEW:01 30 OVC:08 108","29.85","28.33","4.97","74","080","","5","","","","","","","","","","","","","","","","","","","","","","","","","","","","","","","","","","","","","","","","","","","","","","","","","","","","","","","","","","","","","","","","","","","","","","","","","","","","","","","","","","","","","","","","","","","SYN118AAXX  02184 65319 11458 80804 10242 20228 39593 40108 60292 79596 8497/ 333 10299 58006 84613 81930 88461 94942 95832;","","","","","","","","","",""
"65319099999","2005-10-03T01:00:00","10.3166667","1.3833333","461.0","NATITINGOU, BN","FM-12","4","","69","72","","","","9","92","BKN:07 13","29.88","28.36","4.97","70","000","","0","","","","","","","","","","","","","","","","","","","","","","","","","","","","","","","","","","","","","","","","","","","","","","","","","","","","","","","","","","","","","","","","","","","","","","","","","","","","","","","","","","","","","","","","","","","SYN094AAXX  03004 65319 11458 70000 10221 20208 39605 40119 60081 7019/ 875// 333 0//64 59004 87613;","","","","","","","","","",""
"65319099999","2005-10-03T07:00:00","10.3166667","1.3833333","461.0","NATITINGOU, BN","FM-12","4","","69","71","","","","9","95","","29.91","28.38","6.21","70","000","","0","","","","","","","","","","","","","","","","","","","","","","","","","","","","","","","","","","","","","","","","","","","","","","","","","","","","","","","","","","","","","","","","","","","","","","","","","","","","","","","","","","","","","","","","","","","SYN106AAXX  03064 65319 12460 70000 10215 20207 39611 40128 60374 875// 333 02068 20209 50514 55024 58009 87613;","","","","","","","","","",""
"65319099999","2005-10-03T13:00:00","10.3166667","1.3833333","461.0","NATITINGOU, BN","FM-12","4","","73","83","","","","9","73","FEW:02 13 SCT:04 20","29.92","28.40","6.21","76","200","","5","","","","","","","","","","","","","","","","","","","","","","","","","","","","","","","","","","","","","","","","","","","","","","","","","","","","","","","","","","","","","","","","","","","","","","","","","","","","","","","","","","","","","","","","","","","SYN100AAXX  03124 65319 32460 72004 10283 20229 39619 40132 85832 333 0//00 58016 82613 84820 94919 95839;","","","","","","","","","",""
"65319099999","2005-10-03T19:00:00","10.3166667","1.3833333","461.0","NATITINGOU, BN","FM-12","4","","72","76","","","","9","88","FEW:02 20 FEW:01 30 BKN:05 256","29.87","28.35","6.21","73","000","","0","","","","","","","","","","","","","","","","","","","","","","","","","","","","","","","","","","","","","","","","","","","","","","","","","","","","","","","","","","","","","","","","","","","","","","","","","","","","","","","","","","","","","","","","","","","SYN118AAXX  03184 65319 11560 70000 10245 20223 39599 40114 60032 70396 82932 333 10285 58006 82820 81930 85076 94944 95874;","","","","","","","","","",""
"65319099999","2005-10-04T01:00:00","10.3166667","1.3833333","461.0","NATITINGOU, BN","FM-12","4","","72","73","","||TS","","9","94","FEW:01 30 BKN:07 108","29.91","28.40","6.21","72","000","","0","","","","","","","","","","","","","","","","","","","","","","","","","","","","","","","","","","","","","","","","","","","","","","","","","","","","","","","","","","","","","","","","","","","","","","","","","","","","","","","","","","","","","","","","","","","SYN106AAXX  04004 65319 31560 70000 10230 20220 39618 40130 7179/ 8197/ 333 0//00 58013 81930 87361 94944 95874;","","","","","","","","","",""
"65319099999","2005-10-04T07:00:00","10.3166667","1.3833333","461.0","NATITINGOU, BN","FM-12","4","","68","70","","","","9","95","","29.91","28.38","6.21","69","000","","0","","","","","","","","","","","","","","","","","","","","","","","","","","","","","","","","","","","","","","","","","","","","","","","","","","","","","","","","","","","","","","","","","","","","","","","","","","","","","","","","","","","","","","","","","","","SYN112AAXX  04064 65319 11960 70000 10210 20202 39612 40129 60194 70296 8707/ 333 01954 20206 50184 55024 58001 87361;","","","","","","","","","",""
"65319099999","2005-10-04T13:00:00","10.3166667","1.3833333","461.0","NATITINGOU, BN","FM-12","4","","70","82","","","","9","65","FEW:01 13 SCT:03 20 BKN:05 256","29.91","28.40","6.21","74","180","","5","","","","","","","","","","","","","","","","","","","","","","","","","","","","","","","","","","","","","","","","","","","","","","","","","","","","","","","","","","","","","","","","","","","","","","","","","","","","","","","","","","","","","","","","","","","SYN106AAXX  04124 65319 32460 71804 10280 20209 39616 40128 83802 333 0//00 59003 81613 83820 85076 94919 95814;","","","","","","","","","",""
"65319099999","2005-10-04T19:00:00","10.3166667","1.3833333","461.0","NATITINGOU, BN","FM-12","4","","75","81","","","","9","82","FEW:01 13 SCT:03 20 BKN:06 256","29.85","28.34","6.21","77","280","","5","","","","","","","","","","","","","","","","","","","","","","","","","","","","","","","","","","","","","","","","","","","","","","","","","","","","","","","","","","","","","","","","","","","","","","","","","","","","","","","","","","","","","","","","","","","SYN106AAXX  04184 65319 32460 72804 10270 20237 39596 40110 83802 333 10304 59003 81613 83820 86076 94919 95838;","","","","","","","","","",""
"65319099999","2005-10-05T01:00:00","10.3166667","1.3833333","461.0","NATITINGOU, BN","FM-12","4","","72","74","","","","9","92","BKN:05 256","29.91","28.40","6.21","73","000","","0","","","","","","","","","","","","","","","","","","","","","","","","","","","","","","","","","","","","","","","","","","","","","","","","","","","","","","","","","","","","","","","","","","","","","","","","","","","","","","","","","","","","","","","","","","","SYN082AAXX  05004 65319 33960 50000 10234 20221 39618 40130 80002 333 0//00 58000 85076;","","","","","","","","","",""
"65319099999","2005-10-05T07:00:00","10.3166667","1.3833333","461.0","NATITINGOU, BN","FM-12","4","","71","73","","","","9","93","","29.98","28.46","3.73","72","140","","5","","","","","","","","","","","","","","","","","","","","","","","","","","","","","","","","","","","","","","","","","","","","","","","","","","","","","","","","","","","","","","","","","","","","","","","","","","","","","","","","","","","","","","","","","","","SYN100AAXX  05064 65319 32456 71404 10228 20216 39638 40152 875// 333 01900 20216 50454 55087 58026 87613;","","","","","","","","","",""
"65319099999","2005-10-05T13:00:00","10.3166667","1.3833333","461.0","NATITINGOU, BN","FM-12","4","","71","84","","","","9","65","BKN:07 108","29.91","28.40","6.21","75","280","","5","","","","","","","","","","","","","","","","","","","","","","","","","","","","","","","","","","","","","","","","","","","","","","","","","","","","","","","","","","","","","","","","","","","","","","","","","","","","","","","","","","","","","","","","","","","SYN082AAXX  05124 65319 32960 72804 10290 20218 39618 40129 8703/ 333 0//00 58002 87361;","","","","","","","","","",""
"65319099999","2005-10-05T19:00:00","10.3166667","1.3833333","461.0","NATITINGOU, BN","FM-12","4","","75","81","","","","9","82","FEW:01 13","29.86","28.35","6.21","77","240","","5","","","","","","","","","","","","","","","","","","","","","","","","","","","","","","","","","","","","","","","","","","","","","","","","","","","","","","","","","","","","","","","","","","","","","","","","","","","","","","","","","","","","","","","","","","","SYN088AAXX  05184 65319 32460 72404 10270 20237 39599 40111 81532 333 10296 59003 81613 85076;","","","","","","","","","",""
"65319099999","2005-10-06T01:00:00","10.3166667","1.3833333","461.0","NATITINGOU, BN","FM-12","4","","73","76","","","","9","93","BKN:05 256","29.90","28.40","6.21","74","000","","0","","","","","","","","","","","","","","","","","","","","","","","","","","","","","","","","","","","","","","","","","","","","","","","","","","","","","","","","","","","","","","","","","","","","","","","","","","","","","","","","","","","","","","","","","","","SYN082AAXX  06004 65319 33960 50000 10242 20230 39616 40126 80002 333 0//00 59002 85076;","","","","","","","","","",""
"65319099999","2005-10-06T07:00:00","10.3166667","1.3833333","461.0","NATITINGOU, BN","FM-12","4","","71","73","","","","9","93","","29.87","28.36","6.21","72","000","","0","","","","","","","","","","","","","","","","","","","","","","","","","","","","","","","","","","","","","","","","","","","","","","","","","","","","","","","","","","","","","","","","","","","","","","","","","","","","","","","","","","","","","","","","","","","SYN100AAXX  06064 65319 32960 70000 10230 20218 39603 40115 8703/ 333 01800 20223 50294 55021 59035 87361;","","","","","","","","","",""
"65319099999","2005-10-06T13:00:00","10.3166667","1.3833333","461.0","NATITINGOU, BN","FM-12","4","","75","88","","","","9","66","FEW:02 20 SCT:03 108 BKN:05 256","29.86","28.36","6.21","79","280","","11","","","","","","","","","","","","","","","","","","","","","","","","","","","","","","","","","","","","","","","","","","","","","","","","","","","","","","","","","","","","","","","","","","","","","","","","","","","","","","","","","","","","","","","","","","","SYN106AAXX  06124 65319 32560 72810 10310 20240 39604 40112 82232 333 0//00 59014 82820 83361 85076 94904 95814;","","","","","","","","","",""
"65319099999","2005-10-06T19:00:00","10.3166667","1.3833333","461.0","NATITINGOU, BN","FM-12","4","","67","72","","","","9","87","BKN:07 108","29.91","28.38","6.21","69","360","","5","","","","","","","","","","","","","","","","","","","","","","","","","","","","","","","","","","","","","","","","","","","","","","","","","","","","","","","","","","","","","","","","","","","","","","","","","","","","","","","","","","","","","","","","","","","SYN094AAXX  06184 65319 11960 73604 10220 20197 39611 40128 69992 72166 8707/ 333 10322 58012 87361;","","","","","","","","","",""
"65319099999","2005-10-07T01:00:00","10.3166667","1.3833333","461.0","NATITINGOU, BN","FM-12","4","","69","70","","","","9","97","BKN:05 256","29.88","28.38","6.21","69","000","","0","","","","","","","","","","","","","","","","","","","","","","","","","","","","","","","","","","","","","","","","","","","","","","","","","","","","","","","","","","","","","","","","","","","","","","","","","","","","","","","","","","","","","","","","","","","SYN088AAXX  07004 65319 31960 50000 10210 20205 39609 40120 7009/ 80002 333 0//00 59007 85076;","","","","","","","","","",""
"65319099999","2005-10-07T07:00:00","10.3166667","1.3833333","461.0","NATITINGOU, BN","FM-12","4","","67","70","","","","9","91","","29.86","28.33","6.21","68","000","","0","","","","","","","","","","","","","","","","","","","","","","","","","","","","","","","","","","","","","","","","","","","","","","","","","","","","","","","","","","","","","","","","","","","","","","","","","","","","","","","","","","","","","","","","","","","SYN106AAXX  07064 65319 12960 70000 10210 20195 39595 40113 69994 8707/ 333 01859 20200 50194 55061 59008 87361;","","","","","","","","","",""
"65319099999","2005-10-07T13:00:00","10.3166667","1.3833333","461.0","NATITINGOU, BN","FM-12","4","","72","86","","","","9","64","FEW:01 13 SCT:03 256","29.89","28.38","6.21","76","200","","5","","","","","","","","","","","","","","","","","","","","","","","","","","","","","","","","","","","","","","","","","","","","","","","","","","","","","","","","","","","","","","","","","","","","","","","","","","","","","","","","","","","","","","","","","","","SYN101AAXX  07124 65319 32460 42004 10300 20224 39609 40121 81802 333 0//00 58005 81613 83076 94904 9581/4;","","","","","","","","","",""
"65319099999","2005-10-08T01:00:00","10.3166667","1.3833333","461.0","NATITINGOU, BN","FM-12","4","","71","74","","","","9","90","BKN:05 256","29.92","28.41","6.21","72","000","","0","","","","","","","","","","","","","","","","","","","","","","","","","","","","","","","","","","","","","","","","","","","","","","","","","","","","","","","","","","","","","","","","","","","","","","","","","","","","","","","","","","","","","","","","","","","SYN082AAXX  08004 65319 33960 50000 10233 20215 39621 40132 80002 333 0//00 58012 85076;","","","","","","","","","",""
"65319099999","2005-10-08T07:00:00","10.3166667","1.3833333","461.0","NATITINGOU, BN","FM-12","4","","69","71","","","","9","93","","29.93","28.41","6.21","70","000","","0","","","","","","","","","","","","","","","","","","","","","","","","","","","","","","","","","","","","","","","","","","","","","","","","","","","","","","","","","","","","","","","","","","","","","","","","","","","","","","","","","","","","","","","","","","","SYN100AAXX  08064 65319 32960 50000 10215 20204 39620 40134 80002 333 01700 20206 50734 55104 58025 85076;","","","","","","","","","",""
"65319099999","2005-10-08T13:00:00","10.3166667","1.3833333","461.0","NATITINGOU, BN","FM-12","4","","73","89","","","","9","60","FEW:01 13 SCT:04 20 BKN:05 256","29.90","28.39","6.21","78","240","","5","","","","","","","","","","","","","","","","","","","","","","","","","","","","","","","","","","","","","","","","","","","","","","","","","","","","","","","","","","","","","","","","","","","","","","","","","","","","","","","","","","","","","","","","","","","SYN106AAXX  08124 65319 32460 72404 10315 20228 39615 40124 84802 333 0//00 58006 81613 84820 85076 94919 95839;","","","","","","","","","",""
"65319099999","2005-10-08T19:00:00","10.3166667","1.3833333","461.0","NATITINGOU, BN","FM-12","4","","75","82","","","","9","78","SCT:03 13 FEW:01 30 BKN:06 256","29.87","28.35","6.21","77","000","","0","","","","","","","","","","","","","","","","","","","","","","","","","","","","","","","","","","","","","","","","","","","","","","","","","","","","","","","","","","","","","","","","","","","","","","","","","","","","","","","","","","","","","","","","","","","SYN106AAXX  08184 65319 32460 70000 10279 20238 39601 40114 83902 333 10334 59001 83613 81930 86076 94946 95836;","","","","","","","","","",""
"65319099999","2005-10-09T01:00:00","10.3166667","1.3833333","461.0","NATITINGOU, BN","FM-12","4","","74","77","","","","9","92","BKN:05 256","29.92","28.42","6.21","75","000","","0","","","","","","","","","","","","","","","","","","","","","","","","","","","","","","","","","","","","","","","","","","","","","","","","","","","","","","","","","","","","","","","","","","","","","","","","","","","","","","","","","","","","","","","","","","","SYN082AAXX  09004 65319 33960 50000 10248 20234 39624 40132 80002 333 0//00 58023 85076;","","","","","","","","","",""
"65319099999","2005-10-09T07:00:00","10.3166667","1.3833333","461.0","NATITINGOU, BN","FM-12","4","","69","71","","","","9","92","FEW:01 13 SCT:03 108","29.90","28.38","6.21","70","000","","0","","","","","","","","","","","","","","","","","","","","","","","","","","","","","","","","","","","","","","","","","","","","","","","","","","","","","","","","","","","","","","","","","","","","","","","","","","","","","","","","","","","","","","","","","","","SYN112AAXX  09064 65319 32460 70000 10218 20204 39612 40125 81532 333 01800 20210 50404 55085 59008 81613 83361 85076;","","","","","","","","","",""
"65319099999","2005-10-09T13:00:00","10.3166667","1.3833333","461.0","NATITINGOU, BN","FM-12","4","","75","88","","","","9","66","FEW:02 13 SCT:04 20","29.86","28.37","6.21","79","340","","9","","","","","","","","","","","","","","","","","","","","","","","","","","","","","","","","","","","","","","","","","","","","","","","","","","","","","","","","","","","","","","","","","","","","","","","","","","","","","","","","","","","","","","","","","","","SYN100AAXX  09120 65319 32460 53404 10310 20240 39606 40113 85802 333 0//00 59009 82613 84820 94919 95839;","","","","","","","","","",""
"65319099999","2005-10-09T19:00:00","10.3166667","1.3833333","461.0","NATITINGOU, BN","FM-12","4","","74","81","","","","9","77","FEW:01 30 BKN:05 256","29.84","28.32","6.21","76","000","","0","","","","","","","","","","","","","","","","","","","","","","","","","","","","","","","","","","","","","","","","","","","","","","","","","","","","","","","","","","","","","","","","","","","","","","","","","","","","","","","","","","","","","","","","","","","SYN100AAXX  09184 65319 32560 50000 10275 20232 39591 40104 81902 333 10330 59010 81930 85076 94944 95874;","","","","","","","","","",""
"65319099999","2005-10-10T01:00:00","10.3166667","1.3833333","461.0","NATITINGOU, BN","FM-12","4","","72","75","","","","9","91","FEW:01 30 BKN:05 256","29.87","28.37","6.21","73","000","","0","","","","","","","","","","","","","","","","","","","","","","","","","","","","","","","","","","","","","","","","","","","","","","","","","","","","","","","","","","","","","","","","","","","","","","","","","","","","","","","","","","","","","","","","","","","SYN106AAXX  10004 65319 31560 50000 10240 20225 39608 40116 713// 81902 333 0//00 59016 81930 85076 94944 95874;","","","","","","","","","",""
"65319099999","2005-10-10T07:00:00","10.3166667","1.3833333","461.0","NATITINGOU, BN","FM-12","4","","67","72","","","","9","87","","29.84","28.33","6.21","69","000","","0","","","","","","","","","","","","","","","","","","","","","","","","","","","","","","","","","","","","","","","","","","","","","","","","","","","","","","","","","","","","","","","","","","","","","","","","","","","","","","","","","","","","","","","","","","","SYN100AAXX  10064 65319 32960 70000 10220 20197 39594 40106 8707/ 333 01800 20212 50374 55068 59018 87361;","","","","","","","","","",""
"65319099999","2005-10-10T13:00:00","10.3166667","1.3833333","461.0","NATITINGOU, BN","FM-12","4","","73","82","","","","9","73","FEW:01 13 SCT:03 20 BKN:07 108","29.90","28.39","6.21","76","200","","5","","","","","","","","","","","","","","","","","","","","","","","","","","","","","","","","","","","","","","","","","","","","","","","","","","","","","","","","","","","","","","","","","","","","","","","","","","","","","","","","","","","","","","","","","","","SYN106AAXX  10124 65319 32460 72004 10280 20228 39613 40124 83802 333 0//00 58007 81613 83820 87361 94919 95834;","","","","","","","","","",""
"65319099999","2005-10-10T19:00:00","10.3166667","1.3833333","461.0","NATITINGOU, BN","FM-12","4","","73","82","","","","9","74","FEW:01 13 SCT:04 108","29.85","28.34","6.21","76","220","","5","","","","","","","","","","","","","","","","","","","","","","","","","","","","","","","","","","","","","","","","","","","","","","","","","","","","","","","","","","","","","","","","","","","","","","","","","","","","","","","","","","","","","","","","","","","SYN094AAXX  10184 65319 32460 72204 10277 20226 39597 40109 81532 333 10300 58006 81613 84361 85076;","","","","","","","","","",""
"65319099999","2005-10-11T01:00:00","10.3166667","1.3833333","461.0","NATITINGOU, BN","FM-12","4","","72","76","","","","9","89","BKN:05 256","29.91","28.40","6.21","73","000","","0","","","","","","","","","","","","","","","","","","","","","","","","","","","","","","","","","","","","","","","","","","","","","","","","","","","","","","","","","","","","","","","","","","","","","","","","","","","","","","","","","","","","","","","","","","","SYN082AAXX  11004 65319 33960 50000 10242 20223 39618 40129 80002 333 0//00 58010 85076;","","","","","","","","","",""
"65319099999","2005-10-11T07:00:00","10.3166667","1.3833333","461.0","NATITINGOU, BN","FM-12","4","","65","71","","","","9","82","","29.92","28.40","6.21","67","220","","5","","","","","","","","","","","","","","","","","","","","","","","","","","","","","","","","","","","","","","","","","","","","","","","","","","","","","","","","","","","","","","","","","","","","","","","","","","","","","","","","","","","","","","","","","","","SYN100AAXX  11064 65319 32960 72204 10219 20186 39618 40132 86032 333 01800 20205 50314 55018 58024 86361;","","","","","","","","","",""
"65319099999","2005-10-11T13:00:00","10.3166667","1.3833333","461.0","NATITINGOU, BN","FM-12","4","","69","88","","","","9","55","SCT:04 108","29.88","28.38","6.21","75","000","","0","","","","","","","","","","","","","","","","","","","","","","","","","","","","","","","","","","","","","","","","","","","","","","","","","","","","","","","","","","","","","","","","","","","","","","","","","","","","","","","","","","","","","","","","","","","SYN088AAXX  11124 65319 32960 70000 10310 20208 39609 40117 84032 333 0//00 59004 84361 84076;","","","","","","","","","",""
"65319099999","2005-10-11T19:00:00","10.3166667","1.3833333","461.0","NATITINGOU, BN","FM-12","4","","74","84","","","","9","71","SCT:03 108","29.86","28.35","6.21","77","000","","0","","","","","","","","","","","","","","","","","","","","","","","","","","","","","","","","","","","","","","","","","","","","","","","","","","","","","","","","","","","","","","","","","","","","","","","","","","","","","","","","","","","","","","","","","","","SYN088AAXX  11184 65319 32960 70000 10290 20233 39600 40112 83032 333 10320 58003 83361 85076;","","","","","","","","","",""
"65319099999","2005-10-12T01:00:00","10.3166667","1.3833333","461.0","NATITINGOU, BN","FM-12","4","","70","73","","","","9","90","BKN:05 256","29.87","28.37","6.21","71","000","","0","","","","","","","","","","","","","","","","","","","","","","","","","","","","","","","","","","","","","","","","","","","","","","","","","","","","","","","","","","","","","","","","","","","","","","","","","","","","","","","","","","","","","","","","","","","SYN082AAXX  12004 65319 33960 50000 10230 20212 39606 40115 80002 333 0//00 59012 85076;","","","","","","","","","",""
"65319099999","2005-10-12T07:00:00","10.3166667","1.3833333","461.0","NATITINGOU, BN","FM-12","4","","67","70","","","","9","91","","29.87","28.36","6.21","68","000","","0","","","","","","","","","","","","","","","","","","","","","","","","","","","","","","","","","","","","","","","","","","","","","","","","","","","","","","","","","","","","","","","","","","","","","","","","","","","","","","","","","","","","","","","","","","","SYN100AAXX  12064 65319 32960 70000 10210 20195 39603 40115 8703/ 333 01800 20205 50534 55075 59015 87361;","","","","","","","","","",""
"65319099999","2005-10-12T13:00:00","10.3166667","1.3833333","461.0","NATITINGOU, BN","FM-12","4","","71","91","","","","9","52","FEW:01 13 SCT:03 20 BKN:05 256","29.83","","6.21","","000","","0","","","","","","","","","","","","","","","","","","","","","","","","","","","","","","","","","","","","","","","","","","","","","","","","","","","","","","","","","","","","","","","","","","","","","","","","","","","","","","","","","","","","","","","","","","","SYN106AAXX  12124 65319 32460 70000 10330 20218 39695 40102 83802 333 0//00 59014 81613 83820 85076 94919 95834;","","","","","","","","","",""
"65319099999","2005-10-12T19:00:00","10.3166667","1.3833333","461.0","NATITINGOU, BN","FM-12","4","","76","86","","","","9","72","BKN:07 256","29.82","28.31","6.21","79","000","","0","","","","","","","","","","","","","","","","","","","","","","","","","","","","","","","","","","","","","","","","","","","","","","","","","","","","","","","","","","","","","","","","","","","","","","","","","","","","","","","","","","","","","","","","","","","SYN082AAXX  12184 65319 32960 70000 10300 20244 39586 40097 80006 333 10340 59014 87276;","","","","","","","","","",""
"65319099999","2005-10-13T01:00:00","10.3166667","1.3833333","461.0","NATITINGOU, BN","FM-12","4","","73","77","","","","9","89","BKN:05 256","29.84","28.35","6.21","74","000","","0","","","","","","","","","","","","","","","","","","","","","","","","","","","","","","","","","","","","","","","","","","","","","","","","","","","","","","","","","","","","","","","","","","","","","","","","","","","","","","","","","","","","","","","","","","","SYN082AAXX  13004 65319 33960 50000 10248 20229 39599 40104 80002 333 0//00 59007 85076;","","","","","","","","","",""
"65319099999","2005-10-13T07:00:00","10.3166667","1.3833333","461.0","NATITINGOU, BN","FM-12","4","","71","73","","","","9","92","","29.87","28.37","6.21","72","000","","0","","","","","","","","","","","","","","","","","","","","","","","","","","","","","","","","","","","","","","","","","","","","","","","","","","","","","","","","","","","","","","","","","","","","","","","","","","","","","","","","","","","","","","","","","","","SYN100AAXX  13064 65319 32960 70000 10228 20215 39606 40116 80006 333 01800 20202 50404 55091 58003 87276;","","","","","","","","","",""
"65319099999","2005-10-13T13:00:00","10.3166667","1.3833333","461.0","NATITINGOU, BN","FM-12","4","","76","92","","","","9","59","SCT:03 20 BKN:05 256","29.81","28.32","6.21","80","220","","9","","","","","","","","","","","","","","","","","","","","","","","","","","","","","","","","","","","","","","","","","","","","","","","","","","","","","","","","","","","","","","","","","","","","","","","","","","","","","","","","","","","","","","","","","","","SYN100AAXX  13124 65319 32560 72208 10335 20245 39589 40094 83202 333 0//00 59006 83820 85076 94913 95834;","","","","","","","","","",""
"65319099999","2005-10-13T19:00:00","10.3166667","1.3833333","461.0","NATITINGOU, BN","FM-12","4","","68","76","","","","9","76","FEW:02 13 FEW:01 30 BKN:07 108","29.80","28.28","6.21","71","000","","0","","","","","","","","","","","","","","","","","","","","","","","","","","","","","","","","","","","","","","","","","","","","","","","","","","","","","","","","","","","","","","","","","","","","","","","","","","","","","","","","","","","","","","","","","","","SYN118AAXX  13184 65319 11460 70000 10245 20200 39578 40092 60082 70396 8293/ 333 10345 59008 82613 81930 87361 94944 95874;","","","","","","","","","",""
"65319099999","2005-10-14T01:00:00","10.3166667","1.3833333","461.0","NATITINGOU, BN","FM-12","4","","68","72","","","","9","87","BKN:07 256","29.84","28.34","6.21","69","000","","0","","","","","","","","","","","","","","","","","","","","","","","","","","","","","","","","","","","","","","","","","","","","","","","","","","","","","","","","","","","","","","","","","","","","","","","","","","","","","","","","","","","","","","","","","","","SYN082AAXX  14004 65319 33960 70000 10225 20202 39597 40104 80006 333 0//00 59002 87276;","","","","","","","","","",""
"65319099999","2005-10-14T07:00:00","10.3166667","1.3833333","461.0","NATITINGOU, BN","FM-12","4","","67","70","","","","9","91","SCT:03 108","29.84","28.32","6.21","68","000","","0","","","","","","","","","","","","","","","","","","","","","","","","","","","","","","","","","","","","","","","","","","","","","","","","","","","","","","","","","","","","","","","","","","","","","","","","","","","","","","","","","","","","","","","","","","","SYN112AAXX  14064 65319 12960 70000 10210 20195 39591 40106 60083 83032 333 01859 20204 50524 55078 59015 83361 85076;","","","","","","","","","",""
"65319099999","2005-10-14T13:00:00","10.3166667","1.3833333","461.0","NATITINGOU, BN","FM-12","4","","73","89","","","","9","60","FEW:01 13 SCT:03 20 BKN:05 256","29.84","28.35","6.21","78","240","","7","","","","","","","","","","","","","","","","","","","","","","","","","","","","","","","","","","","","","","","","","","","","","","","","","","","","","","","","","","","","","","","","","","","","","","","","","","","","","","","","","","","","","","","","","","","SYN106AAXX  14124 65319 32460 72406 10318 20230 39599 40105 83802 333 0//00 58010 81613 83820 85076 94919 95834;","","","","","","","","","",""
"65319099999","2005-10-14T19:00:00","10.3166667","1.3833333","461.0","NATITINGOU, BN","FM-12","4","","74","84","","","","9","73","SCT:04 13","29.82","28.31","6.21","77","000","","0","","","","","","","","","","","","","","","","","","","","","","","","","","","","","","","","","","","","","","","","","","","","","","","","","","","","","","","","","","","","","","","","","","","","","","","","","","","","","","","","","","","","","","","","","","","SYN088AAXX  14184 65319 32460 70000 10288 20234 39588 40099 84502 333 10342 58010 84613 85076;","","","","","","","","","",""
"65319099999","2005-10-15T01:00:00","10.3166667","1.3833333","461.0","NATITINGOU, BN","FM-12","4","","74","78","","","","9","89","BKN:07 256","29.87","28.37","6.21","75","000","","0","","","","","","","","","","","","","","","","","","","","","","","","","","","","","","","","","","","","","","","","","","","","","","","","","","","","","","","","","","","","","","","","","","","","","","","","","","","","","","","","","","","","","","","","","","","SYN082AAXX  15004 65319 33960 70000 10256 20236 39608 40114 80006 333 0//00 58011 87276;","","","","","","","","","",""
"65319099999","2005-10-15T07:00:00","10.3166667","1.3833333","461.0","NATITINGOU, BN","FM-12","4","","73","76","","","","9","93","FEW:01 108","29.88","28.38","6.21","74","000","","0","","","","","","","","","","","","","","","","","","","","","","","","","","","","","","","","","","","","","","","","","","","","","","","","","","","","","","","","","","","","","","","","","","","","","","","","","","","","","","","","","","","","","","","","","","","SYN106AAXX  15064 65319 32960 70000 10242 20230 39610 40120 81036 333 01700 20236 50444 55072 58019 81361 87276;","","","","","","","","","",""
"65319099999","2005-10-15T13:00:00","10.3166667","1.3833333","461.0","NATITINGOU, BN","FM-12","4","","76","90","","","","9","64","FEW:01 13 BKN:05 20","29.85","28.36","6.21","80","280","","7","","","","","","","","","","","","","","","","","","","","","","","","","","","","","","","","","","","","","","","","","","","","","","","","","","","","","","","","","","","","","","","","","","","","","","","","","","","","","","","","","","","","","","","","","","","SYN100AAXX  15124 65319 32460 72806 10320 20243 39604 40110 85802 333 0//00 58005 81613 85820 94919 95839;","","","","","","","","","",""
"65319099999","2005-10-15T19:00:00","10.3166667","1.3833333","461.0","NATITINGOU, BN","FM-12","4","","69","72","","||TS","","9","91","SCT:04 13 SCT:04 20 FEW:02 30","29.87","28.35","6.21","70","000","","0","","","","","","","","","","","","","","","","","","","","","","","","","","","","","","","","","","","","","","","","","","","","","","","","","","","","","","","","","","","","","","","","","","","","","","","","","","","","","","","","","","","","","","","","","","","SYN118AAXX  15184 65319 11460 70000 10220 20205 39600 40116 60282 79596 879// 333 10335 58012 84613 84820 82930 94944 95874;","","","","","","","","","",""
"65319099999","2005-10-15T23:00:00","10.3166667","1.3833333","461.0","NATITINGOU, BN","FM-12","4","","","","","","","","","","","","6.21","","000","","0","","","","","","","","","","","","","","","","","","","","","","","","","","","","","","","","","","","","","","","","","","","","","","","","","","","","","","","","","","","","","","","","","","","","","","","","","","","","","","","","","","","","","","","","","","","SYN116AAXX  1522/ 65319 11460 70000 102 0 20205 396040116 60282 79596 879// 333 10335 58012 84613 84820 82930 94944 95874;","","","","","","","","","",""
"65319099999","2005-10-16T01:00:00","10.3166667","1.3833333","461.0","NATITINGOU, BN","FM-12","4","","69","72","","","","9","91","BKN:05 256","29.87","28.37","6.21","70","000","","0","","","","","","","","","","","","","","","","","","","","","","","","","","","","","","","","","","","","","","","","","","","","","","","","","","","","","","","","","","","","","","","","","","","","","","","","","","","","","","","","","","","","","","","","","","","SYN094AAXX  16004 65319 11960 50000 10220 20205 39607 40116 69941 70096 80002 333 0//55 59001 85076;","","","","","","","","","",""
"65319099999","2005-10-16T07:00:00","10.3166667","1.3833333","461.0","NATITINGOU, BN","FM-12","4","","67","72","","","","9","87","","29.87","28.34","6.21","69","000","","0","","","","","","","","","","","","","","","","","","","","","","","","","","","","","","","","","","","","","","","","","","","","","","","","","","","","","","","","","","","","","","","","","","","","","","","","","","","","","","","","","","","","","","","","","","","SYN106AAXX  16064 65319 12960 50000 10220 20197 39598 40115 60284 80002 333 01759 20210 50594 55068 59012 85076;","","","","","","","","","",""
"65319099999","2005-10-16T13:00:00","10.3166667","1.3833333","461.0","NATITINGOU, BN","FM-12","4","","72","89","","","","9","57","FEW:01 13","29.82","28.32","6.21","77","320","","5","","","","","","","","","","","","","","","","","","","","","","","","","","","","","","","","","","","","","","","","","","","","","","","","","","","","","","","","","","","","","","","","","","","","","","","","","","","","","","","","","","","","","","","","","","","SYN088AAXX  16124 65319 32460 73204 10317 20221 39590 40098 81508 333 0//00 59014 81613 87276;","","","","","","","","","",""
"65319099999","2005-10-16T19:00:00","10.3166667","1.3833333","461.0","NATITINGOU, BN","FM-12","4","","67","73","","","","9","80","FEW:01 13","29.81","28.29","6.21","69","040","","5","","","","","","","","","","","","","","","","","","","","","","","","","","","","","","","","","","","","","","","","","","","","","","","","","","","","","","","","","","","","","","","","","","","","","","","","","","","","","","","","","","","","","","","","","","","SYN100AAXX  16184 65319 11460 70404 10230 20193 39580 40096 60082 70196 81536 333 10328 59020 81613 87276;","","","","","","","","","",""
"65319099999","2005-10-17T01:00:00","10.3166667","1.3833333","461.0","NATITINGOU, BN","FM-12","4","","70","72","","","","9","93","BKN:07 256","29.85","28.35","6.21","71","000","","0","","","","","","","","","","","","","","","","","","","","","","","","","","","","","","","","","","","","","","","","","","","","","","","","","","","","","","","","","","","","","","","","","","","","","","","","","","","","","","","","","","","","","","","","","","","SYN082AAXX  17004 65319 33960 70000 10225 20213 39601 40110 80006 333 0//00 58006 87276;","","","","","","","","","",""
"65319099999","2005-10-17T07:00:00","10.3166667","1.3833333","461.0","NATITINGOU, BN","FM-12","4","","67","69","","","","9","95","","29.85","28.33","6.21","68","000","","0","","","","","","","","","","","","","","","","","","","","","","","","","","","","","","","","","","","","","","","","","","","","","","","","","","","","","","","","","","","","","","","","","","","","","","","","","","","","","","","","","","","","","","","","","","","SYN106AAXX  17064 65319 12960 70000 10204 20195 39592 40110 60084 80008 333 01661 20199 50304 55038 59006 87276;","","","","","","","","","",""
"65319099999","2005-10-17T13:00:00","10.3166667","1.3833333","461.0","NATITINGOU, BN","FM-12","4","","73","90","","","","9","58","FEW:01 13 SCT:03 20 BKN:05 256","29.82","28.32","6.21","78","000","","0","","","","","","","","","","","","","","","","","","","","","","","","","","","","","","","","","","","","","","","","","","","","","","","","","","","","","","","","","","","","","","","","","","","","","","","","","","","","","","","","","","","","","","","","","","","SYN106AAXX  17124 65319 32460 70000 10320 20228 39590 40098 83802 333 0//00 58000 81613 83820 85076 94934 95814;","","","","","","","","","",""
"65319099999","2005-10-17T19:00:00","10.3166667","1.3833333","461.0","NATITINGOU, BN","FM-12","4","","78","85","","","","9","79","SCT:03 20 FEW:01 30 BKN:05 256","29.78","28.27","6.21","80","000","","0","","","","","","","","","","","","","","","","","","","","","","","","","","","","","","","","","","","","","","","","","","","","","","","","","","","","","","","","","","","","","","","","","","","","","","","","","","","","","","","","","","","","","","","","","","","SYN106AAXX  17184 65319 32560 70000 10295 20254 39573 40084 83902 333 10342 59007 83820 81930 85076 94946 95876;","","","","","","","","","",""
"65319099999","2005-10-18T01:00:00","10.3166667","1.3833333","461.0","NATITINGOU, BN","FM-12","4","","74","77","","","","9","92","BKN:05 256","29.83","28.34","6.21","75","000","","0","","","","","","","","","","","","","","","","","","","","","","","","","","","","","","","","","","","","","","","","","","","","","","","","","","","","","","","","","","","","","","","","","","","","","","","","","","","","","","","","","","","","","","","","","","","SYN082AAXX  18004 65319 33960 50000 10250 20236 39597 40103 80002 333 0//00 59004 85076;","","","","","","","","","",""
"65319099999","2005-10-18T13:00:00","10.3166667","1.3833333","461.0","NATITINGOU, BN","FM-12","4","","72","89","","","","9","57","FEW:01 13","29.83","28.34","6.21","77","200","","5","","","","","","","","","","","","","","","","","","","","","","","","","","","","","","","","","","","","","","","","","","","","","","","","","","","","","","","","","","","","","","","","","","","","","","","","","","","","","","","","","","","","","","","","","","","SYN088AAXX  18124 65319 32460 72004 10319 20223 39597 40103 81508 333 0//00 58007 81613 87276;","","","","","","","","","",""
"65319099999","2005-10-19T01:00:00","10.3166667","1.3833333","461.0","NATITINGOU, BN","FM-12","4","","73","82","","","","9","76","BKN:05 256","29.88","28.38","6.21","76","000","","0","","","","","","","","","","","","","","","","","","","","","","","","","","","","","","","","","","","","","","","","","","","","","","","","","","","","","","","","","","","","","","","","","","","","","","","","","","","","","","","","","","","","","","","","","","","SYN082AAXX  19004 65319 33960 70000 10277 20230 39612 40119 80002 333 0//00 58015 85076;","","","","","","","","","",""
"65319099999","2005-10-19T07:00:00","10.3166667","1.3833333","461.0","NATITINGOU, BN","FM-12","4","","70","72","","","","9","93","","29.89","28.38","6.21","71","000","","0","","","","","","","","","","","","","","","","","","","","","","","","","","","","","","","","","","","","","","","","","","","","","","","","","","","","","","","","","","","","","","","","","","","","","","","","","","","","","","","","","","","","","","","","","","","SYN100AAXX  19064 65319 32960 70000 10223 20211 39611 40122 80008 333 01900 20218 50464 55089 58022 87276;","","","","","","","","","",""
"65319099999","2005-10-19T13:00:00","10.3166667","1.3833333","461.0","NATITINGOU, BN","FM-12","4","","74","90","","","","9","58","SCT:03 20 BKN:07 256","29.89","28.39","4.97","78","180","","5","","","","","","","","","","","","","","","","","","","","","","","","","","","","","","","","","","","","","","","","","","","","","","","","","","","","","","","","","","","","","","","","","","","","","","","","","","","","","","","","","","","","","","","","","","","SYN100AAXX  19124 65319 32558 71804 10325 20233 39614 40121 83208 333 0//00 58017 83820 87276 94904 95814;","","","","","","","","","",""
"65319099999","2005-10-19T19:00:00","10.3166667","1.3833333","461.0","NATITINGOU, BN","FM-12","4","","76","86","","","","9","72","BKN:05 256","29.84","28.33","4.97","79","000","","0","","","","","","","","","","","","","","","","","","","","","","","","","","","","","","","","","","","","","","","","","","","","","","","","","","","","","","","","","","","","","","","","","","","","","","","","","","","","","","","","","","","","","","","","","","","SYN082AAXX  19184 65319 32958 50000 10300 20244 39595 40105 80002 333 10336 58009 85076;","","","","","","","","","",""
"65319099999","2005-10-20T01:00:00","10.3166667","1.3833333","461.0","NATITINGOU, BN","FM-12","4","","74","78","","","","9","89","BKN:07 108","29.88","28.39","6.21","75","000","","0","","","","","","","","","","","","","","","","","","","","","","","","","","","","","","","","","","","","","","","","","","","","","","","","","","","","","","","","","","","","","","","","","","","","","","","","","","","","","","","","","","","","","","","","","","","SYN082AAXX  20004 65319 33960 70000 10255 20236 39614 40120 8703/ 333 0//00 58002 87361;","","","","","","","","","",""
"65319099999","2005-10-20T07:00:00","10.3166667","1.3833333","461.0","NATITINGOU, BN","FM-12","4","","73","75","","","","9","93","","29.85","28.35","6.21","74","000","","0","","","","","","","","","","","","","","","","","","","","","","","","","","","","","","","","","","","","","","","","","","","","","","","","","","","","","","","","","","","","","","","","","","","","","","","","","","","","","","","","","","","","","","","","","","","SYN100AAXX  20064 65319 32960 70000 10240 20228 39599 40107 8707/ 333 02000 20235 50524 55089 59012 87361;","","","","","","","","","",""
"65319099999","2005-10-20T13:00:00","10.3166667","1.3833333","461.0","NATITINGOU, BN","FM-12","4","","69","88","","","","9","55","BKN:07 108","29.88","28.38","6.21","75","080","","5","","","","","","","","","","","","","","","","","","","","","","","","","","","","","","","","","","","","","","","","","","","","","","","","","","","","","","","","","","","","","","","","","","","","","","","","","","","","","","","","","","","","","","","","","","","SYN082AAXX  20124 65319 32960 70804 10310 20208 39610 40117 8703/ 333 0//00 59004 87361;","","","","","","","","","",""
"65319099999","2005-10-20T19:00:00","10.3166667","1.3833333","461.0","NATITINGOU, BN","FM-12","4","","72","76","","","","9","89","FEW:02 13","29.87","28.35","4.97","73","000","","0","","","","","","","","","","","","","","","","","","","","","","","","","","","","","","","","","","","","","","","","","","","","","","","","","","","","","","","","","","","","","","","","","","","","","","","","","","","","","","","","","","","","","","","","","","","SYN100AAXX  20184 65319 11458 70000 10243 20223 39600 40114 60042 70166 8257/ 333 10329 58005 82613 87461;","","","","","","","","","",""
"65319099999","2005-10-21T01:00:00","10.3166667","1.3833333","461.0","NATITINGOU, BN","FM-12","4","","72","74","","","","9","91","BKN:07 108","29.85","28.35","6.21","73","000","","0","","","","","","","","","","","","","","","","","","","","","","","","","","","","","","","","","","","","","","","","","","","","","","","","","","","","","","","","","","","","","","","","","","","","","","","","","","","","","","","","","","","","","","","","","","","SYN082AAXX  21004 65319 33960 70000 10235 20220 39602 40110 8703/ 333 0//00 59012 87361;","","","","","","","","","",""
"65319099999","2005-10-21T07:00:00","10.3166667","1.3833333","461.0","NATITINGOU, BN","FM-12","4","","69","71","","","","9","93","","29.84","28.32","6.21","70","000","","0","","","","","","","","","","","","","","","","","","","","","","","","","","","","","","","","","","","","","","","","","","","","","","","","","","","","","","","","","","","","","","","","","","","","","","","","","","","","","","","","","","","","","","","","","","","SYN106AAXX  21064 65319 12960 70000 10218 20206 39591 40106 60044 86032 333 01962 20213 50274 55035 59008 86361;","","","","","","","","","",""
"65319099999","2005-10-21T13:00:00","10.3166667","1.3833333","461.0","NATITINGOU, BN","FM-12","4","","75","89","","","","9","64","FEW:01 13 SCT:03 20 BKN:05 256","29.83","28.33","6.21","79","140","","5","","","","","","","","","","","","","","","","","","","","","","","","","","","","","","","","","","","","","","","","","","","","","","","","","","","","","","","","","","","","","","","","","","","","","","","","","","","","","","","","","","","","","","","","","","","SYN106AAXX  21124 65319 32460 71404 10315 20238 39592 40100 83802 333 0//00 59018 81613 83820 85076 94914 95834;","","","","","","","","","",""
"65319099999","2005-10-21T19:00:00","10.3166667","1.3833333","461.0","NATITINGOU, BN","FM-12","4","","75","86","","","","9","69","FEW:02 20 FEW:01 30 BKN:05 256","29.79","28.28","6.21","78","000","","0","","","","","","","","","","","","","","","","","","","","","","","","","","","","","","","","","","","","","","","","","","","","","","","","","","","","","","","","","","","","","","","","","","","","","","","","","","","","","","","","","","","","","","","","","","","SYN106AAXX  21184 65319 32560 70000 10300 20237 39578 40087 83902 333 10335 59022 82820 81930 85076 94944 95874;","","","","","","","","","",""
"65319099999","2005-10-22T01:00:00","10.3166667","1.3833333","461.0","NATITINGOU, BN","FM-12","4","","70","75","","","","9","85","BKN:07 108","29.84","28.34","6.21","72","000","","0","","","","","","","","","","","","","","","","","","","","","","","","","","","","","","","","","","","","","","","","","","","","","","","","","","","","","","","","","","","","","","","","","","","","","","","","","","","","","","","","","","","","","","","","","","","SYN082AAXX  22004 65319 33960 70000 10240 20213 39597 40104 8707/ 333 0//00 59005 87361;","","","","","","","","","",""
"65319099999","2005-10-22T07:00:00","10.3166667","1.3833333","461.0","NATITINGOU, BN","FM-12","4","","69","72","","","","9","91","","29.83","28.33","6.21","70","000","","0","","","","","","","","","","","","","","","","","","","","","","","","","","","","","","","","","","","","","","","","","","","","","","","","","","","","","","","","","","","","","","","","","","","","","","","","","","","","","","","","","","","","","","","","","","","SYN100AAXX  22064 65319 32960 50000 10220 20205 39592 40102 80002 333 01900 20216 50574 55089 58001 85076;","","","","","","","","","",""
"65319099999","2005-10-22T13:00:00","10.3166667","1.3833333","461.0","NATITINGOU, BN","FM-12","4","","74","90","","","","9","58","FEW:01 13 SCT:03 20 BKN:05 256","29.80","28.31","6.21","78","220","","7","","","","","","","","","","","","","","","","","","","","","","","","","","","","","","","","","","","","","","","","","","","","","","","","","","","","","","","","","","","","","","","","","","","","","","","","","","","","","","","","","","","","","","","","","","","SYN106AAXX  22124 65319 32460 72206 10325 20232 39588 40093 83802 333 0//00 59004 81613 83820 85076 94919 95834;","","","","","","","","","",""
"65319099999","2005-10-22T19:00:00","10.3166667","1.3833333","461.0","NATITINGOU, BN","FM-12","4","","70","84","","","","9","64","BKN:07 256","29.80","28.29","6.21","74","000","","0","","","","","","","","","","","","","","","","","","","","","","","","","","","","","","","","","","","","","","","","","","","","","","","","","","","","","","","","","","","","","","","","","","","","","","","","","","","","","","","","","","","","","","","","","","","SYN082AAXX  22184 65319 32960 70000 10287 20211 39580 40091 80006 333 10341 58002 87276;","","","","","","","","","",""
"65319099999","2005-10-23T01:00:00","10.3166667","1.3833333","461.0","NATITINGOU, BN","FM-12","4","","70","73","","","","9","89","BKN:05 256","29.84","28.34","6.21","71","000","","0","","","","","","","","","","","","","","","","","","","","","","","","","","","","","","","","","","","","","","","","","","","","","","","","","","","","","","","","","","","","","","","","","","","","","","","","","","","","","","","","","","","","","","","","","","","SYN082AAXX  23004 65319 33960 50000 10228 20209 39597 40105 80002 333 0//00 58000 85076;","","","","","","","","","",""
"65319099999","2005-10-23T07:00:00","10.3166667","1.3833333","461.0","NATITINGOU, BN","FM-12","4","","68","70","","","","9","93","","29.85","28.34","6.21","69","000","","0","","","","","","","","","","","","","","","","","","","","","","","","","","","","","","","","","","","","","","","","","","","","","","","","","","","","","","","","","","","","","","","","","","","","","","","","","","","","","","","","","","","","","","","","","","","SYN100AAXX  23064 65319 32960 50000 10212 20200 39598 40110 80002 333 01800 20206 50504 55100 58006 85076;","","","","","","","","","",""
"65319099999","2005-10-23T13:00:00","10.3166667","1.3833333","461.0","NATITINGOU, BN","FM-12","4","","70","90","","","","9","52","SCT:03 20 BKN:05 256","29.85","28.35","6.21","76","120","","7","","","","","","","","","","","","","","","","","","","","","","","","","","","","","","","","","","","","","","","","","","","","","","","","","","","","","","","","","","","","","","","","","","","","","","","","","","","","","","","","","","","","","","","","","","","SYN100AAXX  23124 65319 32560 71206 10320 20211 39602 40110 83202 333 0//00 58014 83820 85076 94904 95814;","","","","","","","","","",""
"65319099999","2005-10-23T19:00:00","10.3166667","1.3833333","461.0","NATITINGOU, BN","FM-12","4","","72","82","","","","9","71","BKN:05 256","29.82","28.31","6.21","75","000","","0","","","","","","","","","","","","","","","","","","","","","","","","","","","","","","","","","","","","","","","","","","","","","","","","","","","","","","","","","","","","","","","","","","","","","","","","","","","","","","","","","","","","","","","","","","","SYN082AAXX  23184 65319 32960 50000 10280 20222 39586 40098 80002 333 10327 58006 85076;","","","","","","","","","",""
"65319099999","2005-10-24T01:00:00","10.3166667","1.3833333","461.0","NATITINGOU, BN","FM-12","4","","66","71","","","","9","84","BKN:05 256","29.85","28.35","6.21","68","000","","0","","","","","","","","","","","","","","","","","","","","","","","","","","","","","","","","","","","","","","","","","","","","","","","","","","","","","","","","","","","","","","","","","","","","","","","","","","","","","","","","","","","","","","","","","","","SYN082AAXX  24004 65319 33960 50000 10218 20190 39601 40110 80002 333 0//00 58004 85076;","","","","","","","","","",""
"65319099999","2005-10-24T07:00:00","10.3166667","1.3833333","461.0","NATITINGOU, BN","FM-12","4","","61","65","","","","9","85","","29.87","28.35","6.21","63","000","","0","","","","","","","","","","","","","","","","","","","","","","","","","","","","","","","","","","","","","","","","","","","","","","","","","","","","","","","","","","","","","","","","","","","","","","","","","","","","","","","","","","","","","","","","","","","SYN100AAXX  24064 65319 32960 50000 10185 20160 39599 40114 80002 333 01800 20180 50524 55078 58001 85076;","","","","","","","","","",""
"65319099999","2005-10-24T13:00:00","10.3166667","1.3833333","461.0","NATITINGOU, BN","FM-12","4","","58","93","","","","9","30","BKN:05 256","29.85","28.35","6.21","70","020","","5","","","","","","","","","","","","","","","","","","","","","","","","","","","","","","","","","","","","","","","","","","","","","","","","","","","","","","","","","","","","","","","","","","","","","","","","","","","","","","","","","","","","","","","","","","","SYN082AAXX  24124 65319 32960 50204 10340 20142 39599 40107 80002 333 0//00 59003 85076;","","","","","","","","","",""
"65319099999","2005-10-24T19:00:00","10.3166667","1.3833333","461.0","NATITINGOU, BN","FM-12","4","","69","85","","","","9","60","BKN:07 256","29.83","28.31","6.21","74","000","","0","","","","","","","","","","","","","","","","","","","","","","","","","","","","","","","","","","","","","","","","","","","","","","","","","","","","","","","","","","","","","","","","","","","","","","","","","","","","","","","","","","","","","","","","","","","SYN082AAXX  24184 65319 32960 70000 10292 20207 39587 40100 80006 333 10350 58001 87276;","","","","","","","","","",""
"65319099999","2005-10-25T01:00:00","10.3166667","1.3833333","461.0","NATITINGOU, BN","FM-12","4","","65","73","","","","9","77","BKN:05 256","29.85","28.35","6.21","68","000","","0","","","","","","","","","","","","","","","","","","","","","","","","","","","","","","","","","","","","","","","","","","","","","","","","","","","","","","","","","","","","","","","","","","","","","","","","","","","","","","","","","","","","","","","","","","","SYN082AAXX  25004 65319 33960 50000 10227 20184 39602 40108 80002 333 0//00 58001 85076;","","","","","","","","","",""
"65319099999","2005-10-25T07:00:00","10.3166667","1.3833333","461.0","NATITINGOU, BN","FM-12","4","","63","69","","","","9","79","","29.85","28.33","6.21","65","000","","0","","","","","","","","","","","","","","","","","","","","","","","","","","","","","","","","","","","","","","","","","","","","","","","","","","","","","","","","","","","","","","","","","","","","","","","","","","","","","","","","","","","","","","","","","","","SYN100AAXX  25064 65319 32960 70000 10208 20170 39595 40107 8703/ 333 01900 20199 50624 55105 59004 87361;","","","","","","","","","",""
"65319099999","2005-10-25T13:00:00","10.3166667","1.3833333","461.0","NATITINGOU, BN","FM-12","4","","67","90","","","","9","46","BKN:07 256","29.83","28.33","6.21","74","000","","0","","","","","","","","","","","","","","","","","","","","","","","","","","","","","","","","","","","","","","","","","","","","","","","","","","","","","","","","","","","","","","","","","","","","","","","","","","","","","","","","","","","","","","","","","","","SYN082AAXX  25124 65319 32960 70000 10323 20192 39594 40102 80006 333 0//00 59005 87276;","","","","","","","","","",""
"65319099999","2005-10-25T19:00:00","10.3166667","1.3833333","461.0","NATITINGOU, BN","FM-12","4","","71","84","","","","9","65","FEW:02 108","29.83","28.32","6.21","75","000","","0","","","","","","","","","","","","","","","","","","","","","","","","","","","","","","","","","","","","","","","","","","","","","","","","","","","","","","","","","","","","","","","","","","","","","","","","","","","","","","","","","","","","","","","","","","","SYN088AAXX  25184 65319 32960 60000 10288 20215 39589 40100 82032 333 10346 58002 82361 85076;","","","","","","","","","",""
"65319099999","2005-10-26T01:00:00","10.3166667","1.3833333","461.0","NATITINGOU, BN","FM-12","4","","63","72","","","","9","75","BKN:05 256","29.83","28.33","6.21","66","000","","0","","","","","","","","","","","","","","","","","","","","","","","","","","","","","","","","","","","","","","","","","","","","","","","","","","","","","","","","","","","","","","","","","","","","","","","","","","","","","","","","","","","","","","","","","","","SYN082AAXX  26004 65319 33960 50000 10220 20173 39595 40103 80002 333 0//00 59007 85076;","","","","","","","","","",""
"65319099999","2005-10-26T07:00:00","10.3166667","1.3833333","461.0","NATITINGOU, BN","FM-12","4","","63","67","","","","9","86","","29.85","28.33","6.21","65","000","","0","","","","","","","","","","","","","","","","","","","","","","","","","","","","","","","","","","","","","","","","","","","","","","","","","","","","","","","","","","","","","","","","","","","","","","","","","","","","","","","","","","","","","","","","","","","SYN100AAXX  26064 65319 32960 50000 10195 20171 39594 40108 80002 333 01600 20192 50524 55074 59001 85076;","","","","","","","","","",""
"65319099999","2005-10-26T13:00:00","10.3166667","1.3833333","461.0","NATITINGOU, BN","FM-12","4","","71","91","","","","9","51","SCT:03 20 BKN:05 256","29.85","28.32","6.21","77","220","","7","","","","","","","","","","","","","","","","","","","","","","","","","","","","","","","","","","","","","","","","","","","","","","","","","","","","","","","","","","","","","","","","","","","","","","","","","","","","","","","","","","","","","","","","","","","SYN100AAXX  26124 65319 32560 72206 10330 20215 39589 40107 83202 333 0//00 59005 83820 85076 94919 95838;","","","","","","","","","",""
"65319099999","2005-10-26T19:00:00","10.3166667","1.3833333","461.0","NATITINGOU, BN","FM-12","4","","73","86","","","","9","65","BKN:05 256","29.81","28.30","6.21","77","040","","5","","","","","","","","","","","","","","","","","","","","","","","","","","","","","","","","","","","","","","","","","","","","","","","","","","","","","","","","","","","","","","","","","","","","","","","","","","","","","","","","","","","","","","","","","","","SYN082AAXX  26184 65319 32960 50404 10302 20228 39583 40094 80002 333 10350 59006 85076;","","","","","","","","","",""
"65319099999","2005-10-27T01:00:00","10.3166667","1.3833333","461.0","NATITINGOU, BN","FM-12","4","","69","74","","","","9","83","BKN:05 256","29.84","28.34","6.21","71","000","","0","","","","","","","","","","","","","","","","","","","","","","","","","","","","","","","","","","","","","","","","","","","","","","","","","","","","","","","","","","","","","","","","","","","","","","","","","","","","","","","","","","","","","","","","","","","SYN082AAXX  27004 65319 33960 50000 10235 20205 39598 40104 80002 333 0//00 58003 85076;","","","","","","","","","",""
"65319099999","2005-10-27T07:00:00","10.3166667","1.3833333","461.0","NATITINGOU, BN","FM-12","4","","66","69","","","","9","88","","29.85","28.34","6.21","67","000","","0","","","","","","","","","","","","","","","","","","","","","","","","","","","","","","","","","","","","","","","","","","","","","","","","","","","","","","","","","","","","","","","","","","","","","","","","","","","","","","","","","","","","","","","","","","","SYN100AAXX  27064 65319 32960 70000 10208 20188 39596 40107 80006 333 01500 20202 50514 55101 58002 87276;","","","","","","","","","",""
"65319099999","2005-10-27T13:00:00","10.3166667","1.3833333","461.0","NATITINGOU, BN","FM-12","4","","55","93","","","","9","28","BKN:05 256","29.81","28.32","6.21","69","040","","9","","","","","","","","","","","","","","","","","","","","","","","","","","","","","","","","","","","","","","","","","","","","","","","","","","","","","","","","","","","","","","","","","","","","","","","","","","","","","","","","","","","","","","","","","","","SYN082AAXX  27124 65319 32960 50408 10340 20130 39591 40096 80002 333 0//00 58002 85076;","","","","","","","","","",""
"65319099999","2005-10-27T19:00:00","10.3166667","1.3833333","461.0","NATITINGOU, BN","FM-12","4","","67","86","","","","9","54","SCT:03 256","29.82","28.31","6.21","73","000","","0","","","","","","","","","","","","","","","","","","","","","","","","","","","","","","","","","","","","","","","","","","","","","","","","","","","","","","","","","","","","","","","","","","","","","","","","","","","","","","","","","","","","","","","","","","","SYN082AAXX  27184 65319 32960 30000 10300 20196 39588 40099 80002 333 10352 58005 83076;","","","","","","","","","",""
"65319099999","2005-10-28T01:00:00","10.3166667","1.3833333","461.0","NATITINGOU, BN","FM-12","4","","67","72","","","","9","83","BKN:05 256","29.86","28.37","6.21","69","000","","0","","","","","","","","","","","","","","","","","","","","","","","","","","","","","","","","","","","","","","","","","","","","","","","","","","","","","","","","","","","","","","","","","","","","","","","","","","","","","","","","","","","","","","","","","","","SYN082AAXX  28004 65319 33960 50000 10225 20195 39606 40112 80002 333 0//00 58008 85076;","","","","","","","","","",""
"65319099999","2005-10-28T07:00:00","10.3166667","1.3833333","461.0","NATITINGOU, BN","FM-12","4","","64","68","","","","9","86","","29.88","28.36","6.21","65","000","","0","","","","","","","","","","","","","","","","","","","","","","","","","","","","","","","","","","","","","","","","","","","","","","","","","","","","","","","","","","","","","","","","","","","","","","","","","","","","","","","","","","","","","","","","","","","SYN100AAXX  28064 65319 32960 50000 10200 20176 39605 40117 80002 333 01700 20195 50664 55101 58009 85076;","","","","","","","","","",""
"65319099999","2005-10-28T13:00:00","10.3166667","1.3833333","461.0","NATITINGOU, BN","FM-12","4","","70","92","","","","9","48","BKN:07 256","29.85","28.36","6.21","76","200","","5","","","","","","","","","","","","","","","","","","","","","","","","","","","","","","","","","","","","","","","","","","","","","","","","","","","","","","","","","","","","","","","","","","","","","","","","","","","","","","","","","","","","","","","","","","","SYN082AAXX  28124 65319 32960 72004 10334 20209 39603 40110 80008 333 0//00 58012 87276;","","","","","","","","","",""
"65319099999","2005-10-28T19:00:00","10.3166667","1.3833333","461.0","NATITINGOU, BN","FM-12","4","","72","85","","","","9","65","FEW:01 13","29.85","28.34","6.21","76","000","","0","","","","","","","","","","","","","","","","","","","","","","","","","","","","","","","","","","","","","","","","","","","","","","","","","","","","","","","","","","","","","","","","","","","","","","","","","","","","","","","","","","","","","","","","","","","SYN088AAXX  28184 65319 32460 70000 10297 20225 39598 40110 81538 333 10343 59010 81613 87361;","","","","","","","","","",""
"65319099999","2005-10-29T01:00:00","10.3166667","1.3833333","461.0","NATITINGOU, BN","FM-12","4","","69","74","","","","9","84","BKN:05 256","29.91","28.41","6.21","71","000","","0","","","","","","","","","","","","","","","","","","","","","","","","","","","","","","","","","","","","","","","","","","","","","","","","","","","","","","","","","","","","","","","","","","","","","","","","","","","","","","","","","","","","","","","","","","","SYN082AAXX  29004 65319 33960 50000 10236 20208 39622 40130 80002 333 0//00 58016 85076;","","","","","","","","","",""
"65319099999","2005-10-29T07:00:00","10.3166667","1.3833333","461.0","NATITINGOU, BN","FM-12","4","","67","70","","","","9","90","","29.92","28.40","6.21","68","000","","0","","","","","","","","","","","","","","","","","","","","","","","","","","","","","","","","","","","","","","","","","","","","","","","","","","","","","","","","","","","","","","","","","","","","","","","","","","","","","","","","","","","","","","","","","","","SYN100AAXX  29064 65319 32960 50000 10211 20194 39619 40131 80002 333 01600 20206 50384 55088 58014 85076;","","","","","","","","","",""
"65319099999","2005-10-29T13:00:00","10.3166667","1.3833333","461.0","NATITINGOU, BN","FM-12","4","","72","90","","","","9","55","BKN:07 256","29.90","28.40","6.21","77","220","","5","","","","","","","","","","","","","","","","","","","","","","","","","","","","","","","","","","","","","","","","","","","","","","","","","","","","","","","","","","","","","","","","","","","","","","","","","","","","","","","","","","","","","","","","","","","SYN082AAXX  29124 65319 32960 72204 10325 20224 39618 40126 80008 333 0//00 58015 87276;","","","","","","","","","",""
"65319099999","2005-10-29T19:00:00","10.3166667","1.3833333","461.0","NATITINGOU, BN","FM-12","4","","71","86","","","","9","61","BKN:05 256","29.87","28.36","6.21","75","000","","0","","","","","","","","","","","","","","","","","","","","","","","","","","","","","","","","","","","","","","","","","","","","","","","","","","","","","","","","","","","","","","","","","","","","","","","","","","","","","","","","","","","","","","","","","","","SYN082AAXX  29184 65319 32960 50000 10300 20216 39604 40116 80002 333 10356 58006 85076;","","","","","","","","","",""
"65319099999","2005-10-30T01:00:00","10.3166667","1.3833333","461.0","NATITINGOU, BN","FM-12","4","","66","73","","","","9","77","BKN:05 256","29.89","28.39","6.21","68","000","","0","","","","","","","","","","","","","","","","","","","","","","","","","","","","","","","","","","","","","","","","","","","","","","","","","","","","","","","","","","","","","","","","","","","","","","","","","","","","","","","","","","","","","","","","","","","SYN082AAXX  30004 65319 33960 50000 10230 20187 39615 40123 80002 333 0//00 59007 85076;","","","","","","","","","",""
"65319099999","2005-10-30T07:00:00","10.3166667","1.3833333","461.0","NATITINGOU, BN","FM-12","4","","64","70","","","","9","83","","29.91","28.39","6.21","66","000","","0","","","","","","","","","","","","","","","","","","","","","","","","","","","","","","","","","","","","","","","","","","","","","","","","","","","","","","","","","","","","","","","","","","","","","","","","","","","","","","","","","","","","","","","","","","","SYN100AAXX  30064 65319 32960 50000 10210 20179 39615 40127 80002 333 01700 20205 50494 55084 59004 85076;","","","","","","","","","",""
"65319099999","2005-10-30T13:00:00","10.3166667","1.3833333","461.0","NATITINGOU, BN","FM-12","4","","53","95","","","","9","24","BKN:07 256","29.88","28.38","6.21","68","090","","7","","","","","","","","","","","","","","","","","","","","","","","","","","","","","","","","","","","","","","","","","","","","","","","","","","","","","","","","","","","","","","","","","","","","","","","","","","","","","","","","","","","","","","","","","","","SYN082AAXX  30124 65319 32960 70906 10350 20117 39611 40117 80008 333 0//00 59007 87276;","","","","","","","","","",""
"65319099999","2005-10-30T19:00:00","10.3166667","1.3833333","461.0","NATITINGOU, BN","FM-12","4","","67","85","","","","9","55","BKN:05 256","29.87","28.36","6.21","73","000","","0","","","","","","","","","","","","","","","","","","","","","","","","","","","","","","","","","","","","","","","","","","","","","","","","","","","","","","","","","","","","","","","","","","","","","","","","","","","","","","","","","","","","","","","","","","","SYN082AAXX  30184 65319 32960 50000 10294 20194 39603 40115 80002 333 10362 59001 85076;","","","","","","","","","",""
"65319099999","2005-10-31T01:00:00","10.3166667","1.3833333","461.0","NATITINGOU, BN","FM-12","4","","62","72","","","","9","72","BKN:05 256","29.90","28.40","6.21","66","000","","0","","","","","","","","","","","","","","","","","","","","","","","","","","","","","","","","","","","","","","","","","","","","","","","","","","","","","","","","","","","","","","","","","","","","","","","","","","","","","","","","","","","","","","","","","","","SYN082AAXX  31004 65319 33960 50000 10220 20166 39618 40125 80002 333 0//00 58003 85076;","","","","","","","","","",""
"65319099999","2005-10-31T07:00:00","10.3166667","1.3833333","461.0","NATITINGOU, BN","FM-12","4","","61","68","","","","9","78","","29.91","28.39","6.21","64","000","","0","","","","","","","","","","","","","","","","","","","","","","","","","","","","","","","","","","","","","","","","","","","","","","","","","","","","","","","","","","","","","","","","","","","","","","","","","","","","","","","","","","","","","","","","","","","SYN100AAXX  31064 65319 32960 50000 10199 20160 39615 40129 80002 333 01500 20191 50604 55101 58000 85076;","","","","","","","","","",""
"65319099999","2005-10-31T13:00:00","10.3166667","1.3833333","461.0","NATITINGOU, BN","FM-12","4","","71","92","","","","9","49","BKN:05 256","29.88","28.38","6.21","77","220","","5","","","","","","","","","","","","","","","","","","","","","","","","","","","","","","","","","","","","","","","","","","","","","","","","","","","","","","","","","","","","","","","","","","","","","","","","","","","","","","","","","","","","","","","","","","","SYN082AAXX  31124 65319 32960 52204 10335 20215 39612 40120 80002 333 0//00 58001 85076;","","","","","","","","","",""
"65319099999","2005-10-31T19:00:00","10.3166667","1.3833333","461.0","NATITINGOU, BN","FM-12","4","","70","87","","","","9","57","BKN:05 256","29.86","28.35","6.21","75","000","","0","","","","","","","","","","","","","","","","","","","","","","","","","","","","","","","","","","","","","","","","","","","","","","","","","","","","","","","","","","","","","","","","","","","","","","","","","","","","","","","","","","","","","","","","","","","SYN082AAXX  31184 65319 32960 50000 10305 20210 39601 40113 80002 333 10355 59002 85076;","","","","","","","","","",""
"65319099999","2005-11-01T01:00:00","10.3166667","1.3833333","461.0","NATITINGOU, BN","FM-12","4","","68","74","","","","9","82","BKN:05 256","29.92","28.42","6.21","70","000","","0","","","","","","","","","","","","","","","","","","","","","","","","","","","","","","","","","","","","","","","","","","","","","","","","","","","","","","","","","","","","","","","","","","","","","","","","","","","","","","","","","","","","","","","","","","","SYN082AAXX  01004 65319 33960 50000 10234 20201 39625 40133 80002 333 0//00 58007 85076;","","","","","","","","","",""
"65319099999","2005-11-01T07:00:00","10.3166667","1.3833333","461.0","NATITINGOU, BN","FM-12","4","","66","70","","","","9","86","","29.91","28.40","6.21","67","000","","0","","","","","","","","","","","","","","","","","","","","","","","","","","","","","","","","","","","","","","","","","","","","","","","","","","","","","","","","","","","","","","","","","","","","","","","","","","","","","","","","","","","","","","","","","","","SYN100AAXX  01064 65319 32960 70000 10212 20187 39619 40130 80006 333 01500 20207 50604 55097 58004 87276;","","","","","","","","","",""
"65319099999","2005-11-01T13:00:00","10.3166667","1.3833333","461.0","NATITINGOU, BN","FM-12","4","","66","94","","","","9","41","FEW:01 13 BKN:07 256","29.89","28.40","3.73","75","160","","5","","","","","","","","","","","","","","","","","","","","","","","","","","","","","","","","","","","","","","","","","","","","","","","","","","","","","","","","","","","","","","","","","","","","","","","","","","","","","","","","","","","","","","","","","","","SYN100AAXX  01124 65319 32456 71604 10342 20191 39617 40123 83808 333 0//00 58005 81613 87276 94919 95814;","","","","","","","","","",""
"65319099999","2005-11-01T19:00:00","10.3166667","1.3833333","461.0","NATITINGOU, BN","FM-12","4","","69","85","","","","9","58","BKN:07 256","29.90","28.38","3.73","74","000","","0","","","","","","","","","","","","","","","","","","","","","","","","","","","","","","","","","","","","","","","","","","","","","","","","","","","","","","","","","","","","","","","","","","","","","","","","","","","","","","","","","","","","","","","","","","","SYN082AAXX  01184 65319 32956 70000 10297 20206 39612 40124 80006 333 10350 58011 87276;","","","","","","","","","",""
"65319099999","2005-11-02T01:00:00","10.3166667","1.3833333","461.0","NATITINGOU, BN","FM-12","4","","70","78","","","","9","78","BKN:05 256","29.91","28.42","6.21","73","000","","0","","","","","","","","","","","","","","","","","","","","","","","","","","","","","","","","","","","","","","","","","","","","","","","","","","","","","","","","","","","","","","","","","","","","","","","","","","","","","","","","","","","","","","","","","","","SYN082AAXX  02004 65319 33960 50000 10254 20213 39625 40130 80002 333 0//00 58000 85076;","","","","","","","","","",""
"65319099999","2005-11-02T13:00:00","10.3166667","1.3833333","461.0","NATITINGOU, BN","FM-12","4","","71","88","","","","9","58","BKN:07 108","29.93","28.43","4.97","76","000","","0","","","","","","","","","","","","","","","","","","","","","","","","","","","","","","","","","","","","","","","","","","","","","","","","","","","","","","","","","","","","","","","","","","","","","","","","","","","","","","","","","","","","","","","","","","","SYN082AAXX  02124 65319 32958 70000 10310 20219 39628 40136 8703/ 333 0//00 58011 87361;","","","","","","","","","",""
"65319099999","2005-11-02T19:00:00","10.3166667","1.3833333","461.0","NATITINGOU, BN","FM-12","4","","67","86","","","","9","54","BKN:07 256","29.87","28.37","4.97","73","000","","0","","","","","","","","","","","","","","","","","","","","","","","","","","","","","","","","","","","","","","","","","","","","","","","","","","","","","","","","","","","","","","","","","","","","","","","","","","","","","","","","","","","","","","","","","","","SYN082AAXX  02184 65319 32958 70000 10300 20196 39606 40116 80008 333 10345 59006 87276;","","","","","","","","","",""
"65319099999","2005-11-03T01:00:00","10.3166667","1.3833333","461.0","NATITINGOU, BN","FM-12","4","","65","76","","","","9","71","BKN:05 256","29.90","28.39","4.97","69","000","","0","","","","","","","","","","","","","","","","","","","","","","","","","","","","","","","","","","","","","","","","","","","","","","","","","","","","","","","","","","","","","","","","","","","","","","","","","","","","","","","","","","","","","","","","","","","SYN082AAXX  03004 65319 33958 50000 10242 20185 39615 40124 80002 333 0//00 59010 85076;","","","","","","","","","",""
"65319099999","2005-11-03T07:00:00","10.3166667","1.3833333","461.0","NATITINGOU, BN","FM-12","4","","63","72","","","","9","75","","29.88","28.38","6.21","66","000","","0","","","","","","","","","","","","","","","","","","","","","","","","","","","","","","","","","","","","","","","","","","","","","","","","","","","","","","","","","","","","","","","","","","","","","","","","","","","","","","","","","","","","","","","","","","","SYN100AAXX  03064 65319 32960 70000 10220 20173 39609 40120 8707/ 333 01900 20214 50474 55052 59015 87361;","","","","","","","","","",""
"65319099999","2005-11-03T13:00:00","10.3166667","1.3833333","461.0","NATITINGOU, BN","FM-12","4","","56","94","","","","9","28","FEW:01 108","29.88","28.38","4.97","70","020","","7","","","","","","","","","","","","","","","","","","","","","","","","","","","","","","","","","","","","","","","","","","","","","","","","","","","","","","","","","","","","","","","","","","","","","","","","","","","","","","","","","","","","","","","","","","","SYN088AAXX  03124 65319 32958 50206 10345 20136 39612 40117 81032 333 0//00 59016 81361 85076;","","","","","","","","","",""
"65319099999","2005-11-03T19:00:00","10.3166667","1.3833333","461.0","NATITINGOU, BN","FM-12","4","","67","86","","","","9","53","SCT:03 108","29.86","28.35","4.97","73","000","","0","","","","","","","","","","","","","","","","","","","","","","","","","","","","","","","","","","","","","","","","","","","","","","","","","","","","","","","","","","","","","","","","","","","","","","","","","","","","","","","","","","","","","","","","","","","SYN088AAXX  03184 65319 32958 70000 10298 20192 39602 40113 83032 333 10361 59004 83361 85076;","","","","","","","","","",""
"65319099999","2005-11-04T01:00:00","10.3166667","1.3833333","461.0","NATITINGOU, BN","FM-12","4","","62","73","","","","9","67","BKN:05 256","29.88","28.38","4.97","66","000","","0","","","","","","","","","","","","","","","","","","","","","","","","","","","","","","","","","","","","","","","","","","","","","","","","","","","","","","","","","","","","","","","","","","","","","","","","","","","","","","","","","","","","","","","","","","","SYN082AAXX  04004 65319 33958 50000 10230 20166 39612 40118 80002 333 0//00 59003 85076;","","","","","","","","","",""
"65319099999","2005-11-04T07:00:00","10.3166667","1.3833333","461.0","NATITINGOU, BN","FM-12","4","","60","68","","","","9","77","SCT:04 108","29.90","28.38","6.21","63","000","","0","","","","","","","","","","","","","","","","","","","","","","","","","","","","","","","","","","","","","","","","","","","","","","","","","","","","","","","","","","","","","","","","","","","","","","","","","","","","","","","","","","","","","","","","","","","SYN106AAXX  04064 65319 32960 70000 10200 20158 39612 40125 84032 333 01700 20199 50524 55058 58003 84361 85076;","","","","","","","","","",""
"65319099999","2005-11-04T13:00:00","10.3166667","1.3833333","461.0","NATITINGOU, BN","FM-12","4","","69","90","","","","9","49","BKN:07 108","29.85","28.35","6.21","75","000","","0","","","","","","","","","","","","","","","","","","","","","","","","","","","","","","","","","","","","","","","","","","","","","","","","","","","","","","","","","","","","","","","","","","","","","","","","","","","","","","","","","","","","","","","","","","","SYN082AAXX  04124 65319 32960 70000 10325 20204 39602 40109 8703/ 333 0//00 59010 87361;","","","","","","","","","",""
"65319099999","2005-11-04T19:00:00","10.3166667","1.3833333","461.0","NATITINGOU, BN","FM-12","4","","65","84","","","","9","53","BKN:06 256","29.85","28.34","6.21","71","000","","0","","","","","","","","","","","","","","","","","","","","","","","","","","","","","","","","","","","","","","","","","","","","","","","","","","","","","","","","","","","","","","","","","","","","","","","","","","","","","","","","","","","","","","","","","","","SYN082AAXX  04184 65319 32960 60000 10290 20184 39596 40109 80002 333 10345 59006 86076;","","","","","","","","","",""
"65319099999","2005-11-05T01:00:00","10.3166667","1.3833333","461.0","NATITINGOU, BN","FM-12","4","","65","73","","","","9","77","BKN:07 108","29.88","28.38","6.21","68","000","","0","","","","","","","","","","","","","","","","","","","","","","","","","","","","","","","","","","","","","","","","","","","","","","","","","","","","","","","","","","","","","","","","","","","","","","","","","","","","","","","","","","","","","","","","","","","SYN082AAXX  05004 65319 33960 70000 10227 20185 39611 40120 8707/ 333 0//00 59001 87361;","","","","","","","","","",""
"65319099999","2005-11-05T07:00:00","10.3166667","1.3833333","461.0","NATITINGOU, BN","FM-12","4","","64","69","","","","9","84","SCT:03 108","29.89","28.38","6.21","66","000","","0","","","","","","","","","","","","","","","","","","","","","","","","","","","","","","","","","","","","","","","","","","","","","","","","","","","","","","","","","","","","","","","","","","","","","","","","","","","","","","","","","","","","","","","","","","","SYN106AAXX  05064 65319 32960 70000 10205 20177 39609 40121 83032 333 01500 20200 50484 55076 59003 83361 85076;","","","","","","","","","",""
"65319099999","2005-11-05T13:00:00","10.3166667","1.3833333","461.0","NATITINGOU, BN","FM-12","4","","55","92","","","","9","29","BKN:07 108","29.85","28.35","6.21","68","040","","11","","","","","","","","","","","","","","","","","","","","","","","","","","","","","","","","","","","","","","","","","","","","","","","","","","","","","","","","","","","","","","","","","","","","","","","","","","","","","","","","","","","","","","","","","","","SYN082AAXX  05124 65319 32960 70410 10333 20129 39602 40109 8703/ 333 0//00 58000 87361;","","","","","","","","","",""
"65319099999","2005-11-05T19:00:00","10.3166667","1.3833333","461.0","NATITINGOU, BN","FM-12","4","","69","83","","","","9","62","BKN:05 256","29.83","28.32","4.97","73","000","","0","","","","","","","","","","","","","","","","","","","","","","","","","","","","","","","","","","","","","","","","","","","","","","","","","","","","","","","","","","","","","","","","","","","","","","","","","","","","","","","","","","","","","","","","","","","SYN082AAXX  05184 65319 32958 50000 10285 20204 39589 40101 80002 333 10342 59007 85076;","","","","","","","","","",""
"65319099999","2005-11-06T01:00:00","10.3166667","1.3833333","461.0","NATITINGOU, BN","FM-12","4","","61","72","","","","9","68","BKN:05 256","29.88","28.38","4.97","65","000","","0","","","","","","","","","","","","","","","","","","","","","","","","","","","","","","","","","","","","","","","","","","","","","","","","","","","","","","","","","","","","","","","","","","","","","","","","","","","","","","","","","","","","","","","","","","","SYN082AAXX  06004 65319 33958 50000 10225 20162 39611 40119 80002 333 0//00 58000 85076;","","","","","","","","","",""
"65319099999","2005-11-06T07:00:00","10.3166667","1.3833333","461.0","NATITINGOU, BN","FM-12","4","","61","69","","","","9","76","SCT:04 108","29.88","28.37","6.21","64","000","","0","","","","","","","","","","","","","","","","","","","","","","","","","","","","","","","","","","","","","","","","","","","","","","","","","","","","","","","","","","","","","","","","","","","","","","","","","","","","","","","","","","","","","","","","","","","SYN106AAXX  06064 65319 32960 70000 10205 20161 39607 40119 84032 333 01700 20200 50454 55066 59002 84361 84076;","","","","","","","","","",""
"65319099999","2005-11-06T19:00:00","10.3166667","1.3833333","461.0","NATITINGOU, BN","FM-12","4","","66","83","","","","9","57","BKN:05 256","29.86","28.34","4.97","72","000","","0","","","","","","","","","","","","","","","","","","","","","","","","","","","","","","","","","","","","","","","","","","","","","","","","","","","","","","","","","","","","","","","","","","","","","","","","","","","","","","","","","","","","","","","","","","","SYN082AAXX  06184 65319 32958 50000 10281 20189 39598 40111 80002 333 10350 58009 85076;","","","","","","","","","",""
"65319099999","2005-11-07T01:00:00","10.3166667","1.3833333","461.0","NATITINGOU, BN","FM-12","4","","57","70","","","","9","64","BKN:05 256","29.89","28.38","6.21","62","000","","0","","","","","","","","","","","","","","","","","","","","","","","","","","","","","","","","","","","","","","","","","","","","","","","","","","","","","","","","","","","","","","","","","","","","","","","","","","","","","","","","","","","","","","","","","","","SYN082AAXX  07004 65319 33960 50000 10211 20139 39612 40121 80002 333 0//00 58001 85076;","","","","","","","","","",""
"65319099999","2005-11-07T07:00:00","10.3166667","1.3833333","461.0","NATITINGOU, BN","FM-12","4","","51","64","","","","9","61","","29.90","28.37","6.21","57","000","","0","","","","","","","","","","","","","","","","","","","","","","","","","","","","","","","","","","","","","","","","","","","","","","","","","","","","","","","","","","","","","","","","","","","","","","","","","","","","","","","","","","","","","","","","","","","SYN100AAXX  07064 65319 32960 50000 10180 20104 39608 40124 80002 333 01600 20176 50584 55094 58001 85076;","","","","","","","","","",""
"65319099999","2005-11-07T19:00:00","10.3166667","1.3833333","461.0","NATITINGOU, BN","FM-12","4","","59","83","","","","9","44","BKN:05 256","29.85","28.33","6.21","68","000","","0","","","","","","","","","","","","","","","","","","","","","","","","","","","","","","","","","","","","","","","","","","","","","","","","","","","","","","","","","","","","","","","","","","","","","","","","","","","","","","","","","","","","","","","","","","","SYN082AAXX  07184 65319 32960 50000 10285 20149 39594 40109 80002 333 10350 59004 85076;","","","","","","","","","",""
"65319099999","2005-11-08T01:00:00","10.3166667","1.3833333","461.0","NATITINGOU, BN","FM-12","4","","52","68","","","","9","57","BKN:05 256","29.85","28.35","6.21","59","000","","0","","","","","","","","","","","","","","","","","","","","","","","","","","","","","","","","","","","","","","","","","","","","","","","","","","","","","","","","","","","","","","","","","","","","","","","","","","","","","","","","","","","","","","","","","","","SYN082AAXX  08004 65319 33960 50000 10200 20111 39599 40107 80002 333 0//00 59012 85076;","","","","","","","","","",""
"65319099999","2005-11-08T07:00:00","10.3166667","1.3833333","461.0","NATITINGOU, BN","FM-12","4","","49","64","","","","9","59","","29.86","28.34","6.21","56","000","","0","","","","","","","","","","","","","","","","","","","","","","","","","","","","","","","","","","","","","","","","","","","","","","","","","","","","","","","","","","","","","","","","","","","","","","","","","","","","","","","","","","","","","","","","","","","SYN100AAXX  08064 65319 32960 50000 10180 20097 39597 40112 80002 333 01100 20175 51004 55107 59010 85076;","","","","","","","","","",""
"65319099999","2005-11-08T19:00:00","10.3166667","1.3833333","461.0","NATITINGOU, BN","FM-12","4","","63","85","","||HZ","","9","48","SCT:03 256","29.83","28.31","3.73","70","000","","0","","","","","","","","","","","","","","","","","","","","","","","","","","","","","","","","","","","","","","","","","","","","","","","","","","","","","","","","","","","","","","","","","","","","","","","","","","","","","","","","","","","","","","","","","","","SYN088AAXX  08184 65319 31956 30000 10295 20172 39588 40101 70522 80002 333 10356 59006 83076;","","","","","","","","","",""
"65319099999","2005-11-09T01:00:00","10.3166667","1.3833333","461.0","NATITINGOU, BN","FM-12","4","","56","72","","","","9","59","SCT:03 256","29.86","28.36","4.97","62","000","","0","","","","","","","","","","","","","","","","","","","","","","","","","","","","","","","","","","","","","","","","","","","","","","","","","","","","","","","","","","","","","","","","","","","","","","","","","","","","","","","","","","","","","","","","","","","SYN082AAXX  09004 65319 33958 30000 10220 20136 39605 40112 80002 333 0//00 58006 83076;","","","","","","","","","",""
"65319099999","2005-11-09T07:00:00","10.3166667","1.3833333","461.0","NATITINGOU, BN","FM-12","4","","52","70","","","","9","53","","29.85","28.35","2.98","60","000","","0","","","","","","","","","","","","","","","","","","","","","","","","","","","","","","","","","","","","","","","","","","","","","","","","","","","","","","","","","","","","","","","","","","","","","","","","","","","","","","","","","","","","","","","","","","","SYN106AAXX  09064 65319 31448 70000 10212 20112 39599 40110 71022 876// 333 01600 20197 50594 55098 58002 87710;","","","","","","","","","",""
"65319099999","2005-11-09T13:00:00","10.3166667","1.3833333","461.0","NATITINGOU, BN","FM-12","4","","49","93","","||HZ","","9","22","BKN:07 256","29.83","28.33","2.49","66","080","","5","","","","","","","","","","","","","","","","","","","","","","","","","","","","","","","","","","","","","","","","","","","","","","","","","","","","","","","","","","","","","","","","","","","","","","","","","","","","","","","","","","","","","","","","","","","SYN088AAXX  09124 65319 31940 70804 10340 20095 39594 40101 70522 80008 333 0//00 58001 87276;","","","","","","","","","",""
"65319099999","2005-11-10T01:00:00","10.3166667","1.3833333","461.0","NATITINGOU, BN","FM-12","4","","57","72","","","","9","61","BKN:05 256","29.86","28.36","6.21","63","000","","0","","","","","","","","","","","","","","","","","","","","","","","","","","","","","","","","","","","","","","","","","","","","","","","","","","","","","","","","","","","","","","","","","","","","","","","","","","","","","","","","","","","","","","","","","","","SYN082AAXX  10004 65319 33960 50000 10220 20140 39604 40111 80002 333 0//00 59001 85076;","","","","","","","","","",""
"65319099999","2005-11-10T07:00:00","10.3166667","1.3833333","461.0","NATITINGOU, BN","FM-12","4","","56","67","","","","9","68","","29.88","28.36","4.97","60","000","","0","","","","","","","","","","","","","","","","","","","","","","","","","","","","","","","","","","","","","","","","","","","","","","","","","","","","","","","","","","","","","","","","","","","","","","","","","","","","","","","","","","","","","","","","","","","SYN100AAXX  10064 65319 32958 70000 10193 20133 39603 40117 80006 333 01500 20189 50664 55081 58004 87276;","","","","","","","","","",""
"65319099999","2005-11-10T13:00:00","10.3166667","1.3833333","461.0","NATITINGOU, BN","FM-12","4","","56","93","","","","9","28","BKN:05 256","29.82","28.32","6.21","69","080","","7","","","","","","","","","","","","","","","","","","","","","","","","","","","","","","","","","","","","","","","","","","","","","","","","","","","","","","","","","","","","","","","","","","","","","","","","","","","","","","","","","","","","","","","","","","","SYN082AAXX  10124 65319 32960 50806 10340 20131 39591 40098 80002 333 0//00 59003 85076;","","","","","","","","","",""
"65319099999","2005-11-11T07:00:00","10.3166667","1.3833333","461.0","NATITINGOU, BN","FM-12","4","","53","66","","","","9","63","","29.85","28.33","4.97","59","000","","0","","","","","","","","","","","","","","","","","","","","","","","","","","","","","","","","","","","","","","","","","","","","","","","","","","","","","","","","","","","","","","","","","","","","","","","","","","","","","","","","","","","","","","","","","","","SYN100AAXX  11064 65319 32958 50000 10190 20118 39594 40108 80002 333 01300 20188 50674 55095 59009 85076;","","","","","","","","","",""
"65319099999","2005-11-11T13:00:00","10.3166667","1.3833333","461.0","NATITINGOU, BN","FM-12","4","","50","93","","||HZ","","9","23","BKN:05 256","29.81","28.32","3.73","67","040","","5","","","","","","","","","","","","","","","","","","","","","","","","","","","","","","","","","","","","","","","","","","","","","","","","","","","","","","","","","","","","","","","","","","","","","","","","","","","","","","","","","","","","","","","","","","","SYN088AAXX  11124 65319 31956 50404 10338 20102 39589 40096 70522 80002 333 0//00 59002 85076;","","","","","","","","","",""
"65319099999","2005-11-11T19:00:00","10.3166667","1.3833333","461.0","NATITINGOU, BN","FM-12","4","","63","84","","||HZ","","9","49","BKN:05 256","29.82","28.31","3.73","70","000","","0","","","","","","","","","","","","","","","","","","","","","","","","","","","","","","","","","","","","","","","","","","","","","","","","","","","","","","","","","","","","","","","","","","","","","","","","","","","","","","","","","","","","","","","","","","","SYN088AAXX  11184 65319 31956 50000 10290 20171 39586 40099 70522 80002 333 10356 58002 85076;","","","","","","","","","",""
"65319099999","2005-11-12T01:00:00","10.3166667","1.3833333","461.0","NATITINGOU, BN","FM-12","4","","56","72","","","","9","59","BKN:05 256","29.86","28.36","4.97","62","000","","0","","","","","","","","","","","","","","","","","","","","","","","","","","","","","","","","","","","","","","","","","","","","","","","","","","","","","","","","","","","","","","","","","","","","","","","","","","","","","","","","","","","","","","","","","","","SYN082AAXX  12004 65319 32958 50000 10220 20136 39604 40111 80002 333 0//00 58010 85076;","","","","","","","","","",""
"65319099999","2005-11-12T07:00:00","10.3166667","1.3833333","461.0","NATITINGOU, BN","FM-12","4","","53","64","","","","9","67","","29.83","28.32","6.21","58","000","","0","","","","","","","","","","","","","","","","","","","","","","","","","","","","","","","","","","","","","","","","","","","","","","","","","","","","","","","","","","","","","","","","","","","","","","","","","","","","","","","","","","","","","","","","","","","SYN100AAXX  12064 65319 32960 50000 10180 20118 39589 40103 80002 333 01500 20177 50644 55096 59005 85076;","","","","","","","","","",""
"65319099999","2005-11-12T13:00:00","10.3166667","1.3833333","461.0","NATITINGOU, BN","FM-12","4","","51","92","","||HZ","","9","24","BKN:07 256","29.81","28.32","3.73","67","080","","5","","","","","","","","","","","","","","","","","","","","","","","","","","","","","","","","","","","","","","","","","","","","","","","","","","","","","","","","","","","","","","","","","","","","","","","","","","","","","","","","","","","","","","","","","","","SYN088AAXX  12124 65319 31956 70804 10335 20103 39589 40095 70522 80008 333 0//00 58000 87276;","","","","","","","","","",""
"65319099999","2005-11-12T19:00:00","10.3166667","1.3833333","461.0","NATITINGOU, BN","FM-12","4","","65","84","","","","","53","","","","3.73","","000","","0","","","","","","","","","","","","","","","","","","","","","","","","","","","","","","","","","","","","","","","","","","","","","","","","","","","","","","","","","","","","","","","","","","","","","","","","","","","","","","","","","","","","","","","","","","","SYN088AAXX  12184 65319 31956 70000 10290 20184 10352 39575 40089 59011 70522 80008 87276 EEE;","","","","","","","","","",""
"65319099999","2005-11-13T01:00:00","10.3166667","1.3833333","461.0","NATITINGOU, BN","FM-12","4","","","70","","","","9","","BKN:05 256","29.83","28.33","4.97","","000","","0","","","","","","","","","","","","","","","","","","","","","","","","","","","","","","","","","","","","","","","","","","","","","","","","","","","","","","","","","","","","","","","","","","","","","","","","","","","","","","","","","","","","","","","","","","","SYN082AAXX  13004 65319 33958 50000 10209 29133 39594 40102 80002 333 0//00 59010 85076;","","","","","","","","","",""
"65319099999","2005-11-13T07:00:00","10.3166667","1.3833333","461.0","NATITINGOU, BN","FM-12","4","","52","66","","","","9","61","","29.83","28.32","4.97","58","000","","0","","","","","","","","","","","","","","","","","","","","","","","","","","","","","","","","","","","","","","","","","","","","","","","","","","","","","","","","","","","","","","","","","","","","","","","","","","","","","","","","","","","","","","","","","","","SYN100AAXX  13064 65319 32958 70000 10187 20110 39589 40102 80006 333 01200 20180 50564 55087 58000 87276;","","","","","","","","","",""
"65319099999","2005-11-13T13:00:00","10.3166667","1.3833333","461.0","NATITINGOU, BN","FM-12","4","","50","94","","","","9","22","BKN:07 256","29.80","28.30","4.97","67","080","","5","","","","","","","","","","","","","","","","","","","","","","","","","","","","","","","","","","","","","","","","","","","","","","","","","","","","","","","","","","","","","","","","","","","","","","","","","","","","","","","","","","","","","","","","","","","SYN082AAXX  13124 65319 32958 70804 10345 20101 39584 40091 80008 333 0//00 59005 87276;","","","","","","","","","",""
"65319099999","2005-11-13T19:00:00","10.3166667","1.3833333","461.0","NATITINGOU, BN","FM-12","4","","66","85","","||HZ","","9","53","BKN:05 256","29.79","28.27","4.97","72","000","","0","","","","","","","","","","","","","","","","","","","","","","","","","","","","","","","","","","","","","","","","","","","","","","","","","","","","","","","","","","","","","","","","","","","","","","","","","","","","","","","","","","","","","","","","","","","SYN088AAXX  13184 65319 31958 50000 10295 20190 39574 40087 70522 80002 333 10360 59001 85076;","","","","","","","","","",""
"65319099999","2005-11-14T01:00:00","10.3166667","1.3833333","461.0","NATITINGOU, BN","FM-12","4","","61","72","","","","9","67","BKN:05 256","29.81","28.33","4.97","65","000","","0","","","","","","","","","","","","","","","","","","","","","","","","","","","","","","","","","","","","","","","","","","","","","","","","","","","","","","","","","","","","","","","","","","","","","","","","","","","","","","","","","","","","","","","","","","","SYN082AAXX  14004 65319 33958 50000 10225 20161 39592 40096 80002 333 0//00 59002 85076;","","","","","","","","","",""
"65319099999","2005-11-14T07:00:00","10.3166667","1.3833333","461.0","NATITINGOU, BN","FM-12","4","","58","67","","","","9","71","","29.83","28.31","4.97","62","000","","0","","","","","","","","","","","","","","","","","","","","","","","","","","","","","","","","","","","","","","","","","","","","","","","","","","","","","","","","","","","","","","","","","","","","","","","","","","","","","","","","","","","","","","","","","","","SYN100AAXX  14064 65319 32958 50000 10197 20143 39588 40100 80002 333 01200 20195 50494 55095 59001 85076;","","","","","","","","","",""
"65319099999","2005-11-14T13:00:00","10.3166667","1.3833333","461.0","NATITINGOU, BN","FM-12","4","","62","96","","||HZ","","9","32","BKN:05 256","29.80","28.31","3.73","73","080","","7","","","","","","","","","","","","","","","","","","","","","","","","","","","","","","","","","","","","","","","","","","","","","","","","","","","","","","","","","","","","","","","","","","","","","","","","","","","","","","","","","","","","","","","","","","","SYN088AAXX  14124 65319 31956 50806 10355 20164 39588 40093 70522 80002 333 0//00 58004 85076;","","","","","","","","","",""
"65319099999","2005-11-14T19:00:00","10.3166667","1.3833333","461.0","NATITINGOU, BN","FM-12","4","","66","86","","||HZ","","9","51","BKN:05 256","29.80","28.29","3.73","72","000","","0","","","","","","","","","","","","","","","","","","","","","","","","","","","","","","","","","","","","","","","","","","","","","","","","","","","","","","","","","","","","","","","","","","","","","","","","","","","","","","","","","","","","","","","","","","","SYN088AAXX  14184 65319 31956 50000 10300 20187 39581 40092 70522 80002 333 10366 58007 85076;","","","","","","","","","",""
"65319099999","2005-11-15T01:00:00","10.3166667","1.3833333","461.0","NATITINGOU, BN","FM-12","4","","59","73","","","","9","60","BKN:05 256","29.83","28.34","4.97","64","000","","0","","","","","","","","","","","","","","","","","","","","","","","","","","","","","","","","","","","","","","","","","","","","","","","","","","","","","","","","","","","","","","","","","","","","","","","","","","","","","","","","","","","","","","","","","","","SYN082AAXX  15004 65319 33958 50000 10230 20148 39598 40102 80002 333 0//00 58006 85076;","","","","","","","","","",""
"65319099999","2005-11-15T07:00:00","10.3166667","1.3833333","461.0","NATITINGOU, BN","FM-12","4","","56","67","","","","9","67","","29.85","28.34","4.97","60","000","","0","","","","","","","","","","","","","","","","","","","","","","","","","","","","","","","","","","","","","","","","","","","","","","","","","","","","","","","","","","","","","","","","","","","","","","","","","","","","","","","","","","","","","","","","","","","SYN100AAXX  15064 65319 32958 50000 10197 20134 39596 40108 80002 333 01500 20193 50774 55093 58008 85076;","","","","","","","","","",""
"65319099999","2005-11-15T13:00:00","10.3166667","1.3833333","461.0","NATITINGOU, BN","FM-12","4","","54","95","","||HZ","","9","25","BKN:05 256","29.81","28.32","4.97","69","080","","5","","","","","","","","","","","","","","","","","","","","","","","","","","","","","","","","","","","","","","","","","","","","","","","","","","","","","","","","","","","","","","","","","","","","","","","","","","","","","","","","","","","","","","","","","","","SYN088AAXX  15124 65319 31958 50804 10352 20123 39590 40095 70522 80002 333 0//00 58002 85076;","","","","","","","","","",""
"65319099999","2005-11-15T19:00:00","10.3166667","1.3833333","461.0","NATITINGOU, BN","FM-12","4","","63","86","","||HZ","","9","47","BKN:05 256","29.78","28.27","3.11","71","000","","0","","","","","","","","","","","","","","","","","","","","","","","","","","","","","","","","","","","","","","","","","","","","","","","","","","","","","","","","","","","","","","","","","","","","","","","","","","","","","","","","","","","","","","","","","","","SYN088AAXX  15184 65319 31950 50000 10299 20173 39572 40083 70522 80002 333 10366 59009 85076;","","","","","","","","","",""
"65319099999","2005-11-16T01:00:00","10.3166667","1.3833333","461.0","NATITINGOU, BN","FM-12","4","","57","72","","||HZ","","9","60","BKN:05 256","29.82","28.33","4.97","63","000","","0","","","","","","","","","","","","","","","","","","","","","","","","","","","","","","","","","","","","","","","","","","","","","","","","","","","","","","","","","","","","","","","","","","","","","","","","","","","","","","","","","","","","","","","","","","","SYN088AAXX  16004 65319 31958 50000 10221 20139 39592 40098 705// 80002 333 0//00 59006 85076;","","","","","","","","","",""
"65319099999","2005-11-16T07:00:00","10.3166667","1.3833333","461.0","NATITINGOU, BN","FM-12","4","","55","66","","","","9","68","","29.83","28.32","4.97","60","000","","0","","","","","","","","","","","","","","","","","","","","","","","","","","","","","","","","","","","","","","","","","","","","","","","","","","","","","","","","","","","","","","","","","","","","","","","","","","","","","","","","","","","","","","","","","","","SYN100AAXX  16064 65319 32958 50000 10189 20129 39589 40101 80002 333 01300 20184 50554 55091 59007 85076;","","","","","","","","","",""
"65319099999","2005-11-16T13:00:00","10.3166667","1.3833333","461.0","NATITINGOU, BN","FM-12","4","","51","95","","||HZ","","9","23","BKN:05 256","29.79","28.30","4.97","68","040","","7","","","","","","","","","","","","","","","","","","","","","","","","","","","","","","","","","","","","","","","","","","","","","","","","","","","","","","","","","","","","","","","","","","","","","","","","","","","","","","","","","","","","","","","","","","","SYN088AAXX  16124 65319 31958 50406 10352 20108 39582 40089 70522 80002 333 0//00 59008 85076;","","","","","","","","","",""
"65319099999","2005-11-16T19:00:00","10.3166667","1.3833333","461.0","NATITINGOU, BN","FM-12","4","","66","85","","||HZ","","9","53","BKN:05 256","29.78","28.26","4.97","72","000","","0","","","","","","","","","","","","","","","","","","","","","","","","","","","","","","","","","","","","","","","","","","","","","","","","","","","","","","","","","","","","","","","","","","","","","","","","","","","","","","","","","","","","","","","","","","","SYN088AAXX  16184 65319 31958 50000 10295 20190 39570 40083 70522 80002 333 10370 59002 85076;","","","","","","","","","",""
"65319099999","2005-11-17T01:00:00","10.3166667","1.3833333","461.0","NATITINGOU, BN","FM-12","4","","54","72","","","","9","55","SCT:03 256","29.82","28.33","4.97","61","000","","0","","","","","","","","","","","","","","","","","","","","","","","","","","","","","","","","","","","","","","","","","","","","","","","","","","","","","","","","","","","","","","","","","","","","","","","","","","","","","","","","","","","","","","","","","","","SYN082AAXX  17004 65319 32958 30000 10220 20124 39592 40098 80002 333 0//00 58000 83076;","","","","","","","","","",""
"65319099999","2005-11-17T13:00:00","10.3166667","1.3833333","461.0","NATITINGOU, BN","FM-12","4","","47","95","","||HZ","","9","19","BKN:05 256","29.79","28.30","3.73","66","120","","5","","","","","","","","","","","","","","","","","","","","","","","","","","","","","","","","","","","","","","","","","","","","","","","","","","","","","","","","","","","","","","","","","","","","","","","","","","","","","","","","","","","","","","","","","","","SYN088AAXX  17124 65319 31956 51204 10350 20083 39583 40088 70522 80002 333 0//00 58001 85076;","","","","","","","","","",""
"65319099999","2005-11-17T19:00:00","10.3166667","1.3833333","461.0","NATITINGOU, BN","FM-12","4","","69","83","","||HZ","","9","63","BKN:05 256","29.79","28.27","2.86","73","000","","0","","","","","","","","","","","","","","","","","","","","","","","","","","","","","","","","","","","","","","","","","","","","","","","","","","","","","","","","","","","","","","","","","","","","","","","","","","","","","","","","","","","","","","","","","","","SYN088AAXX  17184 65319 31946 50000 10284 20206 39574 40088 70522 80002 333 10370 58004 85076;","","","","","","","","","",""
"65319099999","2005-11-18T01:00:00","10.3166667","1.3833333","461.0","NATITINGOU, BN","FM-12","4","","54","70","","","","9","59","BKN:05 256","29.82","28.32","4.97","61","000","","0","","","","","","","","","","","","","","","","","","","","","","","","","","","","","","","","","","","","","","","","","","","","","","","","","","","","","","","","","","","","","","","","","","","","","","","","","","","","","","","","","","","","","","","","","","","SYN082AAXX  18004 65319 33958 50000 10209 20125 39590 40097 80002 333 0//00 59002 85076;","","","","","","","","","",""
"65319099999","2005-11-18T13:00:00","10.3166667","1.3833333","461.0","NATITINGOU, BN","FM-12","4","","61","94","","||HZ","","9","34","BKN:05 256","29.80","28.30","4.97","72","120","","7","","","","","","","","","","","","","","","","","","","","","","","","","","","","","","","","","","","","","","","","","","","","","","","","","","","","","","","","","","","","","","","","","","","","","","","","","","","","","","","","","","","","","","","","","","","SYN088AAXX  18124 65319 31958 51206 10343 20161 39583 40090 70522 80002 333 0//00 58000 85076;","","","","","","","","","",""
"65319099999","2005-11-18T19:00:00","10.3166667","1.3833333","461.0","NATITINGOU, BN","FM-12","4","","62","87","","||HZ","","9","44","BKN:05 256","29.79","28.50","3.73","71","000","","0","","","","","","","","","","","","","","","","","","","","","","","","","","","","","","","","","","","","","","","","","","","","","","","","","","","","","","","","","","","","","","","","","","","","","","","","","","","","","","","","","","","","","","","","","","","SYN088AAXX  18184 65319 31956 50000 10305 20169 39650 40087 70522 80002 333 10370 58001 85076;","","","","","","","","","",""
"65319099999","2005-11-19T01:00:00","10.3166667","1.3833333","461.0","NATITINGOU, BN","FM-12","4","","54","72","","","","9","52","BKN:05 256","29.83","28.34","4.97","61","000","","0","","","","","","","","","","","","","","","","","","","","","","","","","","","","","","","","","","","","","","","","","","","","","","","","","","","","","","","","","","","","","","","","","","","","","","","","","","","","","","","","","","","","","","","","","","","SYN082AAXX  19004 65319 33958 50000 10225 20122 39596 40102 80002 333 0//00 58006 85076;","","","","","","","","","",""
"65319099999","2005-11-19T07:00:00","10.3166667","1.3833333","461.0","NATITINGOU, BN","FM-12","4","","54","67","","","","9","63","","29.87","28.36","6.21","59","000","","0","","","","","","","","","","","","","","","","","","","","","","","","","","","","","","","","","","","","","","","","","","","","","","","","","","","","","","","","","","","","","","","","","","","","","","","","","","","","","","","","","","","","","","","","","","","SYN100AAXX  19064 65319 32960 50000 10195 20122 39603 40115 80002 333 01400 20191 50564 55100 58013 85076;","","","","","","","","","",""
"65319099999","2005-11-19T13:00:00","10.3166667","1.3833333","461.0","NATITINGOU, BN","FM-12","4","","56","96","","||HZ","","9","26","BKN:05 256","29.80","28.31","4.97","70","080","","7","","","","","","","","","","","","","","","","","","","","","","","","","","","","","","","","","","","","","","","","","","","","","","","","","","","","","","","","","","","","","","","","","","","","","","","","","","","","","","","","","","","","","","","","","","","SYN088AAXX  19124 65319 31958 50806 10354 20131 39587 40092 70522 80002 333 0//00 58004 85076;","","","","","","","","","",""
"65319099999","2005-11-19T19:00:00","10.3166667","1.3833333","461.0","NATITINGOU, BN","FM-12","4","","66","86","","","","9","51","BKN:05 256","29.78","28.27","4.97","72","000","","0","","","","","","","","","","","","","","","","","","","","","","","","","","","","","","","","","","","","","","","","","","","","","","","","","","","","","","","","","","","","","","","","","","","","","","","","","","","","","","","","","","","","","","","","","","","SYN082AAXX  19184 65319 32958 50000 10300 20189 39574 40085 80002 333 10373 59001 85076;","","","","","","","","","",""
"65319099999","2005-11-20T01:00:00","10.3166667","1.3833333","461.0","NATITINGOU, BN","FM-12","4","","56","73","","","","9","56","","29.81","28.32","6.21","63","000","","0","","","","","","","","","","","","","","","","","","","","","","","","","","","","","","","","","","","","","","","","","","","","","","","","","","","","","","","","","","","","","","","","","","","","","","","","","","","","","","","","","","","","","","","","","","","SYN083AAXX  20004 65319 33960 50000 10228 20134 39590 40095 800022 333 0//00 59006 85076;","","","","","","","","","",""
"65319099999","2005-11-20T07:00:00","10.3166667","1.3833333","461.0","NATITINGOU, BN","FM-12","4","","54","68","","","","9","62","","29.83","28.32","4.97","60","000","","0","","","","","","","","","","","","","","","","","","","","","","","","","","","","","","","","","","","","","","","","","","","","","","","","","","","","","","","","","","","","","","","","","","","","","","","","","","","","","","","","","","","","","","","","","","","SYN100AAXX  20064 65319 32958 50000 10200 20124 39589 40100 80002 333 01400 20196 50624 55091 59014 85076;","","","","","","","","","",""
"65319099999","2005-11-20T13:00:00","10.3166667","1.3833333","461.0","NATITINGOU, BN","FM-12","4","","52","98","","||HZ","","9","21","BKN:05 256","29.80","28.31","4.97","69","080","","5","","","","","","","","","","","","","","","","","","","","","","","","","","","","","","","","","","","","","","","","","","","","","","","","","","","","","","","","","","","","","","","","","","","","","","","","","","","","","","","","","","","","","","","","","","","SYN088AAXX  20124 65319 31958 50804 10365 20110 39587 40091 70522 80002 333 0//00 58000 85076;","","","","","","","","","",""
"65319099999","2005-11-20T19:00:00","10.3166667","1.3833333","461.0","NATITINGOU, BN","FM-12","4","","66","88","","||HZ","","9","49","BKN:05 256","29.78","28.28","4.97","73","000","","0","","","","","","","","","","","","","","","","","","","","","","","","","","","","","","","","","","","","","","","","","","","","","","","","","","","","","","","","","","","","","","","","","","","","","","","","","","","","","","","","","","","","","","","","","","","SYN088AAXX  20184 65319 31958 50000 10310 20191 39576 40086 70522 80002 333 10380 58002 85076;","","","","","","","","","",""
"65319099999","2005-11-21T01:00:00","10.3166667","1.3833333","461.0","NATITINGOU, BN","FM-12","4","","54","73","","","","9","51","BKN:05 256","29.80","28.31","4.97","62","000","","0","","","","","","","","","","","","","","","","","","","","","","","","","","","","","","","","","","","","","","","","","","","","","","","","","","","","","","","","","","","","","","","","","","","","","","","","","","","","","","","","","","","","","","","","","","","SYN082AAXX  21004 65319 33958 50000 10230 20122 39588 40091 80002 333 0//00 59002 85076;","","","","","","","","","",""
"65319099999","2005-11-21T13:00:00","10.3166667","1.3833333","461.0","NATITINGOU, BN","FM-12","4","","50","96","","||HZ","","9","21","BKN:07 256","29.76","28.28","4.97","67","120","","11","","","","","","","","","","","","","","","","","","","","","","","","","","","","","","","","","","","","","","","","","","","","","","","","","","","","","","","","","","","","","","","","","","","","","","","","","","","","","","","","","","","","","","","","","","","SYN088AAXX  21124 65319 31958 71210 10357 20099 39576 40079 70522 80008 333 0//00 59011 87276;","","","","","","","","","",""
"65319099999","2005-11-21T19:00:00","10.3166667","1.3833333","461.0","NATITINGOU, BN","FM-12","4","","67","87","","","","9","50","BKN:05 256","29.78","28.27","4.97","73","000","","0","","","","","","","","","","","","","","","","","","","","","","","","","","","","","","","","","","","","","","","","","","","","","","","","","","","","","","","","","","","","","","","","","","","","","","","","","","","","","","","","","","","","","","","","","","","SYN082AAXX  21184 65319 32958 50000 10307 20192 39574 40085 80002 333 10375 59002 85076;","","","","","","","","","",""
"65319099999","2005-11-22T01:00:00","10.3166667","1.3833333","461.0","NATITINGOU, BN","FM-12","4","","54","71","","","","9","55","BKN:05 256","29.81","28.32","6.21","61","000","","0","","","","","","","","","","","","","","","","","","","","","","","","","","","","","","","","","","","","","","","","","","","","","","","","","","","","","","","","","","","","","","","","","","","","","","","","","","","","","","","","","","","","","","","","","","","SYN082AAXX  22004 65319 33960 50000 10219 20125 39591 40096 80002 333 0//00 58003 85076;","","","","","","","","","",""
"65319099999","2005-11-22T07:00:00","10.3166667","1.3833333","461.0","NATITINGOU, BN","FM-12","4","","49","68","","","","9","51","","29.81","28.30","4.97","57","000","","0","","","","","","","","","","","","","","","","","","","","","","","","","","","","","","","","","","","","","","","","","","","","","","","","","","","","","","","","","","","","","","","","","","","","","","","","","","","","","","","","","","","","","","","","","","","SYN100AAXX  22064 65319 32958 50000 10200 20096 39585 40096 80002 333 01800 20193 50704 55084 58002 85076;","","","","","","","","","",""
"65319099999","2005-11-22T13:00:00","10.3166667","1.3833333","461.0","NATITINGOU, BN","FM-12","4","","53","97","","||HZ","","9","22","BKN:07 256","29.76","28.27","4.97","69","360","","7","","","","","","","","","","","","","","","","","","","","","","","","","","","","","","","","","","","","","","","","","","","","","","","","","","","","","","","","","","","","","","","","","","","","","","","","","","","","","","","","","","","","","","","","","","","SYN088AAXX  22124 65319 31958 73606 10360 20114 39575 40079 70522 80008 333 0//00 59001 87276;","","","","","","","","","",""
"65319099999","2005-11-22T19:00:00","10.3166667","1.3833333","461.0","NATITINGOU, BN","FM-12","4","","61","86","","||HZ","","9","42","BKN:05 256","29.75","28.25","4.97","70","000","","0","","","","","","","","","","","","","","","","","","","","","","","","","","","","","","","","","","","","","","","","","","","","","","","","","","","","","","","","","","","","","","","","","","","","","","","","","","","","","","","","","","","","","","","","","","","SYN088AAXX  22184 65319 31958 50000 10300 20159 39566 40076 70522 80002 333 10375 59008 85076;","","","","","","","","","",""
"65319099999","2005-11-23T01:00:00","10.3166667","1.3833333","461.0","NATITINGOU, BN","FM-12","4","","56","72","","","","9","59","BKN:05 256","29.80","28.31","4.97","62","000","","0","","","","","","","","","","","","","","","","","","","","","","","","","","","","","","","","","","","","","","","","","","","","","","","","","","","","","","","","","","","","","","","","","","","","","","","","","","","","","","","","","","","","","","","","","","","SYN082AAXX  23004 65319 33958 50000 10220 20136 39588 40093 80002 333 0//00 59003 85076;","","","","","","","","","",""
"65319099999","2005-11-23T07:00:00","10.3166667","1.3833333","461.0","NATITINGOU, BN","FM-12","4","","49","69","","||HZ","","9","48","","29.81","28.30","4.97","58","000","","0","","","","","","","","","","","","","","","","","","","","","","","","","","","","","","","","","","","","","","","","","","","","","","","","","","","","","","","","","","","","","","","","","","","","","","","","","","","","","","","","","","","","","","","","","","","SYN106AAXX  23064 65319 31958 50000 10208 20093 39584 40095 70522 80002 333 01500 20195 50714 55100 59001 85076;","","","","","","","","","",""
"65319099999","2005-11-23T13:00:00","10.3166667","1.3833333","461.0","NATITINGOU, BN","FM-12","4","","53","96","","||HZ","","9","23","BKN:05 256","29.79","28.30","3.73","69","340","","5","","","","","","","","","","","","","","","","","","","","","","","","","","","","","","","","","","","","","","","","","","","","","","","","","","","","","","","","","","","","","","","","","","","","","","","","","","","","","","","","","","","","","","","","","","","SYN088AAXX  23124 65319 31956 53404 10357 20114 39583 40088 70522 80002 333 0//00 58008 85076;","","","","","","","","","",""
"65319099999","2005-11-23T19:00:00","10.3166667","1.3833333","461.0","NATITINGOU, BN","FM-12","4","","64","86","","||HZ","","9","48","BKN:05 256","29.77","28.26","3.11","71","000","","0","","","","","","","","","","","","","","","","","","","","","","","","","","","","","","","","","","","","","","","","","","","","","","","","","","","","","","","","","","","","","","","","","","","","","","","","","","","","","","","","","","","","","","","","","","","SYN088AAXX  23184 65319 31950 50000 10300 20178 39570 40080 70522 80002 333 10380 58004 85076;","","","","","","","","","",""
"65319099999","2005-11-24T01:00:00","10.3166667","1.3833333","461.0","NATITINGOU, BN","FM-12","4","","54","72","","","","9","52","BKN:05 256","29.81","28.32","6.21","61","000","","0","","","","","","","","","","","","","","","","","","","","","","","","","","","","","","","","","","","","","","","","","","","","","","","","","","","","","","","","","","","","","","","","","","","","","","","","","","","","","","","","","","","","","","","","","","","SYN082AAXX  24004 65319 32960 50000 10225 20120 39591 40096 80002 333 0//00 58003 85076;","","","","","","","","","",""
"65319099999","2005-11-24T07:00:00","10.3166667","1.3833333","461.0","NATITINGOU, BN","FM-12","4","","52","69","","","","9","55","","29.80","28.32","6.21","59","000","","0","","","","","","","","","","","","","","","","","","","","","","","","","","","","","","","","","","","","","","","","","","","","","","","","","","","","","","","","","","","","","","","","","","","","","","","","","","","","","","","","","","","","","","","","","","","SYN100AAXX  24064 65319 32960 50000 10204 20110 39589 40090 80002 333 01400 20196 50694 55094 58005 85076;","","","","","","","","","",""
"65319099999","2005-11-24T13:00:00","10.3166667","1.3833333","461.0","NATITINGOU, BN","FM-12","4","","54","98","","||HZ","","9","23","","29.78","28.30","3.11","70","060","","5","","","","","","","","","","","","","","","","","","","","","","","","","","","","","","","","","","","","","","","","","","","","","","","","","","","","","","","","","","","","","","","","","","","","","","","","","","","","","","","","","","","","","","","","","","","SYN115AAXX  24124 65319 31950 50604 10365 20123 39582 40086 70522 80002 333 0//00 59001 8507 CHECK 53/5 NEW ENDING ADDED;","","","","","","","","","",""
"65319099999","2005-11-25T01:00:00","10.3166667","1.3833333","461.0","NATITINGOU, BN","FM-12","4","","54","75","","||HZ","","9","47","BKN:05 256","29.74","28.26","3.73","62","000","","0","","","","","","","","","","","","","","","","","","","","","","","","","","","","","","","","","","","","","","","","","","","","","","","","","","","","","","","","","","","","","","","","","","","","","","","","","","","","","","","","","","","","","","","","","","","SYN088AAXX  25004 65319 31956 50000 10240 20121 39570 40072 705// 80002 333 0//00 59021 85076;","","","","","","","","","",""
"65319099999","2005-11-25T13:00:00","10.3166667","1.3833333","461.0","NATITINGOU, BN","FM-12","4","","61","96","","||HZ","","9","31","BKN:07 256","29.78","28.29","4.97","73","080","","7","","","","","","","","","","","","","","","","","","","","","","","","","","","","","","","","","","","","","","","","","","","","","","","","","","","","","","","","","","","","","","","","","","","","","","","","","","","","","","","","","","","","","","","","","","","SYN088AAXX  25124 65319 31958 70806 10356 20159 39581 40084 70522 80008 333 0//00 59001 87276;","","","","","","","","","",""
"65319099999","2005-11-25T19:00:00","10.3166667","1.3833333","461.0","NATITINGOU, BN","FM-12","4","","61","87","","||HZ","","9","42","BKN:05 256","29.76","28.25","3.73","70","000","","0","","","","","","","","","","","","","","","","","","","","","","","","","","","","","","","","","","","","","","","","","","","","","","","","","","","","","","","","","","","","","","","","","","","","","","","","","","","","","","","","","","","","","","","","","","","SYN088AAXX  25184 65319 31956 50000 10304 20160 39567 40077 70522 80002 333 10369 59002 85076;","","","","","","","","","",""
"65319099999","2005-11-26T13:00:00","10.3166667","1.3833333","461.0","NATITINGOU, BN","FM-12","4","","69","94","","||HZ","","9","45","BKN:05 256","29.78","28.28","1.24","76","320","","5","","","","","","","","","","","","","","","","","","","","","","","","","","","","","","","","","","","","","","","","","","","","","","","","","","","","","","","","","","","","","","","","","","","","","","","","","","","","","","","","","","","","","","","","","","","SYN088AAXX  26124 65319 31920 53204 10345 20208 39578 40083 70522 80002 333 0//00 59003 85076;","","","","","","","","","",""
"65319099999","2005-11-26T19:00:00","10.3166667","1.3833333","461.0","NATITINGOU, BN","FM-12","4","","70","90","","||HZ","","9","52","BKN:05 256","29.74","28.24","3.11","76","000","","0","","","","","","","","","","","","","","","","","","","","","","","","","","","","","","","","","","","","","","","","","","","","","","","","","","","","","","","","","","","","","","","","","","","","","","","","","","","","","","","","","","","","","","","","","","","SYN088AAXX  26184 65319 31950 50000 10320 20211 39563 40071 70522 80002 333 10376 59004 85076;","","","","","","","","","",""
"65319099999","2005-11-27T01:00:00","10.3166667","1.3833333","461.0","NATITINGOU, BN","FM-12","4","","63","75","","","","9","67","BKN:05 256","29.77","28.28","4.97","67","000","","0","","","","","","","","","","","","","","","","","","","","","","","","","","","","","","","","","","","","","","","","","","","","","","","","","","","","","","","","","","","","","","","","","","","","","","","","","","","","","","","","","","","","","","","","","","","SYN082AAXX  27004 65319 33958 50000 10238 20174 39578 40082 80002 333 0//00 59006 85076;","","","","","","","","","",""
"65319099999","2005-11-27T07:00:00","10.3166667","1.3833333","461.0","NATITINGOU, BN","FM-12","4","","63","70","","","","9","80","","29.81","28.31","4.97","66","000","","0","","","","","","","","","","","","","","","","","","","","","","","","","","","","","","","","","","","","","","","","","","","","","","","","","","","","","","","","","","","","","","","","","","","","","","","","","","","","","","","","","","","","","","","","","","","SYN100AAXX  27064 65319 32958 50000 10210 20174 39587 40096 80002 333 01700 20205 50474 55096 59002 85076;","","","","","","","","","",""
"65319099999","2005-11-27T13:00:00","10.3166667","1.3833333","461.0","NATITINGOU, BN","FM-12","4","","69","95","","","","9","43","BKN:05 256","29.78","28.29","4.97","77","340","","7","","","","","","","","","","","","","","","","","","","","","","","","","","","","","","","","","","","","","","","","","","","","","","","","","","","","","","","","","","","","","","","","","","","","","","","","","","","","","","","","","","","","","","","","","","","SYN082AAXX  27124 65319 32958 53406 10348 20206 39580 40084 80002 333 0//00 58002 85076;","","","","","","","","","",""
"65319099999","2005-11-27T19:00:00","10.3166667","1.3833333","461.0","NATITINGOU, BN","FM-12","4","","66","89","","||HZ","","9","47","BKN:05 256","29.74","28.24","3.73","73","000","","0","","","","","","","","","","","","","","","","","","","","","","","","","","","","","","","","","","","","","","","","","","","","","","","","","","","","","","","","","","","","","","","","","","","","","","","","","","","","","","","","","","","","","","","","","","","SYN088AAXX  27184 65319 31956 50000 10317 20190 39563 40071 70522 80002 333 10374 58000 85076;","","","","","","","","","",""
"65319099999","2005-11-28T01:00:00","10.3166667","1.3833333","461.0","NATITINGOU, BN","FM-12","4","","63","75","","","","9","67","BKN:05 256","29.77","28.28","6.21","67","000","","0","","","","","","","","","","","","","","","","","","","","","","","","","","","","","","","","","","","","","","","","","","","","","","","","","","","","","","","","","","","","","","","","","","","","","","","","","","","","","","","","","","","","","","","","","","","SYN082AAXX  28004 65319 33960 50000 10238 20174 39578 40082 80002 333 0//00 58000 85076;","","","","","","","","","",""
"65319099999","2005-11-28T07:00:00","10.3166667","1.3833333","461.0","NATITINGOU, BN","FM-12","4","","56","69","","","","9","62","","29.79","28.29","6.21","61","000","","0","","","","","","","","","","","","","","","","","","","","","","","","","","","","","","","","","","","","","","","","","","","","","","","","","","","","","","","","","","","","","","","","","","","","","","","","","","","","","","","","","","","","","","","","","","","SYN100AAXX  28064 65319 32960 50000 10206 20131 39581 40087 80002 333 01600 20199 50584 55101 59006 85076;","","","","","","","","","",""
"65319099999","2005-11-29T01:00:00","10.3166667","1.3833333","461.0","NATITINGOU, BN","FM-12","4","","54","75","","||HZ","","9","49","BKN:05 256","29.78","28.30","4.97","62","000","","0","","","","","","","","","","","","","","","","","","","","","","","","","","","","","","","","","","","","","","","","","","","","","","","","","","","","","","","","","","","","","","","","","","","","","","","","","","","","","","","","","","","","","","","","","","","SYN088AAXX  29004 65319 31958 50000 10237 20123 39582 40085 705// 80002 333 0//00 58004 85076;","","","","","","","","","",""
"65319099999","2005-11-29T07:00:00","10.3166667","1.3833333","461.0","NATITINGOU, BN","FM-12","4","","53","67","","","","9","62","","29.82","28.31","4.97","59","000","","0","","","","","","","","","","","","","","","","","","","","","","","","","","","","","","","","","","","","","","","","","","","","","","","","","","","","","","","","","","","","","","","","","","","","","","","","","","","","","","","","","","","","","","","","","","","SYN100AAXX  29064 65319 32958 50000 10193 20117 39587 40098 80002 333 01700 20190 50694 55096 58006 85076;","","","","","","","","","",""
"65319099999","2005-11-29T19:00:00","10.3166667","1.3833333","461.0","NATITINGOU, BN","FM-12","4","","64","88","","||HZ","","9","46","BKN:05 256","29.76","28.25","4.97","72","000","","0","","","","","","","","","","","","","","","","","","","","","","","","","","","","","","","","","","","","","","","","","","","","","","","","","","","","","","","","","","","","","","","","","","","","","","","","","","","","","","","","","","","","","","","","","","","SYN088AAXX  29184 65319 31958 50000 10309 20180 39567 40077 70522 80002 333 10390 58002 85076;","","","","","","","","","",""
"65319099999","2005-11-30T01:00:00","10.3166667","1.3833333","461.0","NATITINGOU, BN","FM-12","4","","57","73","","","","9","56","BKN:05 256","29.80","28.31","6.21","63","000","","0","","","","","","","","","","","","","","","","","","","","","","","","","","","","","","","","","","","","","","","","","","","","","","","","","","","","","","","","","","","","","","","","","","","","","","","","","","","","","","","","","","","","","","","","","","","SYN082AAXX  30004 65319 33960 50000 10230 20137 39588 40091 80002 333 0//00 58006 85076;","","","","","","","","","",""
"65319099999","2005-11-30T07:00:00","10.3166667","1.3833333","461.0","NATITINGOU, BN","FM-12","4","","57","68","","","","9","69","","29.81","28.30","6.21","61","000","","0","","","","","","","","","","","","","","","","","","","","","","","","","","","","","","","","","","","","","","","","","","","","","","","","","","","","","","","","","","","","","","","","","","","","","","","","","","","","","","","","","","","","","","","","","","","SYN100AAXX  30064 65319 32960 50000 10200 20141 39585 40096 80002 333 01500 20197 50684 55099 59002 85076;","","","","","","","","","",""
"65319099999","2005-11-30T13:00:00","10.3166667","1.3833333","461.0","NATITINGOU, BN","FM-12","4","","71","95","","","","9","45","BKN:05 256","29.76","28.27","4.97","78","320","","7","","","","","","","","","","","","","","","","","","","","","","","","","","","","","","","","","","","","","","","","","","","","","","","","","","","","","","","","","","","","","","","","","","","","","","","","","","","","","","","","","","","","","","","","","","","SYN082AAXX  30124 65319 32958 53206 10350 20214 39574 40078 80002 333 0//00 59007 85076;","","","","","","","","","",""
"65319099999","2005-11-30T19:00:00","10.3166667","1.3833333","461.0","NATITINGOU, BN","FM-12","4","","63","91","","","","9","38","BKN:05 256","29.71","28.21","4.97","72","000","","0","","","","","","","","","","","","","","","","","","","","","","","","","","","","","","","","","","","","","","","","","","","","","","","","","","","","","","","","","","","","","","","","","","","","","","","","","","","","","","","","","","","","","","","","","","","SYN082AAXX  30184 65319 32958 50000 10330 20170 39553 40060 80002 333 10380 59014 85076;","","","","","","","","","",""
"65319099999","2005-12-01T01:00:00","10.3166667","1.3833333","461.0","NATITINGOU, BN","FM-12","4","","64","76","","","","9","67","BKN:05 256","29.77","28.28","4.97","68","000","","0","","","","","","","","","","","","","","","","","","","","","","","","","","","","","","","","","","","","","","","","","","","","","","","","","","","","","","","","","","","","","","","","","","","","","","","","","","","","","","","","","","","","","","","","","","","SYN082AAXX  01004 65319 33958 50000 10242 20177 39577 40080 80002 333 0//00 59011 85076;","","","","","","","","","",""
"65319099999","2005-12-01T07:00:00","10.3166667","1.3833333","461.0","NATITINGOU, BN","FM-12","4","","66","74","","","","9","75","","29.77","28.28","4.97","69","000","","0","","","","","","","","","","","","","","","","","","","","","","","","","","","","","","","","","","","","","","","","","","","","","","","","","","","","","","","","","","","","","","","","","","","","","","","","","","","","","","","","","","","","","","","","","","","SYN100AAXX  01064 65319 32958 50000 10236 20190 39576 40081 80002 333 01500 20220 50804 55100 59009 85076;","","","","","","","","","",""
"65319099999","2005-12-01T13:00:00","10.3166667","1.3833333","461.0","NATITINGOU, BN","FM-12","4","","65","97","","","","9","35","FEW:01 13 BKN:05 256","29.74","28.26","4.97","75","120","","5","","","","","","","","","","","","","","","","","","","","","","","","","","","","","","","","","","","","","","","","","","","","","","","","","","","","","","","","","","","","","","","","","","","","","","","","","","","","","","","","","","","","","","","","","","","SYN100AAXX  01124 65319 32958 61204 10360 20181 39569 40071 82802 333 0//00 59005 81613 85076 94919 95836;","","","","","","","","","",""
"65319099999","2005-12-01T19:00:00","10.3166667","1.3833333","461.0","NATITINGOU, BN","FM-12","4","","65","90","","","","9","45","BKN:05 256","29.70","28.21","4.97","73","000","","0","","","","","","","","","","","","","","","","","","","","","","","","","","","","","","","","","","","","","","","","","","","","","","","","","","","","","","","","","","","","","","","","","","","","","","","","","","","","","","","","","","","","","","","","","","","SYN082AAXX  01184 65319 32958 50000 10320 20185 39553 40058 80002 333 10380 58000 85076;","","","","","","","","","",""
"65319099999","2005-12-02T01:00:00","10.3166667","1.3833333","461.0","NATITINGOU, BN","FM-12","4","","60","77","","","","9","55","BKN:05 256","29.77","28.29","6.21","66","000","","0","","","","","","","","","","","","","","","","","","","","","","","","","","","","","","","","","","","","","","","","","","","","","","","","","","","","","","","","","","","","","","","","","","","","","","","","","","","","","","","","","","","","","","","","","","","SYN082AAXX  02004 65319 33960 50000 10250 20153 39580 40082 80002 333 0//00 58003 85076;","","","","","","","","","",""
"65319099999","2005-12-02T07:00:00","10.3166667","1.3833333","461.0","NATITINGOU, BN","FM-12","4","","61","69","","","","9","76","","29.80","28.30","4.97","64","000","","0","","","","","","","","","","","","","","","","","","","","","","","","","","","","","","","","","","","","","","","","","","","","","","","","","","","","","","","","","","","","","","","","","","","","","","","","","","","","","","","","","","","","","","","","","","","SYN100AAXX  02064 65319 32958 70000 10208 20163 39582 40091 80006 333 02000 20204 50574 55087 58006 87276;","","","","","","","","","",""
"65319099999","2005-12-02T13:00:00","10.3166667","1.3833333","461.0","NATITINGOU, BN","FM-12","4","","68","94","","","","9","42","FEW:02 20 BKN:05 256","29.78","28.29","4.97","76","320","","5","","","","","","","","","","","","","","","","","","","","","","","","","","","","","","","","","","","","","","","","","","","","","","","","","","","","","","","","","","","","","","","","","","","","","","","","","","","","","","","","","","","","","","","","","","","SYN100AAXX  02124 65319 32558 63204 10345 20199 39581 40084 82202 333 0//00 58012 82820 85076 94905 95815;","","","","","","","","","",""
"65319099999","2005-12-02T19:00:00","10.3166667","1.3833333","461.0","NATITINGOU, BN","FM-12","4","","63","88","","","","9","43","BKN:05 256","29.75","28.25","4.97","71","000","","0","","","","","","","","","","","","","","","","","","","","","","","","","","","","","","","","","","","","","","","","","","","","","","","","","","","","","","","","","","","","","","","","","","","","","","","","","","","","","","","","","","","","","","","","","","","SYN082AAXX  02184 65319 32958 50000 10312 20171 39566 40075 80002 333 10368 58013 85076;","","","","","","","","","",""
"65319099999","2005-12-03T01:00:00","10.3166667","1.3833333","461.0","NATITINGOU, BN","FM-12","4","","56","75","","","","9","52","BKN:05 256","29.81","28.32","4.97","63","000","","0","","","","","","","","","","","","","","","","","","","","","","","","","","","","","","","","","","","","","","","","","","","","","","","","","","","","","","","","","","","","","","","","","","","","","","","","","","","","","","","","","","","","","","","","","","","SYN082AAXX  03004 65319 33958 50000 10237 20133 39589 40094 80002 333 0//00 58009 85076;","","","","","","","","","",""
"65319099999","2005-12-03T07:00:00","10.3166667","1.3833333","461.0","NATITINGOU, BN","FM-12","4","","55","68","","","","9","62","","29.80","28.30","4.97","60","000","","0","","","","","","","","","","","","","","","","","","","","","","","","","","","","","","","","","","","","","","","","","","","","","","","","","","","","","","","","","","","","","","","","","","","","","","","","","","","","","","","","","","","","","","","","","","","SYN100AAXX  03064 65319 32958 50000 10202 20126 39582 40093 80002 333 01700 20200 50634 55099 58000 85076;","","","","","","","","","",""
"65319099999","2005-12-03T13:00:00","10.3166667","1.3833333","461.0","NATITINGOU, BN","FM-12","4","","50","96","","||HZ","","9","21","BKN:05 256","29.80","28.31","3.73","67","080","","18","","","","","","","","","","","","","","","","","","","","","","","","","","","","","","","","","","","","","","","","","","","","","","","","","","","","","","","","","","","","","","","","","","","","","","","","","","","","","","","","","","","","","","","","","","","SYN088AAXX  03124 65319 31956 50816 10355 20098 39586 40091 70522 80002 333 0//00 58005 85076;","","","","","","","","","",""
"65319099999","2005-12-03T19:00:00","10.3166667","1.3833333","461.0","NATITINGOU, BN","FM-12","4","","66","87","","","","9","50","BKN:05 256","29.78","28.27","4.97","73","000","","0","","","","","","","","","","","","","","","","","","","","","","","","","","","","","","","","","","","","","","","","","","","","","","","","","","","","","","","","","","","","","","","","","","","","","","","","","","","","","","","","","","","","","","","","","","","SYN082AAXX  03184 65319 32958 50000 10306 20189 39574 40084 80002 333 10370 58008 85076;","","","","","","","","","",""
"65319099999","2005-12-04T01:00:00","10.3166667","1.3833333","461.0","NATITINGOU, BN","FM-12","4","","50","73","","","","9","44","BKN:05 256","29.80","28.31","6.21","60","000","","0","","","","","","","","","","","","","","","","","","","","","","","","","","","","","","","","","","","","","","","","","","","","","","","","","","","","","","","","","","","","","","","","","","","","","","","","","","","","","","","","","","","","","","","","","","","SYN082AAXX  04004 65319 33960 50000 10227 20098 39588 40093 80002 333 0//00 59001 85076;","","","","","","","","","",""
"65319099999","2005-12-04T07:00:00","10.3166667","1.3833333","461.0","NATITINGOU, BN","FM-12","4","","49","67","","","","9","54","","29.81","28.30","6.21","57","000","","0","","","","","","","","","","","","","","","","","","","","","","","","","","","","","","","","","","","","","","","","","","","","","","","","","","","","","","","","","","","","","","","","","","","","","","","","","","","","","","","","","","","","","","","","","","","SYN100AAXX  04064 65319 32960 50000 10192 20097 39584 40095 80002 333 01600 20189 50674 55102 58002 85076;","","","","","","","","","",""
"65319099999","2005-12-04T13:00:00","10.3166667","1.3833333","461.0","NATITINGOU, BN","FM-12","4","","50","97","","","","9","21","BKN:05 256","29.78","28.29","4.97","68","120","","11","","","","","","","","","","","","","","","","","","","","","","","","","","","","","","","","","","","","","","","","","","","","","","","","","","","","","","","","","","","","","","","","","","","","","","","","","","","","","","","","","","","","","","","","","","","SYN082AAXX  04124 65319 32958 51210 10360 20101 39579 40083 80002 333 0//00 59007 85076;","","","","","","","","","",""
"65319099999","2005-12-05T01:00:00","10.3166667","1.3833333","461.0","NATITINGOU, BN","FM-12","4","","50","75","","||HZ","","9","41","BKN:05 256","29.74","28.26","3.73","60","000","","0","","","","","","","","","","","","","","","","","","","","","","","","","","","","","","","","","","","","","","","","","","","","","","","","","","","","","","","","","","","","","","","","","","","","","","","","","","","","","","","","","","","","","","","","","","","SYN088AAXX  05004 65319 31956 50000 10240 20098 39570 40072 705// 80002 333 0//00 59018 85076;","","","","","","","","","",""
"65319099999","2005-12-05T13:00:00","10.3166667","1.3833333","461.0","NATITINGOU, BN","FM-12","4","","49","98","","","","9","19","SCT:03 256","29.71","28.23","4.97","68","180","","5","","","","","","","","","","","","","","","","","","","","","","","","","","","","","","","","","","","","","","","","","","","","","","","","","","","","","","","","","","","","","","","","","","","","","","","","","","","","","","","","","","","","","","","","","","","SYN082AAXX  05124 65319 32958 31804 10367 20092 39559 40060 80002 333 0//00 59020 83076;","","","","","","","","","",""
"65319099999","2005-12-05T19:00:00","10.3166667","1.3833333","461.0","NATITINGOU, BN","FM-12","4","","61","88","","||HZ","","9","41","BKN:07 256","29.70","28.20","3.73","70","000","","0","","","","","","","","","","","","","","","","","","","","","","","","","","","","","","","","","","","","","","","","","","","","","","","","","","","","","","","","","","","","","","","","","","","","","","","","","","","","","","","","","","","","","","","","","","","SYN088AAXX  05184 65319 31956 70000 10310 20163 39549 40058 70522 80006 333 10384 59019 87276;","","","","","","","","","",""
"65319099999","2005-12-06T04:00:00","10.3166667","1.3833333","461.0","NATITINGOU, BN","FM-12","4","","53","71","","","","9","53","BKN:05 256","29.70","28.22","6.21","60","000","","0","","","","","","","","","","","","","","","","","","","","","","","","","","","","","","","","","","","","","","","","","","","","","","","","","","","","","","","","","","","","","","","","","","","","","","","","","","","","","","","","","","","","","","","","","","","SYN076AAXX  06034 65319 42960 50000 10217 20116 39557 40059 80002 333 58001 85076;","","","","","","","","","",""
"65319099999","2005-12-06T07:00:00","10.3166667","1.3833333","461.0","NATITINGOU, BN","FM-12","4","","58","69","","","","9","70","","29.74","28.24","4.97","62","000","","0","","","","","","","","","","","","","","","","","","","","","","","","","","","","","","","","","","","","","","","","","","","","","","","","","","","","","","","","","","","","","","","","","","","","","","","","","","","","","","","","","","","","","","","","","","","SYN100AAXX  06064 65319 32958 60000 10205 20147 39563 40072 80002 333 01400 20203 50754 55695 59004 86076;","","","","","","","","","",""
"65319099999","2005-12-06T13:00:00","10.3166667","1.3833333","461.0","NATITINGOU, BN","FM-12","4","","69","94","","","","9","45","SCT:03 20 BKN:05 256","29.72","28.24","4.97","76","110","","30","","","","","","","","","","","","","","","","","","","","","","","","","","","","","","","","","","","","","","","","","","","","","","","","","","","","","","","","","","","","","","","","","","","","","","","","","","","","","","","","","","","","","","","","","","","SYN100AAXX  06124 65319 32558 51126 10345 20208 39562 40066 83202 333 0//00 58003 83820 85076 94904 95814;","","","","","","","","","",""
"65319099999","2005-12-06T19:00:00","10.3166667","1.3833333","461.0","NATITINGOU, BN","FM-12","4","","62","86","","","","9","44","BKN:05 256","29.69","28.19","4.97","70","000","","0","","","","","","","","","","","","","","","","","","","","","","","","","","","","","","","","","","","","","","","","","","","","","","","","","","","","","","","","","","","","","","","","","","","","","","","","","","","","","","","","","","","","","","","","","","","SYN082AAXX  06184 65319 32958 50000 10300 20165 39546 40054 80002 333 10370 59003 85076;","","","","","","","","","",""
"65319099999","2005-12-07T01:00:00","10.3166667","1.3833333","461.0","NATITINGOU, BN","FM-12","4","","53","73","","","","9","48","BKN:05 256","29.76","28.27","4.97","61","000","","0","","","","","","","","","","","","","","","","","","","","","","","","","","","","","","","","","","","","","","","","","","","","","","","","","","","","","","","","","","","","","","","","","","","","","","","","","","","","","","","","","","","","","","","","","","","SYN082AAXX  07004 65319 33958 50000 10230 20114 39573 40077 80002 333 0//00 58010 85076;","","","","","","","","","",""
"65319099999","2005-12-07T07:00:00","10.3166667","1.3833333","461.0","NATITINGOU, BN","FM-12","4","","52","66","","","","9","60","","29.76","28.25","4.97","58","000","","0","","","","","","","","","","","","","","","","","","","","","","","","","","","","","","","","","","","","","","","","","","","","","","","","","","","","","","","","","","","","","","","","","","","","","","","","","","","","","","","","","","","","","","","","","","","SYN100AAXX  07064 65319 32958 50000 10190 20110 39567 40078 80002 333 01700 20185 50724 55094 58004 85076;","","","","","","","","","",""
"65319099999","2005-12-07T13:00:00","10.3166667","1.3833333","461.0","NATITINGOU, BN","FM-12","4","","45","94","","","","9","19","BKN:06 256","29.74","28.25","4.97","65","360","","9","","","","","","","","","","","","","","","","","","","","","","","","","","","","","","","","","","","","","","","","","","","","","","","","","","","","","","","","","","","","","","","","","","","","","","","","","","","","","","","","","","","","","","","","","","","SYN082AAXX  07124 65319 32958 63608 10345 20073 39568 40072 80002 333 0//00 58006 86076;","","","","","","","","","",""
"65319099999","2005-12-07T19:00:00","10.3166667","1.3833333","461.0","NATITINGOU, BN","FM-12","4","","60","85","","","","9","43","BKN:07 256","29.74","28.23","3.73","69","000","","0","","","","","","","","","","","","","","","","","","","","","","","","","","","","","","","","","","","","","","","","","","","","","","","","","","","","","","","","","","","","","","","","","","","","","","","","","","","","","","","","","","","","","","","","","","","SYN082AAXX  07184 65319 32956 70000 10294 20155 39560 40072 80006 333 10362 58014 87276;","","","","","","","","","",""
"65319099999","2005-12-08T01:00:00","10.3166667","1.3833333","461.0","NATITINGOU, BN","FM-12","4","","49","73","","","","9","43","BKN:05 256","29.80","28.30","6.21","59","000","","0","","","","","","","","","","","","","","","","","","","","","","","","","","","","","","","","","","","","","","","","","","","","","","","","","","","","","","","","","","","","","","","","","","","","","","","","","","","","","","","","","","","","","","","","","","","SYN082AAXX  08004 65319 33960 50000 10230 20096 39585 40090 80002 333 0//00 58012 85076;","","","","","","","","","",""
"65319099999","2005-12-08T07:00:00","10.3166667","1.3833333","461.0","NATITINGOU, BN","FM-12","4","","49","68","","","","9","51","","29.84","28.33","6.21","57","000","","0","","","","","","","","","","","","","","","","","","","","","","","","","","","","","","","","","","","","","","","","","","","","","","","","","","","","","","","","","","","","","","","","","","","","","","","","","","","","","","","","","","","","","","","","","","","SYN100AAXX  08064 65319 32960 50000 10200 20094 39592 40105 80002 333 01500 20196 50504 55099 58025 85076;","","","","","","","","","",""
"65319099999","2005-12-08T19:00:00","10.3166667","1.3833333","461.0","NATITINGOU, BN","FM-12","4","","62","87","","","","9","44","BKN:05 256","29.78","28.27","4.97","71","000","","0","","","","","","","","","","","","","","","","","","","","","","","","","","","","","","","","","","","","","","","","","","","","","","","","","","","","","","","","","","","","","","","","","","","","","","","","","","","","","","","","","","","","","","","","","","","SYN082AAXX  08184 65319 32958 50000 10305 20169 39574 40084 80002 333 10370 58014 85076;","","","","","","","","","",""
"65319099999","2005-12-09T01:00:00","10.3166667","1.3833333","461.0","NATITINGOU, BN","FM-12","4","","48","71","","","","9","44","BKN:05 256","29.83","28.34","4.97","58","000","","0","","","","","","","","","","","","","","","","","","","","","","","","","","","","","","","","","","","","","","","","","","","","","","","","","","","","","","","","","","","","","","","","","","","","","","","","","","","","","","","","","","","","","","","","","","","SYN082AAXX  09004 65319 33958 50000 10218 20088 39596 40102 80002 333 0//00 58011 85076;","","","","","","","","","",""
"65319099999","2005-12-09T07:00:00","10.3166667","1.3833333","461.0","NATITINGOU, BN","FM-12","4","","48","66","","","","9","53","","29.86","28.34","4.97","56","000","","0","","","","","","","","","","","","","","","","","","","","","","","","","","","","","","","","","","","","","","","","","","","","","","","","","","","","","","","","","","","","","","","","","","","","","","","","","","","","","","","","","","","","","","","","","","","SYN100AAXX  09064 65319 32958 50000 10188 20090 39598 40111 80002 333 01500 20184 50714 55095 58006 85076;","","","","","","","","","",""
"65319099999","2005-12-09T13:00:00","10.3166667","1.3833333","461.0","NATITINGOU, BN","FM-12","4","","46","94","","||HZ","","9","19","BKN:05 256","29.82","28.33","4.97","65","040","","9","","","","","","","","","","","","","","","","","","","","","","","","","","","","","","","","","","","","","","","","","","","","","","","","","","","","","","","","","","","","","","","","","","","","","","","","","","","","","","","","","","","","","","","","","","","SYN088AAXX  09124 65319 31958 50408 10345 20079 39592 40099 70522 80002 333 0//00 58009 85076;","","","","","","","","","",""
"65319099999","2005-12-09T19:00:00","10.3166667","1.3833333","461.0","NATITINGOU, BN","FM-12","4","","59","84","","","","9","44","BKN:05 256","29.79","28.27","4.97","68","000","","0","","","","","","","","","","","","","","","","","","","","","","","","","","","","","","","","","","","","","","","","","","","","","","","","","","","","","","","","","","","","","","","","","","","","","","","","","","","","","","","","","","","","","","","","","","","SYN082AAXX  09184 65319 32958 50000 10287 20152 39574 40087 80002 333 10367 58000 85076;","","","","","","","","","",""
"65319099999","2005-12-10T01:00:00","10.3166667","1.3833333","461.0","NATITINGOU, BN","FM-12","4","","48","72","","","","9","43","BKN:05 256","29.80","28.31","6.21","58","000","","0","","","","","","","","","","","","","","","","","","","","","","","","","","","","","","","","","","","","","","","","","","","","","","","","","","","","","","","","","","","","","","","","","","","","","","","","","","","","","","","","","","","","","","","","","","","SYN082AAXX  10004 65319 33960 50000 10224 20090 39586 40091 80002 333 0//00 59010 85076;","","","","","","","","","",""
"65319099999","2005-12-10T07:00:00","10.3166667","1.3833333","461.0","NATITINGOU, BN","FM-12","4","","50","66","","","","9","58","","29.82","28.30","4.97","57","000","","0","","","","","","","","","","","","","","","","","","","","","","","","","","","","","","","","","","","","","","","","","","","","","","","","","","","","","","","","","","","","","","","","","","","","","","","","","","","","","","","","","","","","","","","","","","","SYN100AAXX  10064 65319 32958 50000 10187 20102 39585 40099 80002 333 01900 20184 50584 55096 59014 85076;","","","","","","","","","",""
"65319099999","2005-12-10T13:00:00","10.3166667","1.3833333","461.0","NATITINGOU, BN","FM-12","4","","50","94","","","","9","22","BKN:05 256","29.78","28.29","4.97","67","020","","5","","","","","","","","","","","","","","","","","","","","","","","","","","","","","","","","","","","","","","","","","","","","","","","","","","","","","","","","","","","","","","","","","","","","","","","","","","","","","","","","","","","","","","","","","","","SYN082AAXX  10124 65319 32958 50204 10345 20101 39580 40085 80002 333 0//00 59012 85076;","","","","","","","","","",""
"65319099999","2005-12-10T19:00:00","10.3166667","1.3833333","461.0","NATITINGOU, BN","FM-12","4","","58","86","","","","9","38","BKN:05 256","29.78","28.26","4.97","68","000","","0","","","","","","","","","","","","","","","","","","","","","","","","","","","","","","","","","","","","","","","","","","","","","","","","","","","","","","","","","","","","","","","","","","","","","","","","","","","","","","","","","","","","","","","","","","","SYN082AAXX  10184 65319 32958 50000 10300 20143 39571 40083 80002 333 10367 59003 85076;","","","","","","","","","",""
"65319099999","2005-12-11T01:00:00","10.3166667","1.3833333","461.0","NATITINGOU, BN","FM-12","4","","50","72","","","","9","45","BKN:05 256","29.83","28.34","4.97","59","000","","0","","","","","","","","","","","","","","","","","","","","","","","","","","","","","","","","","","","","","","","","","","","","","","","","","","","","","","","","","","","","","","","","","","","","","","","","","","","","","","","","","","","","","","","","","","","SYN082AAXX  11004 65319 32958 50000 10225 20100 39596 40102 80002 333 0//00 58010 85076;","","","","","","","","","",""
"65319099999","2005-12-11T07:00:00","10.3166667","1.3833333","461.0","NATITINGOU, BN","FM-12","4","","59","68","","","","9","73","","29.85","28.34","4.97","63","000","","0","","","","","","","","","","","","","","","","","","","","","","","","","","","","","","","","","","","","","","","","","","","","","","","","","","","","","","","","","","","","","","","","","","","","","","","","","","","","","","","","","","","","","","","","","","","SYN100AAXX  11064 65319 32958 50000 10200 20150 39597 40109 80002 333 01400 20195 50574 55096 58012 85076;","","","","","","","","","",""
"65319099999","2005-12-11T13:00:00","10.3166667","1.3833333","461.0","NATITINGOU, BN","FM-12","4","","65","93","","","","9","41","FEW:01 13 BKN:05 256","29.81","28.31","4.97","74","360","","2","","","","","","","","","","","","","","","","","","","","","","","","","","","","","","","","","","","","","","","","","","","","","","","","","","","","","","","","","","","","","","","","","","","","","","","","","","","","","","","","","","","","","","","","","","","SYN100AAXX  11124 65319 32958 73602 10337 20185 39588 40094 82802 333 0//00 58008 81613 85076 94919 95832;","","","","","","","","","",""
"65319099999","2005-12-11T19:00:00","10.3166667","1.3833333","461.0","NATITINGOU, BN","FM-12","4","","63","88","","||HZ","","9","43","BKN:05 256","29.77","28.26","3.73","71","300","","5","","","","","","","","","","","","","","","","","","","","","","","","","","","","","","","","","","","","","","","","","","","","","","","","","","","","","","","","","","","","","","","","","","","","","","","","","","","","","","","","","","","","","","","","","","","SYN088AAXX  11184 65319 31956 53004 10312 20171 39571 40081 70522 80002 333 10368 58000 85076;","","","","","","","","","",""
"65319099999","2005-12-12T01:00:00","10.3166667","1.3833333","461.0","NATITINGOU, BN","FM-12","4","","58","77","","","","9","52","BKN:05 13","29.80","28.34","6.21","65","000","","0","","","","","","","","","","","","","","","","","","","","","","","","","","","","","","","","","","","","","","","","","","","","","","","","","","","","","","","","","","","","","","","","","","","","","","","","","","","","","","","","","","","","","","","","","","","SYN088AAXX  12004 65319 33460 70000 10250 20144 39598 40092 85502 333 0//00 58002 85613 83076;","","","","","","","","","",""
"65319099999","2005-12-12T07:00:00","10.3166667","1.3833333","461.0","NATITINGOU, BN","FM-12","4","","59","70","","","","9","69","","29.86","28.35","4.97","63","000","","0","","","","","","","","","","","","","","","","","","","","","","","","","","","","","","","","","","","","","","","","","","","","","","","","","","","","","","","","","","","","","","","","","","","","","","","","","","","","","","","","","","","","","","","","","","","SYN100AAXX  12064 65319 32958 50000 10210 20151 39602 40113 80002 333 01700 20205 50524 55096 58005 85076;","","","","","","","","","",""
"65319099999","2005-12-12T19:00:00","10.3166667","1.3833333","461.0","NATITINGOU, BN","FM-12","4","","61","88","","||HZ","","9","41","SCT:03 108","29.78","28.28","3.73","70","000","","0","","","","","","","","","","","","","","","","","","","","","","","","","","","","","","","","","","","","","","","","","","","","","","","","","","","","","","","","","","","","","","","","","","","","","","","","","","","","","","","","","","","","","","","","","","","SYN094AAXX  12184 65319 31956 70000 10310 20162 39577 40086 70522 83032 333 10370 58008 83361 85076;","","","","","","","","","",""
"65319099999","2005-12-13T01:00:00","10.3166667","1.3833333","461.0","NATITINGOU, BN","FM-12","4","","50","75","","","","9","41","BKN:05 256","29.81","28.33","4.97","60","000","","0","","","","","","","","","","","","","","","","","","","","","","","","","","","","","","","","","","","","","","","","","","","","","","","","","","","","","","","","","","","","","","","","","","","","","","","","","","","","","","","","","","","","","","","","","","","SYN082AAXX  13004 65319 33958 50000 10240 20098 39592 40096 80002 333 0//00 59006 85076;","","","","","","","","","",""
"65319099999","2005-12-13T07:00:00","10.3166667","1.3833333","461.0","NATITINGOU, BN","FM-12","4","","47","71","","","","9","44","BKN:05 108","29.82","28.32","4.97","58","000","","0","","","","","","","","","","","","","","","","","","","","","","","","","","","","","","","","","","","","","","","","","","","","","","","","","","","","","","","","","","","","","","","","","","","","","","","","","","","","","","","","","","","","","","","","","","","SYN106AAXX  13064 65319 32958 70000 10215 20086 39590 40099 85032 333 01700 20202 50624 55094 59012 85361 83076;","","","","","","","","","",""
"65319099999","2005-12-13T13:00:00","10.3166667","1.3833333","461.0","NATITINGOU, BN","FM-12","4","","43","94","","","","9","17","BKN:05 256","29.79","28.30","4.97","64","060","","11","","","","","","","","","","","","","","","","","","","","","","","","","","","","","","","","","","","","","","","","","","","","","","","","","","","","","","","","","","","","","","","","","","","","","","","","","","","","","","","","","","","","","","","","","","","SYN082AAXX  13124 65319 32958 50610 10343 20060 39583 40088 80002 333 0//00 59008 85076;","","","","","","","","","",""
"65319099999","2005-12-13T19:00:00","10.3166667","1.3833333","461.0","NATITINGOU, BN","FM-12","4","","55","87","","||HZ","","9","34","BKN:05 256","29.76","28.25","3.73","67","000","","0","","","","","","","","","","","","","","","","","","","","","","","","","","","","","","","","","","","","","","","","","","","","","","","","","","","","","","","","","","","","","","","","","","","","","","","","","","","","","","","","","","","","","","","","","","","SYN088AAXX  13184 65319 31956 50000 10303 20127 39568 40077 70522 80002 333 10357 59009 85076;","","","","","","","","","",""
"65319099999","2005-12-14T01:00:00","10.3166667","1.3833333","461.0","NATITINGOU, BN","FM-12","4","","48","73","","","","9","40","BKN:05 256","29.78","28.29","6.21","59","000","","0","","","","","","","","","","","","","","","","","","","","","","","","","","","","","","","","","","","","","","","","","","","","","","","","","","","","","","","","","","","","","","","","","","","","","","","","","","","","","","","","","","","","","","","","","","","SYN082AAXX  14004 65319 33960 50000 10230 20088 39580 40085 80002 333 0//00 59012 85076;","","","","","","","","","",""
"65319099999","2005-12-14T07:00:00","10.3166667","1.3833333","461.0","NATITINGOU, BN","FM-12","4","","43","71","","","","9","37","","29.79","28.29","6.21","56","020","","5","","","","","","","","","","","","","","","","","","","","","","","","","","","","","","","","","","","","","","","","","","","","","","","","","","","","","","","","","","","","","","","","","","","","","","","","","","","","","","","","","","","","","","","","","","","SYN100AAXX  14064 65319 32960 50204 10218 20063 39579 40088 80002 333 01600 20200 50674 55093 59011 85076;","","","","","","","","","",""
"65319099999","2005-12-14T13:00:00","10.3166667","1.3833333","461.0","NATITINGOU, BN","FM-12","4","","40","93","","","","9","16","BKN:05 256","29.79","28.30","4.97","63","080","","7","","","","","","","","","","","","","","","","","","","","","","","","","","","","","","","","","","","","","","","","","","","","","","","","","","","","","","","","","","","","","","","","","","","","","","","","","","","","","","","","","","","","","","","","","","","SYN082AAXX  14124 65319 32958 50806 10340 20047 39583 40088 80002 333 0//00 58000 85076;","","","","","","","","","",""
"65319099999","2005-12-14T19:00:00","10.3166667","1.3833333","461.0","NATITINGOU, BN","FM-12","4","","57","87","","","","9","37","BKN:05 256","29.75","28.25","4.97","68","000","","0","","","","","","","","","","","","","","","","","","","","","","","","","","","","","","","","","","","","","","","","","","","","","","","","","","","","","","","","","","","","","","","","","","","","","","","","","","","","","","","","","","","","","","","","","","","SYN082AAXX  14184 65319 32958 50000 10305 20141 39567 40076 80002 333 10362 59001 85076;","","","","","","","","","",""
"65319099999","2005-12-15T01:00:00","10.3166667","1.3833333","461.0","NATITINGOU, BN","FM-12","4","","48","72","","","","9","43","BKN:05 256","29.80","28.31","4.97","58","000","","0","","","","","","","","","","","","","","","","","","","","","","","","","","","","","","","","","","","","","","","","","","","","","","","","","","","","","","","","","","","","","","","","","","","","","","","","","","","","","","","","","","","","","","","","","","","SYN082AAXX  15004 65319 33958 50000 10223 20090 39586 40092 80002 333 0//00 58006 85076;","","","","","","","","","",""
"65319099999","2005-12-15T07:00:00","10.3166667","1.3833333","461.0","NATITINGOU, BN","FM-12","4","","44","70","","","","9","40","","29.80","28.30","4.97","56","360","","5","","","","","","","","","","","","","","","","","","","","","","","","","","","","","","","","","","","","","","","","","","","","","","","","","","","","","","","","","","","","","","","","","","","","","","","","","","","","","","","","","","","","","","","","","","","SYN100AAXX  15064 65319 32958 53604 10210 20067 39583 40093 80002 333 01600 20207 50934 55098 58004 85076;","","","","","","","","","",""
"65319099999","2005-12-15T13:00:00","10.3166667","1.3833333","461.0","NATITINGOU, BN","FM-12","4","","44","94","","","","9","18","BKN:05 256","29.78","28.29","4.97","65","080","","5","","","","","","","","","","","","","","","","","","","","","","","","","","","","","","","","","","","","","","","","","","","","","","","","","","","","","","","","","","","","","","","","","","","","","","","","","","","","","","","","","","","","","","","","","","","SYN082AAXX  15124 65319 32958 50804 10342 20067 39580 40085 80002 333 0//00 59003 85076;","","","","","","","","","",""
"65319099999","2005-12-15T19:00:00","10.3166667","1.3833333","461.0","NATITINGOU, BN","FM-12","4","","56","88","","","","9","34","BKN:05 256","29.71","28.21","4.97","68","000","","0","","","","","","","","","","","","","","","","","","","","","","","","","","","","","","","","","","","","","","","","","","","","","","","","","","","","","","","","","","","","","","","","","","","","","","","","","","","","","","","","","","","","","","","","","","","SYN082AAXX  15184 65319 32958 50000 10309 20132 39553 40061 80002 333 10374 58014 85076;","","","","","","","","","",""
"65319099999","2005-12-16T01:00:00","10.3166667","1.3833333","461.0","NATITINGOU, BN","FM-12","4","","48","72","","","","9","42","BKN:05 256","29.81","28.32","6.21","58","000","","0","","","","","","","","","","","","","","","","","","","","","","","","","","","","","","","","","","","","","","","","","","","","","","","","","","","","","","","","","","","","","","","","","","","","","","","","","","","","","","","","","","","","","","","","","","","SYN082AAXX  16004 65319 33960 50000 10225 20088 39590 40096 80002 333 0//00 58004 85076;","","","","","","","","","",""
"65319099999","2005-12-16T07:00:00","10.3166667","1.3833333","461.0","NATITINGOU, BN","FM-12","4","","43","66","","","","9","43","","29.84","28.33","4.97","54","000","","0","","","","","","","","","","","","","","","","","","","","","","","","","","","","","","","","","","","","","","","","","","","","","","","","","","","","","","","","","","","","","","","","","","","","","","","","","","","","","","","","","","","","","","","","","","","SYN100AAXX  16064 65319 32958 50000 10189 20059 39592 40104 80002 333 01700 20185 50764 55100 58009 85076;","","","","","","","","","",""
"65319099999","2005-12-16T13:00:00","10.3166667","1.3833333","461.0","NATITINGOU, BN","FM-12","4","","51","96","","","","9","21","BKN:05 256","29.80","28.30","4.97","68","020","","7","","","","","","","","","","","","","","","","","","","","","","","","","","","","","","","","","","","","","","","","","","","","","","","","","","","","","","","","","","","","","","","","","","","","","","","","","","","","","","","","","","","","","","","","","","","SYN082AAXX  16124 65319 32958 50206 10357 20104 39585 40090 80002 333 0//00 58005 85076;","","","","","","","","","",""
"65319099999","2005-12-17T01:00:00","10.3166667","1.3833333","461.0","NATITINGOU, BN","FM-12","4","","49","73","","","","9","42","BKN:05 256","29.83","28.34","6.21","59","000","","0","","","","","","","","","","","","","","","","","","","","","","","","","","","","","","","","","","","","","","","","","","","","","","","","","","","","","","","","","","","","","","","","","","","","","","","","","","","","","","","","","","","","","","","","","","","SYN082AAXX  17004 65319 33960 50000 10230 20093 39597 40101 80002 333 0//00 58007 85076;","","","","","","","","","",""
"65319099999","2005-12-17T07:00:00","10.3166667","1.3833333","461.0","NATITINGOU, BN","FM-12","4","","45","68","","","","9","45","","29.85","28.34","4.97","56","000","","0","","","","","","","","","","","","","","","","","","","","","","","","","","","","","","","","","","","","","","","","","","","","","","","","","","","","","","","","","","","","","","","","","","","","","","","","","","","","","","","","","","","","","","","","","","","SYN100AAXX  17064 65319 32958 50000 10200 20075 39596 40107 80002 333 01600 20196 50734 55097 58004 85076;","","","","","","","","","",""
"65319099999","2005-12-17T13:00:00","10.3166667","1.3833333","461.0","NATITINGOU, BN","FM-12","4","","49","96","","","","9","21","BKN:05 256","29.81","28.33","4.97","67","040","","5","","","","","","","","","","","","","","","","","","","","","","","","","","","","","","","","","","","","","","","","","","","","","","","","","","","","","","","","","","","","","","","","","","","","","","","","","","","","","","","","","","","","","","","","","","","SYN082AAXX  17124 65319 32958 50404 10355 20097 39592 40096 80002 333 0//00 58007 85076;","","","","","","","","","",""
"65319099999","2005-12-17T19:00:00","10.3166667","1.3833333","461.0","NATITINGOU, BN","FM-12","4","","57","88","","||HZ","","9","35","BKN:05 256","29.80","28.29","3.73","68","000","","0","","","","","","","","","","","","","","","","","","","","","","","","","","","","","","","","","","","","","","","","","","","","","","","","","","","","","","","","","","","","","","","","","","","","","","","","","","","","","","","","","","","","","","","","","","","SYN088AAXX  17184 65319 31956 50000 10312 20140 39580 40091 70522 80002 333 10384 58012 85076;","","","","","","","","","",""
"65319099999","2005-12-18T01:00:00","10.3166667","1.3833333","461.0","NATITINGOU, BN","FM-12","4","","44","76","","","","9","32","BKN:05 256","29.82","28.34","6.21","58","000","","0","","","","","","","","","","","","","","","","","","","","","","","","","","","","","","","","","","","","","","","","","","","","","","","","","","","","","","","","","","","","","","","","","","","","","","","","","","","","","","","","","","","","","","","","","","","SYN082AAXX  18004 65319 33960 50000 10246 20066 39596 40099 80002 333 0//00 59001 85076;","","","","","","","","","",""
"65319099999","2005-12-18T07:00:00","10.3166667","1.3833333","461.0","NATITINGOU, BN","FM-12","4","","45","71","","","","9","39","","29.84","28.31","6.21","57","000","","0","","","","","","","","","","","","","","","","","","","","","","","","","","","","","","","","","","","","","","","","","","","","","","","","","","","","","","","","","","","","","","","","","","","","","","","","","","","","","","","","","","","","","","","","","","","SYN100AAXX  18064 65319 32960 70000 10218 20073 39587 40106 80006 333 01400 20214 50764 55102 59009 87276;","","","","","","","","","",""
"65319099999","2005-12-19T01:00:00","10.3166667","1.3833333","461.0","NATITINGOU, BN","FM-12","4","","41","78","","","","9","27","BKN:05 256","29.80","28.32","4.97","58","000","","0","","","","","","","","","","","","","","","","","","","","","","","","","","","","","","","","","","","","","","","","","","","","","","","","","","","","","","","","","","","","","","","","","","","","","","","","","","","","","","","","","","","","","","","","","","","SYN082AAXX  19004 65319 33958 50000 10255 20050 39590 40093 80002 333 0//00 59006 85076;","","","","","","","","","",""
"65319099999","2005-12-19T07:00:00","10.3166667","1.3833333","461.0","NATITINGOU, BN","FM-12","4","","37","73","","","","9","27","","29.82","28.32","4.97","54","020","","5","","","","","","","","","","","","","","","","","","","","","","","","","","","","","","","","","","","","","","","","","","","","","","","","","","","","","","","","","","","","","","","","","","","","","","","","","","","","","","","","","","","","","","","","","","","SYN100AAXX  19064 65319 32958 50204 10228 20029 39590 40098 80002 333 01500 20215 50904 55099 58003 85076;","","","","","","","","","",""
"65319099999","2005-12-19T13:00:00","10.3166667","1.3833333","461.0","NATITINGOU, BN","FM-12","4","","43","92","","","","9","19","BKN:05 256","29.80","28.31","4.97","64","040","","5","","","","","","","","","","","","","","","","","","","","","","","","","","","","","","","","","","","","","","","","","","","","","","","","","","","","","","","","","","","","","","","","","","","","","","","","","","","","","","","","","","","","","","","","","","","SYN082AAXX  19124 65319 32958 50404 10332 20063 39588 40092 80002 333 0//00 59004 85076;","","","","","","","","","",""
"65319099999","2005-12-19T19:00:00","10.3166667","1.3833333","461.0","NATITINGOU, BN","FM-12","4","","57","85","","||HZ","","9","38","BKN:05 256","29.78","28.27","3.73","67","000","","0","","","","","","","","","","","","","","","","","","","","","","","","","","","","","","","","","","","","","","","","","","","","","","","","","","","","","","","","","","","","","","","","","","","","","","","","","","","","","","","","","","","","","","","","","","","SYN088AAXX  19184 65319 31956 50000 10293 20137 39574 40083 70522 80002 333 10352 59004 85076;","","","","","","","","","",""
"65319099999","2005-12-20T01:00:00","10.3166667","1.3833333","461.0","NATITINGOU, BN","FM-12","4","","46","70","","","","9","43","BKN:05 256","29.82","28.32","6.21","57","000","","0","","","","","","","","","","","","","","","","","","","","","","","","","","","","","","","","","","","","","","","","","","","","","","","","","","","","","","","","","","","","","","","","","","","","","","","","","","","","","","","","","","","","","","","","","","","SYN082AAXX  20004 65319 33960 50000 10210 20079 39589 40097 80002 333 0//00 59001 85076;","","","","","","","","","",""
"65319099999","2005-12-20T07:00:00","10.3166667","1.3833333","461.0","NATITINGOU, BN","FM-12","4","","44","66","","","","9","45","","29.82","28.31","6.21","54","000","","0","","","","","","","","","","","","","","","","","","","","","","","","","","","","","","","","","","","","","","","","","","","","","","","","","","","","","","","","","","","","","","","","","","","","","","","","","","","","","","","","","","","","","","","","","","","SYN100AAXX  20064 65319 32960 50000 10190 20068 39586 40099 80002 333 01700 20183 50884 55105 59004 85076;","","","","","","","","","",""
"65319099999","2005-12-20T13:00:00","10.3166667","1.3833333","461.0","NATITINGOU, BN","FM-12","4","","37","93","","","","9","14","BKN:05 256","29.80","28.30","6.21","62","020","","9","","","","","","","","","","","","","","","","","","","","","","","","","","","","","","","","","","","","","","","","","","","","","","","","","","","","","","","","","","","","","","","","","","","","","","","","","","","","","","","","","","","","","","","","","","","SYN082AAXX  20124 65319 32960 50208 10340 20028 39583 40090 80002 333 0//00 59005 85076;","","","","","","","","","",""
"65319099999","2005-12-20T19:00:00","10.3166667","1.3833333","461.0","NATITINGOU, BN","FM-12","4","","42","87","","","","9","20","BKN:05 256","29.75","28.25","4.97","61","350","","5","","","","","","","","","","","","","","","","","","","","","","","","","","","","","","","","","","","","","","","","","","","","","","","","","","","","","","","","","","","","","","","","","","","","","","","","","","","","","","","","","","","","","","","","","","","SYN082AAXX  20184 65319 32958 53504 10307 20055 39565 40075 80002 333 10370 59009 85076;","","","","","","","","","",""
"65319099999","2005-12-21T01:00:00","10.3166667","1.3833333","461.0","NATITINGOU, BN","FM-12","4","","44","72","","","","9","37","BKN:05 256","29.78","28.28","4.97","57","000","","0","","","","","","","","","","","","","","","","","","","","","","","","","","","","","","","","","","","","","","","","","","","","","","","","","","","","","","","","","","","","","","","","","","","","","","","","","","","","","","","","","","","","","","","","","","","SYN082AAXX  21004 65319 33958 50000 10222 20066 39578 40084 80002 333 0//00 59011 85076;","","","","","","","","","",""
"65319099999","2005-12-21T13:00:00","10.3166667","1.3833333","461.0","NATITINGOU, BN","FM-12","4","","44","92","","","","9","19","BKN:05 256","29.77","28.27","4.97","64","040","","5","","","","","","","","","","","","","","","","","","","","","","","","","","","","","","","","","","","","","","","","","","","","","","","","","","","","","","","","","","","","","","","","","","","","","","","","","","","","","","","","","","","","","","","","","","","SYN082AAXX  21124 65319 32958 50404 10335 20069 39574 40080 80002 333 0//00 59009 85076;","","","","","","","","","",""
"65319099999","2005-12-21T19:00:00","10.3166667","1.3833333","461.0","NATITINGOU, BN","FM-12","4","","54","87","","","","9","33","BKN:05 256","29.76","28.25","4.97","66","000","","0","","","","","","","","","","","","","","","","","","","","","","","","","","","","","","","","","","","","","","","","","","","","","","","","","","","","","","","","","","","","","","","","","","","","","","","","","","","","","","","","","","","","","","","","","","","SYN082AAXX  21184 65319 32958 50000 10304 20122 39566 40077 80002 333 10365 58001 85076;","","","","","","","","","",""
"65319099999","2005-12-22T01:00:00","10.3166667","1.3833333","461.0","NATITINGOU, BN","FM-12","4","","45","71","","","","9","40","BKN:05 256","29.84","28.34","6.21","57","000","","0","","","","","","","","","","","","","","","","","","","","","","","","","","","","","","","","","","","","","","","","","","","","","","","","","","","","","","","","","","","","","","","","","","","","","","","","","","","","","","","","","","","","","","","","","","","SYN082AAXX  22004 65319 33960 50000 10215 20074 39598 40106 80002 333 0//00 58020 85076;","","","","","","","","","",""
"65319099999","2005-12-22T07:00:00","10.3166667","1.3833333","461.0","NATITINGOU, BN","FM-12","4","","40","71","","","","9","32","","29.85","28.34","6.21","55","000","","0","","","","","","","","","","","","","","","","","","","","","","","","","","","","","","","","","","","","","","","","","","","","","","","","","","","","","","","","","","","","","","","","","","","","","","","","","","","","","","","","","","","","","","","","","","","SYN100AAXX  22064 65319 32960 50000 10219 20042 39597 40107 80002 333 01300 20199 50684 55101 58016 85076;","","","","","","","","","",""
"65319099999","2005-12-23T13:00:00","10.3166667","1.3833333","461.0","NATITINGOU, BN","FM-12","4","","33","89","","","","9","14","BKN:07 256","29.88","28.37","4.97","59","080","","5","","","","","","","","","","","","","","","","","","","","","","","","","","","","","","","","","","","","","","","","","","","","","","","","","","","","","","","","","","","","","","","","","","","","","","","","","","","","","","","","","","","","","","","","","","","SYN082AAXX  23124 65319 32958 70804 10314 20008 39606 40117 80008 333 0//00 58018 87276;","","","","","","","","","",""
"65319099999","2005-12-23T16:00:00","10.3166667","1.3833333","461.0","NATITINGOU, BN","FM-12","4","","35","92","","","","9","13","BKN:07 256","29.82","28.29","4.97","61","020","","9","","","","","","","","","","","","","","","","","","","","","","","","","","","","","","","","","","","","","","","","","","","","","","","","","","","","","","","","","","","","","","","","","","","","","","","","","","","","","","","","","","","","","","","","","","","SYN076AAXX  23154 65319 42958 70208 10334 20018 39581 40099 80008 333 58010 87276;","","","","","","","","","",""
"65319099999","2005-12-23T19:00:00","10.3166667","1.3833333","461.0","NATITINGOU, BN","FM-12","4","","45","84","","","","9","26","BKN:07 256","29.84","28.36","4.97","62","040","","5","","","","","","","","","","","","","","","","","","","","","","","","","","","","","","","","","","","","","","","","","","","","","","","","","","","","","","","","","","","","","","","","","","","","","","","","","","","","","","","","","","","","","","","","","","","SYN082AAXX  23184 65319 32958 70404 10290 20074 39605 40104 80006 333 10340 58000 87276;","","","","","","","","","",""
"65319099999","2005-12-24T13:00:00","10.3166667","1.3833333","461.0","NATITINGOU, BN","FM-12","4","","39","90","","","","9","17","SCT:03 108","29.85","28.35","6.21","61","080","","7","","","","","","","","","","","","","","","","","","","","","","","","","","","","","","","","","","","","","","","","","","","","","","","","","","","","","","","","","","","","","","","","","","","","","","","","","","","","","","","","","","","","","","","","","","","SYN088AAXX  24124 65319 32960 70806 10320 20037 39599 40108 83032 333 0//00 59007 83361 85076;","","","","","","","","","",""
"65319099999","2005-12-24T19:00:00","10.3166667","1.3833333","461.0","NATITINGOU, BN","FM-12","4","","48","86","","","","9","27","SCT:04 108","29.83","28.32","6.21","63","000","","0","","","","","","","","","","","","","","","","","","","","","","","","","","","","","","","","","","","","","","","","","","","","","","","","","","","","","","","","","","","","","","","","","","","","","","","","","","","","","","","","","","","","","","","","","","","SYN088AAXX  24184 65319 32960 70000 10300 20091 39589 40100 84032 333 10355 59002 84361 85076;","","","","","","","","","",""
"65319099999","2005-12-25T01:00:00","10.3166667","1.3833333","461.0","NATITINGOU, BN","FM-12","4","","42","73","","","","9","33","BKN:05 256","29.89","28.39","4.97","56","040","","2","","","","","","","","","","","","","","","","","","","","","","","","","","","","","","","","","","","","","","","","","","","","","","","","","","","","","","","","","","","","","","","","","","","","","","","","","","","","","","","","","","","","","","","","","","","SYN082AAXX  25004 65319 33958 50402 10230 20057 39613 40122 80002 333 0//00 58001 85076;","","","","","","","","","",""
"65319099999","2005-12-25T07:00:00","10.3166667","1.3833333","461.0","NATITINGOU, BN","FM-12","4","","38","71","","","","9","30","BKN:05 108","29.88","28.37","4.97","54","040","","5","","","","","","","","","","","","","","","","","","","","","","","","","","","","","","","","","","","","","","","","","","","","","","","","","","","","","","","","","","","","","","","","","","","","","","","","","","","","","","","","","","","","","","","","","","","SYN106AAXX  25064 65319 32958 50404 10215 20031 39606 40117 85032 333 01500 20200 50714 55087 59002 85361 83076;","","","","","","","","","",""
"65319099999","2005-12-25T13:00:00","10.3166667","1.3833333","461.0","NATITINGOU, BN","FM-12","4","","44","90","","","","9","20","BKN:05 256","29.85","28.36","4.97","63","080","","7","","","","","","","","","","","","","","","","","","","","","","","","","","","","","","","","","","","","","","","","","","","","","","","","","","","","","","","","","","","","","","","","","","","","","","","","","","","","","","","","","","","","","","","","","","","SYN082AAXX  25124 65319 32958 50806 10325 20064 39603 40110 80002 333 0//00 58004 85076;","","","","","","","","","",""
"65319099999","2005-12-25T19:00:00","10.3166667","1.3833333","461.0","NATITINGOU, BN","FM-12","4","","49","86","","","","9","28","BKN:07 256","29.83","28.32","4.97","64","000","","0","","","","","","","","","","","","","","","","","","","","","","","","","","","","","","","","","","","","","","","","","","","","","","","","","","","","","","","","","","","","","","","","","","","","","","","","","","","","","","","","","","","","","","","","","","","SYN082AAXX  25184 65319 32958 70000 10299 20092 39590 40101 80006 333 10354 58001 87276;","","","","","","","","","",""
"65319099999","2005-12-26T01:00:00","10.3166667","1.3833333","461.0","NATITINGOU, BN","FM-12","4","","40","75","","","","9","28","BKN:05 256","29.89","28.39","6.21","56","040","","5","","","","","","","","","","","","","","","","","","","","","","","","","","","","","","","","","","","","","","","","","","","","","","","","","","","","","","","","","","","","","","","","","","","","","","","","","","","","","","","","","","","","","","","","","","","SYN082AAXX  26004 65319 33960 50404 10241 20046 39615 40122 80002 333 0//00 58012 85076;","","","","","","","","","",""
"65319099999","2005-12-26T07:00:00","10.3166667","1.3833333","461.0","NATITINGOU, BN","FM-12","4","","37","70","","","","9","29","","29.88","28.37","6.21","53","020","","5","","","","","","","","","","","","","","","","","","","","","","","","","","","","","","","","","","","","","","","","","","","","","","","","","","","","","","","","","","","","","","","","","","","","","","","","","","","","","","","","","","","","","","","","","","","SYN100AAXX  26064 65319 32960 50204 10212 20026 39608 40120 80002 333 01500 20199 50754 55091 58002 85076;","","","","","","","","","",""
"65319099999","2005-12-26T13:00:00","10.3166667","1.3833333","461.0","NATITINGOU, BN","FM-12","4","","41","90","","","","9","17","BKN:05 256","29.83","28.34","6.21","62","040","","5","","","","","","","","","","","","","","","","","","","","","","","","","","","","","","","","","","","","","","","","","","","","","","","","","","","","","","","","","","","","","","","","","","","","","","","","","","","","","","","","","","","","","","","","","","","SYN082AAXX  26124 65319 32960 50404 10325 20048 39596 40102 80002 333 0//00 59007 85076;","","","","","","","","","",""
"65319099999","2005-12-26T19:00:00","10.3166667","1.3833333","461.0","NATITINGOU, BN","FM-12","4","","54","87","","","","9","33","BKN:05 256","29.81","28.31","6.21","66","000","","0","","","","","","","","","","","","","","","","","","","","","","","","","","","","","","","","","","","","","","","","","","","","","","","","","","","","","","","","","","","","","","","","","","","","","","","","","","","","","","","","","","","","","","","","","","","SYN082AAXX  26184 65319 32960 50000 10303 20125 39586 40096 80002 333 10360 59004 85076;","","","","","","","","","",""
"65319099999","2005-12-27T01:00:00","10.3166667","1.3833333","461.0","NATITINGOU, BN","FM-12","4","","45","74","","","","9","35","BKN:05 256","29.87","28.37","4.97","58","000","","0","","","","","","","","","","","","","","","","","","","","","","","","","","","","","","","","","","","","","","","","","","","","","","","","","","","","","","","","","","","","","","","","","","","","","","","","","","","","","","","","","","","","","","","","","","","SYN082AAXX  27004 65319 33958 50000 10235 20070 39607 40114 80002 333 0//00 59008 85076;","","","","","","","","","",""
"65319099999","2005-12-27T07:00:00","10.3166667","1.3833333","461.0","NATITINGOU, BN","FM-12","4","","42","70","","","","9","37","","29.85","28.35","6.21","55","360","","5","","","","","","","","","","","","","","","","","","","","","","","","","","","","","","","","","","","","","","","","","","","","","","","","","","","","","","","","","","","","","","","","","","","","","","","","","","","","","","","","","","","","","","","","","","","SYN100AAXX  27064 65319 32960 53604 10210 20058 39599 40110 80002 333 01500 20205 50894 55098 59009 85076;","","","","","","","","","",""
"65319099999","2005-12-27T13:00:00","10.3166667","1.3833333","461.0","NATITINGOU, BN","FM-12","4","","45","92","","","","9","19","BKN:05 256","29.85","28.35","4.97","64","080","","5","","","","","","","","","","","","","","","","","","","","","","","","","","","","","","","","","","","","","","","","","","","","","","","","","","","","","","","","","","","","","","","","","","","","","","","","","","","","","","","","","","","","","","","","","","","SYN082AAXX  27124 65319 32958 50804 10336 20070 39601 40107 80002 333 0//00 58005 85076;","","","","","","","","","",""
"65319099999","2005-12-28T07:00:00","10.3166667","1.3833333","461.0","NATITINGOU, BN","FM-12","4","","44","68","","","","9","42","","29.82","28.31","4.97","55","000","","0","","","","","","","","","","","","","","","","","","","","","","","","","","","","","","","","","","","","","","","","","","","","","","","","","","","","","","","","","","","","","","","","","","","","","","","","","","","","","","","","","","","","","","","","","","","SYN100AAXX  28064 65319 32958 50000 10202 20068 39587 40098 80002 333 01600 20199 50624 55096 59012 85076;","","","","","","","","","",""
"65319099999","2005-12-28T13:00:00","10.3166667","1.3833333","461.0","NATITINGOU, BN","FM-12","4","","44","90","","||HZ","","9","20","BKN:05 256","29.80","28.31","3.73","63","080","","7","","","","","","","","","","","","","","","","","","","","","","","","","","","","","","","","","","","","","","","","","","","","","","","","","","","","","","","","","","","","","","","","","","","","","","","","","","","","","","","","","","","","","","","","","","","SYN088AAXX  28124 65319 31956 50806 10324 20066 39586 40092 70522 80002 333 0//00 59015 85076;","","","","","","","","","",""
"65319099999","2005-12-28T19:00:00","10.3166667","1.3833333","461.0","NATITINGOU, BN","FM-12","4","","65","85","","","","9","51","BKN:05 256","29.76","28.25","3.73","72","000","","0","","","","","","","","","","","","","","","","","","","","","","","","","","","","","","","","","","","","","","","","","","","","","","","","","","","","","","","","","","","","","","","","","","","","","","","","","","","","","","","","","","","","","","","","","","","SYN082AAXX  28184 65319 32956 50000 10296 20184 39567 40077 80002 333 10360 59009 85076;","","","","","","","","","",""
"65319099999","2005-12-29T01:00:00","10.3166667","1.3833333","461.0","NATITINGOU, BN","FM-12","4","","48","72","","","","9","42","BKN:05 256","29.80","28.30","4.97","58","020","","2","","","","","","","","","","","","","","","","","","","","","","","","","","","","","","","","","","","","","","","","","","","","","","","","","","","","","","","","","","","","","","","","","","","","","","","","","","","","","","","","","","","","","","","","","","","SYN082AAXX  29004 65319 33958 50202 10225 20089 39584 40091 80002 333 0//00 59013 85076;","","","","","","","","","",""
"65319099999","2005-12-29T07:00:00","10.3166667","1.3833333","461.0","NATITINGOU, BN","FM-12","4","","42","69","","","","9","38","","29.80","28.30","4.97","55","020","","5","","","","","","","","","","","","","","","","","","","","","","","","","","","","","","","","","","","","","","","","","","","","","","","","","","","","","","","","","","","","","","","","","","","","","","","","","","","","","","","","","","","","","","","","","","","SYN100AAXX  29064 65319 32958 50204 10207 20057 39582 40093 80002 333 01600 20200 50804 55093 59005 85076;","","","","","","","","","",""
"65319099999","2005-12-29T13:00:00","10.3166667","1.3833333","461.0","NATITINGOU, BN","FM-12","4","","47","92","","","","9","21","BKN:05 256","29.74","28.31","4.97","65","000","","0","","","","","","","","","","","","","","","","","","","","","","","","","","","","","","","","","","","","","","","","","","","","","","","","","","","","","","","","","","","","","","","","","","","","","","","","","","","","","","","","","","","","","","","","","","","SYN082AAXX  29124 65319 32958 50000 10335 20083 39586 40071 80006 333 0//00 58000 85076;","","","","","","","","","",""
"65319099999","2005-12-29T19:00:00","10.3166667","1.3833333","461.0","NATITINGOU, BN","FM-12","4","","58","87","","","","9","38","BKN:05 256","29.72","28.21","4.97","68","000","","0","","","","","","","","","","","","","","","","","","","","","","","","","","","","","","","","","","","","","","","","","","","","","","","","","","","","","","","","","","","","","","","","","","","","","","","","","","","","","","","","","","","","","","","","","","","SYN082AAXX  29184 65319 32958 50000 10303 20145 39554 40063 80002 333 10370 59003 85076;","","","","","","","","","",""
"65319099999","2005-12-30T01:00:00","10.3166667","1.3833333","461.0","NATITINGOU, BN","FM-12","4","","49","72","","","","9","44","","29.82","28.32","6.21","59","000","","0","","","","","","","","","","","","","","","","","","","","","","","","","","","","","","","","","","","","","","","","","","","","","","","","","","","","","","","","","","","","","","","","","","","","","","","","","","","","","","","","","","","","","","","","","","","SYN076AAXX  30004 65319 33960 50000 10222 20094 39591 40098 80002 333 0//00 58007;","","","","","","","","","",""
"65319099999","2005-12-30T07:00:00","10.3166667","1.3833333","461.0","NATITINGOU, BN","FM-12","4","","46","68","","","","9","46","","29.81","28.30","6.21","56","020","","5","","","","","","","","","","","","","","","","","","","","","","","","","","","","","","","","","","","","","","","","","","","","","","","","","","","","","","","","","","","","","","","","","","","","","","","","","","","","","","","","","","","","","","","","","","","SYN100AAXX  30064 65319 32960 50204 10200 20080 39584 40095 80002 333 01800 20194 50764 55088 58002 85076;","","","","","","","","","",""
"65319099999","2005-12-30T13:00:00","10.3166667","1.3833333","461.0","NATITINGOU, BN","FM-12","4","","44","95","","","","9","17","BKN:05 256","29.79","28.30","4.97","65","040","","7","","","","","","","","","","","","","","","","","","","","","","","","","","","","","","","","","","","","","","","","","","","","","","","","","","","","","","","","","","","","","","","","","","","","","","","","","","","","","","","","","","","","","","","","","","","SYN082AAXX  30124 65319 32958 50406 10350 20068 39584 40089 80002 333 0//00 59002 85076;","","","","","","","","","",""
"65319099999","2005-12-30T19:00:00","10.3166667","1.3833333","461.0","NATITINGOU, BN","FM-12","4","","49","88","","","","9","26","BKN:05 256","29.78","28.27","4.97","65","360","","5","","","","","","","","","","","","","","","","","","","","","","","","","","","","","","","","","","","","","","","","","","","","","","","","","","","","","","","","","","","","","","","","","","","","","","","","","","","","","","","","","","","","","","","","","","","SYN082AAXX  30184 65319 32958 53604 10310 20095 39574 40084 80002 333 10365 58002 85076;","","","","","","","","","",""
"65319099999","2005-12-31T01:00:00","10.3166667","1.3833333","461.0","NATITINGOU, BN","FM-12","4","","37","77","","","","9","23","BKN:05 256","29.80","28.32","4.97","56","360","","9","","","","","","","","","","","","","","","","","","","","","","","","","","","","","","","","","","","","","","","","","","","","","","","","","","","","","","","","","","","","","","","","","","","","","","","","","","","","","","","","","","","","","","","","","","","SYN082AAXX  31004 65319 33958 53608 10252 20027 39589 40092 80002 333 0//00 59002 85076;","","","","","","","","","",""
"65319099999","2005-12-31T07:00:00","10.3166667","1.3833333","461.0","NATITINGOU, BN","FM-12","4","","40","68","","","","9","36","","29.83","28.32","4.97","53","000","","0","","","","","","","","","","","","","","","","","","","","","","","","","","","","","","","","","","","","","","","","","","","","","","","","","","","","","","","","","","","","","","","","","","","","","","","","","","","","","","","","","","","","","","","","","","","SYN100AAXX  31064 65319 32958 50000 10202 20046 39591 40102 80002 333 01700 20198 50644 55095 58007 85076;","","","","","","","","","",""
"65319099999","2005-12-31T13:00:00","10.3166667","1.3833333","461.0","NATITINGOU, BN","FM-12","4","","39","90","","","","9","16","BKN:05 256","29.80","28.31","6.21","61","040","","5","","","","","","","","","","","","","","","","","","","","","","","","","","","","","","","","","","","","","","","","","","","","","","","","","","","","","","","","","","","","","","","","","","","","","","","","","","","","","","","","","","","","","","","","","","","SYN082AAXX  31124 65319 32960 50404 10325 20038 39587 40092 80002 333 0//00 58003 85076;","","","","","","","","","",""
