"STATION","DATE","LATITUDE","LONGITUDE","ELEVATION","NAME","REPORT_TYPE","SOURCE","HourlyAltimeterSetting","HourlyDewPointTemperature","HourlyDryBulbTemperature","HourlyPrecipitation","HourlyPresentWeatherType","HourlyPressureChange","HourlyPressureTendency","HourlyRelativeHumidity","HourlySkyConditions","HourlySeaLevelPressure","HourlyStationPressure","HourlyVisibility","HourlyWetBulbTemperature","HourlyWindDirection","HourlyWindGustSpeed","HourlyWindSpeed","Sunrise","Sunset","DailyAverageDewPointTemperature","DailyAverageDryBulbTemperature","DailyAverageRelativeHumidity","DailyAverageSeaLevelPressure","DailyAverageStationPressure","DailyAverageWetBulbTemperature","DailyAverageWindSpeed","DailyCoolingDegreeDays","DailyDepartureFromNormalAverageTemperature","DailyHeatingDegreeDays","DailyMaximumDryBulbTemperature","DailyMinimumDryBulbTemperature","DailyPeakWindDirection","DailyPeakWindSpeed","DailyPrecipitation","DailySnowDepth","DailySnowfall","DailySustainedWindDirection","DailySustainedWindSpeed","DailyWeather","MonthlyAverageRH","MonthlyDaysWithGT001Precip","MonthlyDaysWithGT010Precip","MonthlyDaysWithGT32Temp","MonthlyDaysWithGT90Temp","MonthlyDaysWithLT0Temp","MonthlyDaysWithLT32Temp","MonthlyDepartureFromNormalAverageTemperature","MonthlyDepartureFromNormalCoolingDegreeDays","MonthlyDepartureFromNormalHeatingDegreeDays","MonthlyDepartureFromNormalMaximumTemperature","MonthlyDepartureFromNormalMinimumTemperature","MonthlyDepartureFromNormalPrecipitation","MonthlyDewpointTemperature","MonthlyGreatestPrecip","MonthlyGreatestPrecipDate","MonthlyGreatestSnowDepth","MonthlyGreatestSnowDepthDate","MonthlyGreatestSnowfall","MonthlyGreatestSnowfallDate","MonthlyMaxSeaLevelPressureValue","MonthlyMaxSeaLevelPressureValueDate","MonthlyMaxSeaLevelPressureValueTime","MonthlyMaximumTemperature","MonthlyMeanTemperature","MonthlyMinSeaLevelPressureValue","MonthlyMinSeaLevelPressureValueDate","MonthlyMinSeaLevelPressureValueTime","MonthlyMinimumTemperature","MonthlySeaLevelPressure","MonthlyStationPressure","MonthlyTotalLiquidPrecipitation","MonthlyTotalSnowfall","MonthlyWetBulb","AWND","CDSD","CLDD","DSNW","HDSD","HTDD","DYTS","DYHF","NormalsCoolingDegreeDay","NormalsHeatingDegreeDay","ShortDurationEndDate005","ShortDurationEndDate010","ShortDurationEndDate015","ShortDurationEndDate020","ShortDurationEndDate030","ShortDurationEndDate045","ShortDurationEndDate060","ShortDurationEndDate080","ShortDurationEndDate100","ShortDurationEndDate120","ShortDurationEndDate150","ShortDurationEndDate180","ShortDurationPrecipitationValue005","ShortDurationPrecipitationValue010","ShortDurationPrecipitationValue015","ShortDurationPrecipitationValue020","ShortDurationPrecipitationValue030","ShortDurationPrecipitationValue045","ShortDurationPrecipitationValue060","ShortDurationPrecipitationValue080","ShortDurationPrecipitationValue100","ShortDurationPrecipitationValue120","ShortDurationPrecipitationValue150","ShortDurationPrecipitationValue180","REM","BackupDirection","BackupDistance","BackupDistanceUnit","BackupElements","BackupElevation","BackupEquipment","BackupLatitude","BackupLongitude","BackupName","WindEquipmentChangeDate"
"68558099999","2005-01-08T14:00:00","-30.9333333","27.6","1819.0","BARKLY EAST, SF","FM-12","4","","42","86","","","+0.05","8","21","","","24.19","18.64","60","320","23","13","","","","","","","","","","","","","","","","","","","","","","","","","","","","","","","","","","","","","","","","","","","","","","","","","","","","","","","","","","","","","","","","","","","","","","","","","","","","","","","","","","","","","","","","","","","SYN098AAXX  08124 68558 32980 43211 10300 20056 38190 48489 58017 83201 333 1//// 20205 9//// 555 91020;","","","","","","","","","",""
"68558099999","2005-01-08T20:00:00","-30.9333333","27.6","1819.0","BARKLY EAST, SF","FM-12","4","","57","63","","","-0.04","3","81","","","24.24","18.64","59","140","25","5","","","","","","","","","","","","","","","","","","","","","","","","","","","","","","","","","","","","","","","","","","","","","","","","","","","","","","","","","","","","","","","","","","","","","","","","","","","","","","","","","","","","","","","","","","","SYN098AAXX  08184 68558 32980 71404 10170 20137 38209 48523 53015 84221 333 10320 2//// 9//// 555 91022;","","","","","","","","","",""
"68558099999","2005-01-09T08:00:00","-30.9333333","27.6","1819.0","BARKLY EAST, SF","FM-12","4","","49","59","","","-0.04","3","70","","","24.27","18.64","53","180","26","7","","","","","","","","","","","","","","","","","","","","","","","","","","","","","","","","","","","","","","","","","","","","","","","","","","","","","","","","","","","","","","","","","","","","","","","","","","","","","","","","","","","","","","","","","","","SYN098AAXX  09064 68558 32980 61806 10150 20096 38220 48536 53012 85202 333 20115 9//// 555 10320 91023;","","","","","","","","","",""
"68558099999","2005-01-10T08:00:00","-30.9333333","27.6","1819.0","BARKLY EAST, SF","FM-12","4","","47","54","","","-0.02","3","78","","","24.31","18.64","50","000","29","0","","","","","","","","","","","","","","","","","","","","","","","","","","","","","","","","","","","","","","","","","","","","","","","","","","","","","","","","","","","","","","","","","","","","","","","","","","","","","","","","","","","","","","","","","","","SYN098AAXX  10064 68558 32980 20000 10120 20083 38232 48551 53008 81101 333 20080 9//// 555 10235 91025;","","","","","","","","","",""
"68558099999","2005-01-10T14:00:00","-30.9333333","27.6","1819.0","BARKLY EAST, SF","FM-12","4","","49","78","","","+0.05","8","36","","","24.26","18.64","60","320","26","5","","","","","","","","","","","","","","","","","","","","","","","","","","","","","","","","","","","","","","","","","","","","","","","","","","","","","","","","","","","","","","","","","","","","","","","","","","","","","","","","","","","","","","","","","","","SYN098AAXX  10124 68558 32980 53204 10255 20095 38215 48521 58016 83101 333 1//// 20125 9//// 555 91023;","","","","","","","","","",""
"68558099999","2005-01-10T20:00:00","-30.9333333","27.6","1819.0","BARKLY EAST, SF","FM-12","4","","46","74","","","+0.01","8","36","","","24.19","18.64","58","000","23","0","","","","","","","","","","","","","","","","","","","","","","","","","","","","","","","","","","","","","","","","","","","","","","","","","","","","","","","","","","","","","","","","","","","","","","","","","","","","","","","","","","","","","","","","","","","SYN098AAXX  10184 68558 32980 20000 10235 20077 38192 48499 58002 82100 333 10295 2//// 9//// 555 91020;","","","","","","","","","",""
"68558099999","2005-01-11T08:00:00","-30.9333333","27.6","1819.0","BARKLY EAST, SF","FM-12","4","","51","69","","","-0.02","3","52","","","24.23","18.64","58","320","25","13","","","","","","","","","","","","","","","","","","","","","","","","","","","","","","","","","","","","","","","","","","","","","","","","","","","","","","","","","","","","","","","","","","","","","","","","","","","","","","","","","","","","","","","","","","","SYN098AAXX  11064 68558 32980 83211 10205 20104 38206 48516 53007 85201 333 20125 9//// 555 10295 91022;","","","","","","","","","",""
"68558099999","2005-01-11T14:00:00","-30.9333333","27.6","1819.0","BARKLY EAST, SF","FM-12","4","","56","63","","","-0.02","3","77","","","24.26","18.64","59","050","26","15","","","","","","","","","","","","","","","","","","","","","","","","","","","","","","","","","","","","","","","","","","","","","","","","","","","","","","","","","","","","","","","","","","","","","","","","","","","","","","","","","","","","","","","","","","","SYN098AAXX  11124 68558 32980 80513 10175 20134 38215 48529 53006 84222 333 1//// 20165 9//// 555 91023;","","","","","","","","","",""
"68558099999","2005-01-11T20:00:00","-30.9333333","27.6","1819.0","BARKLY EAST, SF","FM-12","4","","53","56","","","-0.07","3","89","","","24.29","12.43","54","000","28","0","","","","","","","","","","","","","","","","","","","","","","","","","","","","","","","","","","","","","","","","","","","","","","","","","","","","","","","","","","","","","","","","","","","","","","","","","","","","","","","","","","","","","","","","","","","SYN098AAXX  11184 68558 32770 80000 10135 20117 38227 48545 53024 8422/ 333 10235 2//// 9//// 555 91024;","","","","","","","","","",""
"68558099999","2005-01-12T14:00:00","-30.9333333","27.6","1819.0","BARKLY EAST, SF","FM-12","4","","55","72","","","+0.01","8","54","","","24.26","18.64","61","320","26","7","","","","","","","","","","","","","","","","","","","","","","","","","","","","","","","","","","","","","","","","","","","","","","","","","","","","","","","","","","","","","","","","","","","","","","","","","","","","","","","","","","","","","","","","","","","SYN098AAXX  12124 68558 32980 63206 10225 20128 38217 48526 58005 83222 333 1//// 20115 9//// 555 91023;","","","","","","","","","",""
"68558099999","2005-01-12T20:00:00","-30.9333333","27.6","1819.0","BARKLY EAST, SF","FM-12","4","","53","58","","","-0.02","3","84","","","24.30","18.64","55","000","28","0","","","","","","","","","","","","","","","","","","","","","","","","","","","","","","","","","","","","","","","","","","","","","","","","","","","","","","","","","","","","","","","","","","","","","","","","","","","","","","","","","","","","","","","","","","","SYN098AAXX  12184 68558 32980 80000 10145 20118 38229 48546 53008 84221 333 10245 2//// 9//// 555 91024;","","","","","","","","","",""
"68558099999","2005-01-13T08:00:00","-30.9333333","27.6","1819.0","BARKLY EAST, SF","FM-12","4","","52","58","","","-0.02","3","79","","","24.30","18.64","55","000","28","0","","","","","","","","","","","","","","","","","","","","","","","","","","","","","","","","","","","","","","","","","","","","","","","","","","","","","","","","","","","","","","","","","","","","","","","","","","","","","","","","","","","","","","","","","","","SYN110AAXX  13064 68558 12980 80000 10145 20109 38229 48546 53008 60024 83101 333 20130 9//// 555 10245 20020 91024;","","","","","","","","","",""
"68558099999","2005-01-13T14:00:00","-30.9333333","27.6","1819.0","BARKLY EAST, SF","FM-12","4","","54","72","","","+0.02","8","52","","","24.27","18.64","61","050","26","11","","","","","","","","","","","","","","","","","","","","","","","","","","","","","","","","","","","","","","","","","","","","","","","","","","","","","","","","","","","","","","","","","","","","","","","","","","","","","","","","","","","","","","","","","","","SYN098AAXX  13124 68558 32980 60510 10225 20120 38220 48529 58008 84201 333 1//// 20150 9//// 555 91023;","","","","","","","","","",""
"68558099999","2005-01-13T20:00:00","-30.9333333","27.6","1819.0","BARKLY EAST, SF","FM-12","4","","52","64","","","-0.06","3","64","","","24.29","12.43","57","000","28","0","","","","","","","","","","","","","","","","","","","","","","","","","","","","","","","","","","","","","","","","","","","","","","","","","","","","","","","","","","","","","","","","","","","","","","","","","","","","","","","","","","","","","","","","","","","SYN098AAXX  13184 68558 32770 80000 10180 20111 38224 48538 53020 84222 333 10235 2//// 9//// 555 91024;","","","","","","","","","",""
"68558099999","2005-01-14T08:00:00","-30.9333333","27.6","1819.0","BARKLY EAST, SF","FM-12","4","","52","58","","","-0.02","3","79","","","24.25","18.64","55","000","26","0","","","","","","","","","","","","","","","","","","","","","","","","","","","","","","","","","","","","","","","","","","","","","","","","","","","","","","","","","","","","","","","","","","","","","","","","","","","","","","","","","","","","","","","","","","","SYN110AAXX  14064 68558 12980 50000 10145 20109 38213 48530 53006 69974 83101 333 20110 9//// 555 10235 20007 91023;","","","","","","","","","",""
"68558099999","2005-01-14T14:00:00","-30.9333333","27.6","1819.0","BARKLY EAST, SF","FM-12","4","","53","75","","","+0.02","8","46","","","24.21","18.64","61","320","24","13","","","","","","","","","","","","","","","","","","","","","","","","","","","","","","","","","","","","","","","","","","","","","","","","","","","","","","","","","","","","","","","","","","","","","","","","","","","","","","","","","","","","","","","","","","","SYN098AAXX  14124 68558 32980 53211 10240 20118 38198 48504 58008 84201 333 1//// 20130 9//// 555 91021;","","","","","","","","","",""
"68558099999","2005-01-14T20:00:00","-30.9333333","27.6","1819.0","BARKLY EAST, SF","FM-12","4","","61","61","","||RA","-0.11","2","97","","","","1.24","","240","","13","","","","","","","","","","","","","","","","","","","","","","","","","","","","","","","","","","","","","","","","","","","","","","","","","","","","","","","","","","","","","","","","","","","","","","","","","","","","","","","","","","","","","","","","","","","SYN104AAXX  14184 68558 31320 82411 10163 20159 39142 4//// 52036 76198 885// 333 10275 2//// 9//// 555 9////;","","","","","","","","","",""
"68558099999","2005-01-15T08:00:00","-30.9333333","27.6","1819.0","BARKLY EAST, SF","FM-12","4","","50","56","","","-0.01","3","79","CLR:00","","24.21","18.64","53","000","24","0","","","","","","","","","","","","","","","","","","","","","","","","","","","","","","","","","","","","","","","","","","","","","","","","","","","","","","","","","","","","","","","","","","","","","","","","","","","","","","","","","","","","","","","","","","","SYN104AAXX  15064 68558 12980 00000 10135 20099 38200 48518 53005 60074 333 20085 9//// 555 10260 20065 91021;","","","","","","","","","",""
"68558099999","2005-01-16T08:00:00","-30.9333333","27.6","1819.0","BARKLY EAST, SF","FM-12","4","","48","53","","","-0.03","3","83","","","24.29","18.64","50","230","28","11","","","","","","","","","","","","","","","","","","","","","","","","","","","","","","","","","","","","","","","","","","","","","","","","","","","","","","","","","","","","","","","","","","","","","","","","","","","","","","","","","","","","","","","","","","","SYN098AAXX  16064 68558 32980 52310 10115 20087 38226 48546 53010 84201 333 20135 9//// 555 10230 91024;","","","","","","","","","",""
"68558099999","2005-01-16T14:00:00","-30.9333333","27.6","1819.0","BARKLY EAST, SF","FM-12","4","","37","76","","","+0.02","8","24","","","24.26","18.64","55","320","26","7","","","","","","","","","","","","","","","","","","","","","","","","","","","","","","","","","","","","","","","","","","","","","","","","","","","","","","","","","","","","","","","","","","","","","","","","","","","","","","","","","","","","","","","","","","","SYN098AAXX  16124 68558 32980 13206 10245 20028 38216 48523 58006 81100 333 1//// 20110 9//// 555 91023;","","","","","","","","","",""
"68558099999","2005-01-16T15:00:00","-30.9333333","27.6","1819.0","BARKLY EAST, SF","FM-12","4","","37","76","","","+0.02","8","24","FEW:01","","24.26","18.64","55","320","26","7","","","","","","","","","","","","","","","","","","","","","","","","","","","","","","","","","","","","","","","","","","","","","","","","","","","","","","","","","","","","","","","","","","","","","","","","","","","","","","","","","","","","","","","","","","","SYN098AAXX  16134 68558 32980 13206 10245 20028 38216 48523 58006 81100 333 1//// 201-- 81/// 555 91023;","","","","","","","","","",""
"68558099999","2005-01-16T20:00:00","-30.9333333","27.6","1819.0","BARKLY EAST, SF","FM-12","4","","51","61","","","-0.04","3","71","","","24.27","18.64","55","180","26","7","","","","","","","","","","","","","","","","","","","","","","","","","","","","","","","","","","","","","","","","","","","","","","","","","","","","","","","","","","","","","","","","","","","","","","","","","","","","","","","","","","","","","","","","","","","SYN098AAXX  16184 68558 32980 11806 10160 20108 38219 48534 53013 81100 333 10255 2//// 9//// 555 91023;","","","","","","","","","",""
"68558099999","2005-01-17T14:00:00","-30.9333333","27.6","1819.0","BARKLY EAST, SF","FM-12","4","","49","78","","","+0.02","8","36","","","24.28","18.64","60","050","28","7","","","","","","","","","","","","","","","","","","","","","","","","","","","","","","","","","","","","","","","","","","","","","","","","","","","","","","","","","","","","","","","","","","","","","","","","","","","","","","","","","","","","","","","","","","","SYN098AAXX  17124 68558 32980 40506 10255 20095 38222 48528 58006 83220 333 1//// 20110 9//// 555 91024;","","","","","","","","","",""
"68558099999","2005-01-17T20:00:00","-30.9333333","27.6","1819.0","BARKLY EAST, SF","FM-12","4","","54","57","","","-0.12","3","89","","","24.36","12.43","55","140","31","7","","","","","","","","","","","","","","","","","","","","","","","","","","","","","","","","","","","","","","","","","","","","","","","","","","","","","","","","","","","","","","","","","","","","","","","","","","","","","","","","","","","","","","","","","","","SYN098AAXX  17184 68558 32770 81406 10140 20122 38249 48567 53041 85222 333 10270 2//// 9//// 555 91027;","","","","","","","","","",""
"68558099999","2005-01-18T08:00:00","-30.9333333","27.6","1819.0","BARKLY EAST, SF","FM-12","4","","53","58","","","-0.03","3","84","","","24.37","18.64","55","000","31","0","","","","","","","","","","","","","","","","","","","","","","","","","","","","","","","","","","","","","","","","","","","","","","","","","","","","","","","","","","","","","","","","","","","","","","","","","","","","","","","","","","","","","","","","","","","SYN110AAXX  18064 68558 12980 60000 10145 20118 38252 48569 53009 60104 84201 333 20130 9//// 555 10270 20100 91027;","","","","","","","","","",""
"68558099999","2005-01-18T14:00:00","-30.9333333","27.6","1819.0","BARKLY EAST, SF","FM-12","4","","54","71","","","+0.01","8","56","","","24.35","18.64","61","140","31","11","","","","","","","","","","","","","","","","","","","","","","","","","","","","","","","","","","","","","","","","","","","","","","","","","","","","","","","","","","","","","","","","","","","","","","","","","","","","","","","","","","","","","","","","","","","SYN098AAXX  18124 68558 32980 61410 10215 20124 38246 48557 58003 84201 333 1//// 20145 9//// 555 91027;","","","","","","","","","",""
"68558099999","2005-01-18T20:00:00","-30.9333333","27.6","1819.0","BARKLY EAST, SF","FM-12","4","","52","64","","","-0.02","3","64","","","24.35","18.64","57","140","30","5","","","","","","","","","","","","","","","","","","","","","","","","","","","","","","","","","","","","","","","","","","","","","","","","","","","","","","","","","","","","","","","","","","","","","","","","","","","","","","","","","","","","","","","","","","","SYN098AAXX  18184 68558 32980 41404 10180 20111 38245 48559 53007 83201 333 10245 2//// 9//// 555 91026;","","","","","","","","","",""
"68558099999","2005-01-18T21:00:00","-30.9333333","27.6","1819.0","BARKLY EAST, SF","FM-12","4","","52","64","","","","","64","","","24.35","18.64","57","140","","9","","","","","","","","","","","","","","","","","","","","","","","","","","","","","","","","","","","","","","","","","","","","","","","","","","","","","","","","","","","","","","","","","","","","","","","","","","","","","","","","","","","","","","","","","","","SYN098AAXX  1819/ 68558 32980 41404 10180 20111 38245 4 53007 559 83201 333 10245 2//// 9//// 555 91026;","","","","","","","","","",""
"68558099999","2005-01-19T08:00:00","-30.9333333","27.6","1819.0","BARKLY EAST, SF","FM-12","4","","50","54","","","-0.01","3","88","CLR:00","","24.33","18.64","52","000","30","0","","","","","","","","","","","","","","","","","","","","","","","","","","","","","","","","","","","","","","","","","","","","","","","","","","","","","","","","","","","","","","","","","","","","","","","","","","","","","","","","","","","","","","","","","","","SYN092AAXX  19064 68558 32980 00000 10120 20100 38240 48559 53005 333 20105 9//// 555 10245 91026;","","","","","","","","","",""
"68558099999","2005-01-19T14:00:00","-30.9333333","27.6","1819.0","BARKLY EAST, SF","FM-12","4","","54","77","","","+0.04","8","45","","","24.29","18.64","63","320","28","13","","","","","","","","","","","","","","","","","","","","","","","","","","","","","","","","","","","","","","","","","","","","","","","","","","","","","","","","","","","","","","","","","","","","","","","","","","","","","","","","","","","","","","","","","","","SYN098AAXX  19124 68558 32980 33211 10250 20121 38225 48532 58013 83200 333 1//// 20120 9//// 555 91024;","","","","","","","","","",""
"68558099999","2005-01-19T20:00:00","-30.9333333","27.6","1819.0","BARKLY EAST, SF","FM-12","4","","56","65","","","-0.02","3","73","","","24.25","18.64","59","000","26","0","","","","","","","","","","","","","","","","","","","","","","","","","","","","","","","","","","","","","","","","","","","","","","","","","","","","","","","","","","","","","","","","","","","","","","","","","","","","","","","","","","","","","","","","","","","SYN098AAXX  19184 68558 32980 30000 10185 20136 38213 48526 53008 82101 333 10270 2//// 9//// 555 91023;","","","","","","","","","",""
"68558099999","2005-01-20T08:00:00","-30.9333333","27.6","1819.0","BARKLY EAST, SF","FM-12","4","","56","59","","","-0.01","3","89","","","24.20","18.64","57","000","24","0","","","","","","","","","","","","","","","","","","","","","","","","","","","","","","","","","","","","","","","","","","","","","","","","","","","","","","","","","","","","","","","","","","","","","","","","","","","","","","","","","","","","","","","","","","","SYN098AAXX  20064 68558 32980 80000 10150 20132 38196 48512 53002 84101 333 20120 9//// 555 10270 91021;","","","","","","","","","",""
"68558099999","2005-01-20T14:00:00","-30.9333333","27.6","1819.0","BARKLY EAST, SF","FM-12","4","","59","62","","||DZ","+0.01","8","90","","","24.17","12.43","60","320","22","7","","","","","","","","","","","","","","","","","","","","","","","","","","","","","","","","","","","","","","","","","","","","","","","","","","","","","","","","","","","","","","","","","","","","","","","","","","","","","","","","","","","","","","","","","","","SYN104AAXX  20124 68558 31770 83206 10165 20148 38186 48500 58005 75052 83221 333 1//// 20150 9//// 555 91019;","","","","","","","","","",""
"68558099999","2005-01-20T20:00:00","-30.9333333","27.6","1819.0","BARKLY EAST, SF","FM-12","4","","56","58","","||DZ","0.00","4","94","","","24.14","6.21","57","000","21","0","","","","","","","","","","","","","","","","","","","","","","","","","","","","","","","","","","","","","","","","","","","","","","","","","","","","","","","","","","","","","","","","","","","","","","","","","","","","","","","","","","","","","","","","","","","SYN104AAXX  20184 68558 31660 80000 10145 20135 38175 48491 54000 75052 8322/ 333 10205 2//// 9//// 555 91018;","","","","","","","","","",""
"68558099999","2005-01-21T20:00:00","-30.9333333","27.6","1819.0","BARKLY EAST, SF","FM-12","4","","57","60","","","-0.07","3","90","","","24.07","18.64","58","000","17","0","","","","","","","","","","","","","","","","","","","","","","","","","","","","","","","","","","","","","","","","","","","","","","","","","","","","","","","","","","","","","","","","","","","","","","","","","","","","","","","","","","","","","","","","","","","SYN098AAXX  21184 68558 32980 70000 10155 20138 38151 48466 53023 83122 333 10230 2//// 9//// 555 91015;","","","","","","","","","",""
"68558099999","2005-01-22T08:00:00","-30.9333333","27.6","1819.0","BARKLY EAST, SF","FM-12","4","","57","59","","","-0.03","3","94","","","24.09","18.64","58","000","18","0","","","","","","","","","","","","","","","","","","","","","","","","","","","","","","","","","","","","","","","","","","","","","","","","","","","","","","","","","","","","","","","","","","","","","","","","","","","","","","","","","","","","","","","","","","","SYN110AAXX  22064 68558 12980 30000 10150 20140 38158 48473 53010 60134 82101 333 20135 9//// 555 10230 20125 91016;","","","","","","","","","",""
"68558099999","2005-01-22T14:00:00","-30.9333333","27.6","1819.0","BARKLY EAST, SF","FM-12","4","","53","76","","","+0.01","8","45","","","24.08","18.64","62","320","18","7","","","","","","","","","","","","","","","","","","","","","","","","","","","","","","","","","","","","","","","","","","","","","","","","","","","","","","","","","","","","","","","","","","","","","","","","","","","","","","","","","","","","","","","","","","","SYN098AAXX  22124 68558 32980 33206 10245 20116 38156 48460 58003 83200 333 1//// 20150 9//// 555 91016;","","","","","","","","","",""
"68558099999","2005-01-22T20:00:00","-30.9333333","27.6","1819.0","BARKLY EAST, SF","FM-12","4","","56","63","","","-0.04","3","77","","","24.09","18.64","59","180","18","7","","","","","","","","","","","","","","","","","","","","","","","","","","","","","","","","","","","","","","","","","","","","","","","","","","","","","","","","","","","","","","","","","","","","","","","","","","","","","","","","","","","","","","","","","","","SYN098AAXX  22184 68558 32980 21806 10175 20134 38157 48469 53012 82100 333 10255 2//// 9//// 555 91016;","","","","","","","","","",""
"68558099999","2005-01-23T08:00:00","-30.9333333","27.6","1819.0","BARKLY EAST, SF","FM-12","4","","55","58","","","-0.04","3","89","","","24.11","18.64","56","000","19","0","","","","","","","","","","","","","","","","","","","","","","","","","","","","","","","","","","","","","","","","","","","","","","","","","","","","","","","","","","","","","","","","","","","","","","","","","","","","","","","","","","","","","","","","","","","SYN098AAXX  23064 68558 32980 20000 10145 20127 38165 48481 53013 82100 333 20130 9//// 555 10255 91017;","","","","","","","","","",""
"68558099999","2005-01-23T14:00:00","-30.9333333","27.6","1819.0","BARKLY EAST, SF","FM-12","4","","54","71","","","-0.00","3","56","","","24.11","18.64","60","320","19","7","","","","","","","","","","","","","","","","","","","","","","","","","","","","","","","","","","","","","","","","","","","","","","","","","","","","","","","","","","","","","","","","","","","","","","","","","","","","","","","","","","","","","","","","","","","SYN098AAXX  23124 68558 32980 63206 10215 20124 38166 48474 53001 83221 333 1//// 20145 9//// 555 91017;","","","","","","","","","",""
"68558099999","2005-01-23T20:00:00","-30.9333333","27.6","1819.0","BARKLY EAST, SF","FM-12","4","","52","60","","","-0.05","3","75","CLR:00","","24.14","18.64","55","140","21","7","","","","","","","","","","","","","","","","","","","","","","","","","","","","","","","","","","","","","","","","","","","","","","","","","","","","","","","","","","","","","","","","","","","","","","","","","","","","","","","","","","","","","","","","","","","SYN092AAXX  23184 68558 32980 01406 10155 20111 38174 48489 53016 333 10240 2//// 9//// 555 91018;","","","","","","","","","",""
"68558099999","2005-01-24T14:00:00","-30.9333333","27.6","1819.0","BARKLY EAST, SF","FM-12","4","","46","74","","","+0.02","8","36","","","24.14","18.64","58","320","21","11","","","","","","","","","","","","","","","","","","","","","","","","","","","","","","","","","","","","","","","","","","","","","","","","","","","","","","","","","","","","","","","","","","","","","","","","","","","","","","","","","","","","","","","","","","","SYN098AAXX  24124 68558 32980 33210 10235 20077 38176 48482 58006 83100 333 1//// 20095 9//// 555 91018;","","","","","","","","","",""
"68558099999","2005-01-24T15:00:00","-30.9333333","27.6","1819.0","BARKLY EAST, SF","FM-12","4","","46","74","","","+0.02","8","36","","","24.14","18.64","58","320","21","11","","","","","","","","","","","","","","","","","","","","","","","","","","","","","","","","","","","","","","","","","","","","","","","","","","","","","","","","","","","","","","","","","","","","","","","","","","","","","","","","","","","","","","","","","","","SYN098AAXX  24134 68558 32980 33210 10235 20077 38176 48482 58006 83100 333 1//// 20095 9//// 555 91018;","","","","","","","","","",""
"68558099999","2005-01-24T20:00:00","-30.9333333","27.6","1819.0","BARKLY EAST, SF","FM-12","4","","52","65","","","-0.01","3","61","CLR:00","","24.13","18.64","57","140","19","5","","","","","","","","","","","","","","","","","","","","","","","","","","","","","","","","","","","","","","","","","","","","","","","","","","","","","","","","","","","","","","","","","","","","","","","","","","","","","","","","","","","","","","","","","","","SYN092AAXX  24184 68558 32980 01404 10185 20109 38170 48481 53005 333 10250 2//// 9//// 555 91017;","","","","","","","","","",""
"68558099999","2005-01-25T08:00:00","-30.9333333","27.6","1819.0","BARKLY EAST, SF","FM-12","4","","48","52","","","-0.03","3","88","CLR:00","","24.18","18.64","50","000","22","0","","","","","","","","","","","","","","","","","","","","","","","","","","","","","","","","","","","","","","","","","","","","","","","","","","","","","","","","","","","","","","","","","","","","","","","","","","","","","","","","","","","","","","","","","","","SYN092AAXX  25064 68558 32980 00000 10110 20091 38187 48507 53009 333 20090 9//// 555 10250 91019;","","","","","","","","","",""
"68558099999","2005-01-25T14:00:00","-30.9333333","27.6","1819.0","BARKLY EAST, SF","FM-12","4","","47","75","","","+0.01","8","38","","","24.18","18.64","58","320","22","13","","","","","","","","","","","","","","","","","","","","","","","","","","","","","","","","","","","","","","","","","","","","","","","","","","","","","","","","","","","","","","","","","","","","","","","","","","","","","","","","","","","","","","","","","","","SYN098AAXX  25124 68558 32980 23211 10240 20086 38187 48493 58002 82100 333 1//// 20110 9//// 555 91019;","","","","","","","","","",""
"68558099999","2005-01-25T20:00:00","-30.9333333","27.6","1819.0","BARKLY EAST, SF","FM-12","4","","53","61","","","-0.01","3","76","","","24.19","18.64","56","140","23","11","","","","","","","","","","","","","","","","","","","","","","","","","","","","","","","","","","","","","","","","","","","","","","","","","","","","","","","","","","","","","","","","","","","","","","","","","","","","","","","","","","","","","","","","","","","SYN098AAXX  25184 68558 32980 11410 10160 20118 38193 48508 53003 81100 333 10250 2//// 9//// 555 91020;","","","","","","","","","",""
"68558099999","2005-01-26T08:00:00","-30.9333333","27.6","1819.0","BARKLY EAST, SF","FM-12","4","","50","61","","","-0.02","3","67","","","24.21","18.64","55","000","24","0","","","","","","","","","","","","","","","","","","","","","","","","","","","","","","","","","","","","","","","","","","","","","","","","","","","","","","","","","","","","","","","","","","","","","","","","","","","","","","","","","","","","","","","","","","","SYN098AAXX  26064 68558 32980 50000 10160 20099 38200 48515 53006 84101 333 20095 9//// 555 10250 91021;","","","","","","","","","",""
"68558099999","2005-01-27T08:00:00","-30.9333333","27.6","1819.0","BARKLY EAST, SF","FM-12","4","","49","54","","","-0.02","3","83","CLR:00","","24.13","18.64","51","000","21","0","","","","","","","","","","","","","","","","","","","","","","","","","","","","","","","","","","","","","","","","","","","","","","","","","","","","","","","","","","","","","","","","","","","","","","","","","","","","","","","","","","","","","","","","","","","SYN092AAXX  27064 68558 32980 00000 10125 20097 38171 48489 53006 333 20090 9//// 555 10240 91018;","","","","","","","","","",""
"68558099999","2005-01-27T14:00:00","-30.9333333","27.6","1819.0","BARKLY EAST, SF","FM-12","4","","48","78","","","+0.05","8","35","","","24.06","18.64","60","320","","19","","","","","","","","","","","","","","","","","","","","","","","","","","","","","","","","","","","","","","","","","","","","","","","","","","","","","","","","","","","","","","","","","","","","","","","","","","","","","","","","","","","","","","","","","","","SYN098AAXX  27124 68558 32980 43217 10255 20087 38146 48448 58018 84200 333 1//// 20105 9//// 555 91015;","","","","","","","","","",""
"68558099999","2005-01-27T20:00:00","-30.9333333","27.6","1819.0","BARKLY EAST, SF","FM-12","4","","39","72","","","-0.01","3","29","","","24.01","18.64","54","320","15","5","","","","","","","","","","","","","","","","","","","","","","","","","","","","","","","","","","","","","","","","","","","","","","","","","","","","","","","","","","","","","","","","","","","","","","","","","","","","","","","","","","","","","","","","","","","SYN098AAXX  27184 68558 32980 23204 10225 20037 38131 48436 53003 82100 333 10285 2//// 9//// 555 91013;","","","","","","","","","",""
"68558099999","2005-01-28T20:00:00","-30.9333333","27.6","1819.0","BARKLY EAST, SF","FM-12","4","","55","68","","","-0.03","3","63","","","24.08","18.64","60","140","18","11","","","","","","","","","","","","","","","","","","","","","","","","","","","","","","","","","","","","","","","","","","","","","","","","","","","","","","","","","","","","","","","","","","","","","","","","","","","","","","","","","","","","","","","","","","","SYN098AAXX  28184 68558 32980 41410 10200 20126 38155 48464 53011 82201 333 10285 2//// 9//// 555 91016;","","","","","","","","","",""
"68558099999","2005-01-29T08:00:00","-30.9333333","27.6","1819.0","BARKLY EAST, SF","FM-12","4","","54","61","","","-0.05","3","80","","","24.21","18.64","57","000","24","0","","","","","","","","","","","","","","","","","","","","","","","","","","","","","","","","","","","","","","","","","","","","","","","","","","","","","","","","","","","","","","","","","","","","","","","","","","","","","","","","","","","","","","","","","","","SYN098AAXX  29064 68558 32980 70000 10160 20125 38200 48515 53017 83101 333 20120 9//// 555 10285 91021;","","","","","","","","","",""
"68558099999","2005-01-29T14:00:00","-30.9333333","27.6","1819.0","BARKLY EAST, SF","FM-12","4","","41","79","","","+0.03","8","26","","","24.21","18.64","57","320","24","11","","","","","","","","","","","","","","","","","","","","","","","","","","","","","","","","","","","","","","","","","","","","","","","","","","","","","","","","","","","","","","","","","","","","","","","","","","","","","","","","","","","","","","","","","","","SYN098AAXX  29124 68558 32980 23210 10260 20052 38200 48504 58010 82100 333 1//// 20165 9//// 555 91021;","","","","","","","","","",""
"68558099999","2005-01-30T08:00:00","-30.9333333","27.6","1819.0","BARKLY EAST, SF","FM-12","4","","52","69","","","-0.01","3","55","","","24.24","18.64","59","320","25","5","","","","","","","","","","","","","","","","","","","","","","","","","","","","","","","","","","","","","","","","","","","","","","","","","","","","","","","","","","","","","","","","","","","","","","","","","","","","","","","","","","","","","","","","","","","SYN098AAXX  30064 68558 32980 33204 10205 20112 38209 48520 53003 82101 333 20130 9//// 555 10280 91022;","","","","","","","","","",""
"68558099999","2005-01-30T20:00:00","-30.9333333","27.6","1819.0","BARKLY EAST, SF","FM-12","4","","54","55","","||s","-0.12","3","94","","","24.26","6.21","54","320","26","13","","","","","","","","","","","","","","","","","","","","","","","","","","","","","","","","","","","","","","","","","","","","","","","","","","","","","","","","","","","","","","","","","","","","","","","","","","","","","","","","","","","","","","","","","","","SYN104AAXX  30184 68558 31660 83211 10130 20120 38215 48533 53041 72662 8422/ 333 10245 2//// 9//// 555 91023;","","","","","","","","","",""
"68558099999","2005-01-31T14:00:00","-30.9333333","27.6","1819.0","BARKLY EAST, SF","FM-12","4","","55","78","","","+0.02","8","46","","","24.16","18.64","63","320","22","13","","","","","","","","","","","","","","","","","","","","","","","","","","","","","","","","","","","","","","","","","","","","","","","","","","","","","","","","","","","","","","","","","","","","","","","","","","","","","","","","","","","","","","","","","","","SYN098AAXX  31124 68558 32980 43211 10255 20129 38182 48486 58006 83201 333 1//// 20110 9//// 555 91019;","","","","","","","","","",""
"68558099999","2005-01-31T20:00:00","-30.9333333","27.6","1819.0","BARKLY EAST, SF","FM-12","4","","51","69","","","-0.01","3","52","","","24.16","18.64","58","050","22","7","","","","","","","","","","","","","","","","","","","","","","","","","","","","","","","","","","","","","","","","","","","","","","","","","","","","","","","","","","","","","","","","","","","","","","","","","","","","","","","","","","","","","","","","","","","SYN098AAXX  31184 68558 32980 20506 10205 20104 38181 48491 53002 82200 333 10265 2//// 9//// 555 91019;","","","","","","","","","",""
"68558099999","2005-02-01T08:00:00","-30.9333333","27.6","1819.0","BARKLY EAST, SF","FM-12","4","","54","57","","","-0.04","3","89","CLR:00","","24.24","18.64","55","000","25","0","","","","","","","","","","","","","","","","","","","","","","","","","","","","","","","","","","","","","","","","","","","","","","","","","","","","","","","","","","","","","","","","","","","","","","","","","","","","","","","","","","","","","","","","","","","SYN092AAXX  01064 68558 32980 00000 10140 20122 38209 48526 53013 333 20110 9//// 555 10265 91022;","","","","","","","","","",""
"68558099999","2005-02-01T14:00:00","-30.9333333","27.6","1819.0","BARKLY EAST, SF","FM-12","4","","46","79","","","+0.01","8","32","","","24.24","18.64","59","320","25","11","","","","","","","","","","","","","","","","","","","","","","","","","","","","","","","","","","","","","","","","","","","","","","","","","","","","","","","","","","","","","","","","","","","","","","","","","","","","","","","","","","","","","","","","","","","SYN098AAXX  01124 68558 32980 13210 10260 20078 38208 48513 58003 81100 333 1//// 20140 9//// 555 91022;","","","","","","","","","",""
"68558099999","2005-02-02T08:00:00","-30.9333333","27.6","1819.0","BARKLY EAST, SF","FM-12","4","","49","55","","","-0.04","3","78","","","24.31","18.64","52","000","29","0","","","","","","","","","","","","","","","","","","","","","","","","","","","","","","","","","","","","","","","","","","","","","","","","","","","","","","","","","","","","","","","","","","","","","","","","","","","","","","","","","","","","","","","","","","","SYN098AAXX  02064 68558 32980 20000 10130 20092 38231 48549 53012 82100 333 20105 9//// 555 10275 91025;","","","","","","","","","",""
"68558099999","2005-02-02T14:00:00","-30.9333333","27.6","1819.0","BARKLY EAST, SF","FM-12","4","","48","81","","","+0.02","8","31","","","24.29","18.64","61","320","28","7","","","","","","","","","","","","","","","","","","","","","","","","","","","","","","","","","","","","","","","","","","","","","","","","","","","","","","","","","","","","","","","","","","","","","","","","","","","","","","","","","","","","","","","","","","","SYN098AAXX  02124 68558 32980 33206 10275 20091 38224 48528 58008 83100 333 1//// 20130 9//// 555 91024;","","","","","","","","","",""
"68558099999","2005-02-02T20:00:00","-30.9333333","27.6","1819.0","BARKLY EAST, SF","FM-12","4","","55","76","","","-0.01","3","48","","","24.26","18.64","63","000","26","0","","","","","","","","","","","","","","","","","","","","","","","","","","","","","","","","","","","","","","","","","","","","","","","","","","","","","","","","","","","","","","","","","","","","","","","","","","","","","","","","","","","","","","","","","","","SYN098AAXX  02184 68558 32980 30000 10245 20126 38215 48522 53002 82101 333 10295 2//// 9//// 555 91023;","","","","","","","","","",""
"68558099999","2005-02-03T08:00:00","-30.9333333","27.6","1819.0","BARKLY EAST, SF","FM-12","4","","54","69","","","-0.03","3","59","","","24.31","18.64","60","320","29","7","","","","","","","","","","","","","","","","","","","","","","","","","","","","","","","","","","","","","","","","","","","","","","","","","","","","","","","","","","","","","","","","","","","","","","","","","","","","","","","","","","","","","","","","","","","SYN098AAXX  03064 68558 32980 33206 10205 20123 38233 48544 53011 82101 333 20180 9//// 555 10295 91025;","","","","","","","","","",""
"68558099999","2005-02-03T14:00:00","-30.9333333","27.6","1819.0","BARKLY EAST, SF","FM-12","4","","45","85","","","+0.03","8","24","","","24.29","18.64","61","320","28","19","","","","","","","","","","","","","","","","","","","","","","","","","","","","","","","","","","","","","","","","","","","","","","","","","","","","","","","","","","","","","","","","","","","","","","","","","","","","","","","","","","","","","","","","","","","SYN098AAXX  03124 68558 32980 33217 10295 20071 38227 48530 58010 82101 333 1//// 20195 9//// 555 91024;","","","","","","","","","",""
"68558099999","2005-02-03T20:00:00","-30.9333333","27.6","1819.0","BARKLY EAST, SF","FM-12","4","","46","77","","","","","33","","","24.25","12.43","59","360","25","7","","","","","","","","","","","","","","","","","","","","","","","","","","","","","","","","","","","","","","","","","","","","","","","","","","","","","","","","","","","","","","","","","","","","","","","","","","","","","","","","","","","","","","","","","","","SYN098AAXX  03184 68558 32770 63606 10250 20078 38212 48518 58000 83201 333 10305 2//// 9//// 555 91022;","","","","","","","","","",""
"68558099999","2005-02-04T08:00:00","-30.9333333","27.6","1819.0","BARKLY EAST, SF","FM-12","4","","56","66","","","-0.00","3","69","","","24.28","18.64","60","000","28","0","","","","","","","","","","","","","","","","","","","","","","","","","","","","","","","","","","","","","","","","","","","","","","","","","","","","","","","","","","","","","","","","","","","","","","","","","","","","","","","","","","","","","","","","","","","SYN098AAXX  04064 68558 32980 30000 10190 20132 38222 48535 53001 82101 333 20180 9//// 555 10305 91024;","","","","","","","","","",""
"68558099999","2005-02-04T14:00:00","-30.9333333","27.6","1819.0","BARKLY EAST, SF","FM-12","4","","43","80","","","+0.01","8","27","","","24.29","18.64","58","320","28","13","","","","","","","","","","","","","","","","","","","","","","","","","","","","","","","","","","","","","","","","","","","","","","","","","","","","","","","","","","","","","","","","","","","","","","","","","","","","","","","","","","","","","","","","","","","SYN098AAXX  04124 68558 32980 13211 10265 20062 38226 48531 58003 81100 333 1//// 20185 9//// 555 91024;","","","","","","","","","",""
"68558099999","2005-02-04T20:00:00","-30.9333333","27.6","1819.0","BARKLY EAST, SF","FM-12","4","","43","80","","","+0.01","8","27","CLR:00","","24.25","18.64","58","000","25","0","","","","","","","","","","","","","","","","","","","","","","","","","","","","","","","","","","","","","","","","","","","","","","","","","","","","","","","","","","","","","","","","","","","","","","","","","","","","","","","","","","","","","","","","","","","SYN092AAXX  04184 68558 32980 00000 10265 20062 38212 48517 58002 333 10305 2//// 9//// 555 91022;","","","","","","","","","",""
"68558099999","2005-02-05T08:00:00","-30.9333333","27.6","1819.0","BARKLY EAST, SF","FM-12","4","","47","54","","","-0.02","3","78","CLR:00","","24.38","18.64","50","000","32","0","","","","","","","","","","","","","","","","","","","","","","","","","","","","","","","","","","","","","","","","","","","","","","","","","","","","","","","","","","","","","","","","","","","","","","","","","","","","","","","","","","","","","","","","","","","SYN092AAXX  05064 68558 32980 00000 10120 20083 38255 48574 53007 333 20020 9//// 555 10305 91028;","","","","","","","","","",""
"68558099999","2005-02-05T14:00:00","-30.9333333","27.6","1819.0","BARKLY EAST, SF","FM-12","4","","36","80","","","+0.03","8","20","CLR:00","","24.33","18.64","56","320","30","7","","","","","","","","","","","","","","","","","","","","","","","","","","","","","","","","","","","","","","","","","","","","","","","","","","","","","","","","","","","","","","","","","","","","","","","","","","","","","","","","","","","","","","","","","","","SYN092AAXX  05124 68558 32980 03206 10265 20020 38239 48545 58011 333 1//// 20120 9//// 555 91026;","","","","","","","","","",""
"68558099999","2005-02-06T08:00:00","-30.9333333","27.6","1819.0","BARKLY EAST, SF","FM-12","4","","39","57","","","-0.04","3","52","CLR:00","","24.37","18.64","48","000","31","0","","","","","","","","","","","","","","","","","","","","","","","","","","","","","","","","","","","","","","","","","","","","","","","","","","","","","","","","","","","","","","","","","","","","","","","","","","","","","","","","","","","","","","","","","","","SYN092AAXX  06064 68558 32980 00000 10140 20041 38251 48569 53013 333 20065 9//// 555 10270 91027;","","","","","","","","","",""
"68558099999","2005-02-06T14:00:00","-30.9333333","27.6","1819.0","BARKLY EAST, SF","FM-12","4","","50","82","","","+0.04","8","32","","","24.32","18.64","62","320","29","9","","","","","","","","","","","","","","","","","","","","","","","","","","","","","","","","","","","","","","","","","","","","","","","","","","","","","","","","","","","","","","","","","","","","","","","","","","","","","","","","","","","","","","","","","","","SYN098AAXX  06124 68558 32980 23208 10278 20098 38235 48540 58012 82100 333 1//// 20140 9//// 555 91025;","","","","","","","","","",""
"68558099999","2005-02-06T20:00:00","-30.9333333","27.6","1819.0","BARKLY EAST, SF","FM-12","4","","58","71","","","-0.00","3","65","","","24.29","18.64","63","140","28","11","","","","","","","","","","","","","","","","","","","","","","","","","","","","","","","","","","","","","","","","","","","","","","","","","","","","","","","","","","","","","","","","","","","","","","","","","","","","","","","","","","","","","","","","","","","SYN098AAXX  06184 68558 32980 11410 10215 20145 38224 48534 53001 81100 333 10295 2//// 9//// 555 91024;","","","","","","","","","",""
"68558099999","2005-02-07T08:00:00","-30.9333333","27.6","1819.0","BARKLY EAST, SF","FM-12","4","","54","66","","","-0.01","3","65","","","24.29","18.64","59","000","28","0","","","","","","","","","","","","","","","","","","","","","","","","","","","","","","","","","","","","","","","","","","","","","","","","","","","","","","","","","","","","","","","","","","","","","","","","","","","","","","","","","","","","","","","","","","","SYN098AAXX  07064 68558 32980 70000 10190 20123 38224 48537 53002 83101 333 20165 9//// 555 10295 91024;","","","","","","","","","",""
"68558099999","2005-02-07T14:00:00","-30.9333333","27.6","1819.0","BARKLY EAST, SF","FM-12","4","","48","81","","","+0.03","8","31","","","24.26","18.64","61","320","26","13","","","","","","","","","","","","","","","","","","","","","","","","","","","","","","","","","","","","","","","","","","","","","","","","","","","","","","","","","","","","","","","","","","","","","","","","","","","","","","","","","","","","","","","","","","","SYN098AAXX  07124 68558 32980 43211 10275 20091 38216 48520 58010 82101 333 1//// 20190 9//// 555 91023;","","","","","","","","","",""
"68558099999","2005-02-07T20:00:00","-30.9333333","27.6","1819.0","BARKLY EAST, SF","FM-12","4","","54","61","","||TS","-0.10","3","80","","","24.30","6.21","57","050","28","7","","","","","","","","","","","","","","","","","","","","","","","","","","","","","","","","","","","","","","","","","","","","","","","","","","","","","","","","","","","","","","","","","","","","","","","","","","","","","","","","","","","","","","","","","","","SYN104AAXX  07184 68558 31660 80506 10160 20125 38228 48544 53033 79592 83322 333 10290 2//// 9//// 555 91024;","","","","","","","","","",""
"68558099999","2005-02-08T08:00:00","-30.9333333","27.6","1819.0","BARKLY EAST, SF","FM-12","4","","53","58","","","-0.01","3","84","","","24.25","18.64","55","000","25","0","","","","","","","","","","","","","","","","","","","","","","","","","","","","","","","","","","","","","","","","","","","","","","","","","","","","","","","","","","","","","","","","","","","","","","","","","","","","","","","","","","","","","","","","","","","SYN110AAXX  08064 68558 12980 50000 10145 20118 38212 48529 53002 60054 83101 333 20135 9//// 555 10290 20045 91022;","","","","","","","","","",""
"68558099999","2005-02-08T14:00:00","-30.9333333","27.6","1819.0","BARKLY EAST, SF","FM-12","4","","58","72","","","-0.01","3","61","","","24.25","12.43","63","140","25","13","","","","","","","","","","","","","","","","","","","","","","","","","","","","","","","","","","","","","","","","","","","","","","","","","","","","","","","","","","","","","","","","","","","","","","","","","","","","","","","","","","","","","","","","","","","SYN098AAXX  08124 68558 32770 51411 10225 20147 38212 48521 53002 82321 333 1//// 20145 9//// 555 91022;","","","","","","","","","",""
"68558099999","2005-02-08T20:00:00","-30.9333333","27.6","1819.0","BARKLY EAST, SF","FM-12","4","","57","62","","","-0.03","3","85","","","24.21","18.64","59","180","24","11","","","","","","","","","","","","","","","","","","","","","","","","","","","","","","","","","","","","","","","","","","","","","","","","","","","","","","","","","","","","","","","","","","","","","","","","","","","","","","","","","","","","","","","","","","","SYN098AAXX  08184 68558 32980 31810 10165 20140 38198 48512 53010 82101 333 10260 2//// 9//// 555 91021;","","","","","","","","","",""
"68558099999","2005-02-09T08:00:00","-30.9333333","27.6","1819.0","BARKLY EAST, SF","FM-12","4","","54","55","","","-0.01","3","94","","","24.22","18.64","54","000","24","0","","","","","","","","","","","","","","","","","","","","","","","","","","","","","","","","","","","","","","","","","","","","","","","","","","","","","","","","","","","","","","","","","","","","","","","","","","","","","","","","","","","","","","","","","","","SYN098AAXX  09064 68558 32980 10000 10130 20120 38203 48521 53005 81100 333 20120 9//// 555 10260 91021;","","","","","","","","","",""
"68558099999","2005-02-09T20:00:00","-30.9333333","27.6","1819.0","BARKLY EAST, SF","FM-12","4","","56","61","","","-0.01","3","85","","","24.20","18.64","58","000","23","0","","","","","","","","","","","","","","","","","","","","","","","","","","","","","","","","","","","","","","","","","","","","","","","","","","","","","","","","","","","","","","","","","","","","","","","","","","","","","","","","","","","","","","","","","","","SYN098AAXX  09184 68558 32980 20000 10160 20135 38194 48509 53005 82100 333 10260 2//// 9//// 555 91020;","","","","","","","","","",""
"68558099999","2005-02-10T08:00:00","-30.9333333","27.6","1819.0","BARKLY EAST, SF","FM-12","4","","49","53","","","-0.02","3","88","CLR:00","","24.21","18.64","51","000","24","0","","","","","","","","","","","","","","","","","","","","","","","","","","","","","","","","","","","","","","","","","","","","","","","","","","","","","","","","","","","","","","","","","","","","","","","","","","","","","","","","","","","","","","","","","","","SYN104AAXX  10064 68558 12980 00000 10115 20096 38198 48518 53008 60044 333 20105 9//// 555 10260 20040 91021;","","","","","","","","","",""
"68558099999","2005-02-14T14:00:00","-30.9333333","27.6","1819.0","BARKLY EAST, SF","FM-12","4","","48","81","","","-0.03","3","31","","","24.25","18.64","61","320","25","7","","","","","","","","","","","","","","","","","","","","","","","","","","","","","","","","","","","","","","","","","","","","","","","","","","","","","","","","","","","","","","","","","","","","","","","","","","","","","","","","","","","","","","","","","","","SYN098AAXX  14124 68558 32980 23206 10275 20091 38211 48515 53011 82100 333 1//// 20165 9//// 555 91022;","","","","","","","","","",""
"68558099999","2005-02-14T20:00:00","-30.9333333","27.6","1819.0","BARKLY EAST, SF","FM-12","4","","46","72","","","-0.04","3","38","","","24.21","18.64","57","050","24","7","","","","","","","","","","","","","","","","","","","","","","","","","","","","","","","","","","","","","","","","","","","","","","","","","","","","","","","","","","","","","","","","","","","","","","","","","","","","","","","","","","","","","","","","","","","SYN098AAXX  14184 68558 32980 70506 10225 20076 38198 48506 53015 85101 333 10290 2//// 9//// 555 91021;","","","","","","","","","",""
"68558099999","2005-02-15T08:00:00","-30.9333333","27.6","1819.0","BARKLY EAST, SF","FM-12","4","","51","60","","","-0.02","3","71","","","24.32","18.64","55","000","29","0","","","","","","","","","","","","","","","","","","","","","","","","","","","","","","","","","","","","","","","","","","","","","","","","","","","","","","","","","","","","","","","","","","","","","","","","","","","","","","","","","","","","","","","","","","","SYN098AAXX  15064 68558 32980 50000 10155 20103 38237 48553 53008 83100 333 20140 9//// 555 10290 91025;","","","","","","","","","",""
"68558099999","2005-02-15T20:00:00","-30.9333333","27.6","1819.0","BARKLY EAST, SF","FM-12","4","","53","63","","","-0.02","3","72","","","24.31","18.64","57","000","29","0","","","","","","","","","","","","","","","","","","","","","","","","","","","","","","","","","","","","","","","","","","","","","","","","","","","","","","","","","","","","","","","","","","","","","","","","","","","","","","","","","","","","","","","","","","","SYN098AAXX  15184 68558 32980 20000 10170 20119 38231 48546 53007 82100 333 10290 2//// 9//// 555 91025;","","","","","","","","","",""
"68558099999","2005-02-16T08:00:00","-30.9333333","27.6","1819.0","BARKLY EAST, SF","FM-12","4","","53","58","","","-0.01","3","84","","","24.36","18.64","55","000","31","0","","","","","","","","","","","","","","","","","","","","","","","","","","","","","","","","","","","","","","","","","","","","","","","","","","","","","","","","","","","","","","","","","","","","","","","","","","","","","","","","","","","","","","","","","","","SYN110AAXX  16064 68558 12980 10000 10145 20118 38248 48565 53005 60024 81100 333 20115 9//// 555 10290 20020 91027;","","","","","","","","","",""
"68558099999","2005-02-16T14:00:00","-30.9333333","27.6","1819.0","BARKLY EAST, SF","FM-12","4","","48","79","","","+0.04","8","34","","","24.31","18.64","60","320","29","5","","","","","","","","","","","","","","","","","","","","","","","","","","","","","","","","","","","","","","","","","","","","","","","","","","","","","","","","","","","","","","","","","","","","","","","","","","","","","","","","","","","","","","","","","","","SYN098AAXX  16124 68558 32980 33204 10260 20091 38233 48539 58014 83200 333 1//// 20140 9//// 555 91025;","","","","","","","","","",""
"68558099999","2005-02-16T20:00:00","-30.9333333","27.6","1819.0","BARKLY EAST, SF","FM-12","4","","53","61","","","-0.01","3","76","","","24.30","18.64","56","000","28","0","","","","","","","","","","","","","","","","","","","","","","","","","","","","","","","","","","","","","","","","","","","","","","","","","","","","","","","","","","","","","","","","","","","","","","","","","","","","","","","","","","","","","","","","","","","SYN098AAXX  16184 68558 32980 40000 10160 20118 38229 48545 53002 83201 333 10270 2//// 9//// 555 91024;","","","","","","","","","",""
"68558099999","2005-02-17T08:00:00","-30.9333333","27.6","1819.0","BARKLY EAST, SF","FM-12","4","","52","62","","","0.00","4","71","","","24.28","18.64","56","000","28","0","","","","","","","","","","","","","","","","","","","","","","","","","","","","","","","","","","","","","","","","","","","","","","","","","","","","","","","","","","","","","","","","","","","","","","","","","","","","","","","","","","","","","","","","","","","SYN110AAXX  17064 68558 12980 60000 10165 20112 38223 48538 54000 60074 82202 333 20140 9//// 555 10270 20065 91024;","","","","","","","","","",""
"68558099999","2005-02-17T14:00:00","-30.9333333","27.6","1819.0","BARKLY EAST, SF","FM-12","4","","52","65","","","+0.00","8","61","","","24.28","18.64","57","320","28","19","","","","","","","","","","","","","","","","","","","","","","","","","","","","","","","","","","","","","","","","","","","","","","","","","","","","","","","","","","","","","","","","","","","","","","","","","","","","","","","","","","","","","","","","","","","SYN098AAXX  17124 68558 32980 83217 10185 20109 38221 48534 58001 84222 333 1//// 20165 9//// 555 91024;","","","","","","","","","",""
"68558099999","2005-02-17T20:00:00","-30.9333333","27.6","1819.0","BARKLY EAST, SF","FM-12","4","","54","60","","","+0.01","8","80","","","24.24","12.43","56","140","25","11","","","","","","","","","","","","","","","","","","","","","","","","","","","","","","","","","","","","","","","","","","","","","","","","","","","","","","","","","","","","","","","","","","","","","","","","","","","","","","","","","","","","","","","","","","","SYN098AAXX  17184 68558 32770 81410 10155 20121 38207 48523 58002 84222 333 10220 2//// 9//// 555 91022;","","","","","","","","","",""
"68558099999","2005-02-18T08:00:00","-30.9333333","27.6","1819.0","BARKLY EAST, SF","FM-12","4","","55","58","","","-0.00","3","89","","","24.21","18.64","56","000","24","0","","","","","","","","","","","","","","","","","","","","","","","","","","","","","","","","","","","","","","","","","","","","","","","","","","","","","","","","","","","","","","","","","","","","","","","","","","","","","","","","","","","","","","","","","","","SYN110AAXX  18064 68558 12980 40000 10145 20127 38200 48517 53001 60044 82101 333 20140 9//// 555 10220 20035 91021;","","","","","","","","","",""
"68558099999","2005-02-18T14:00:00","-30.9333333","27.6","1819.0","BARKLY EAST, SF","FM-12","4","","56","64","","","+0.02","8","73","","","24.21","12.43","59","000","24","0","","","","","","","","","","","","","","","","","","","","","","","","","","","","","","","","","","","","","","","","","","","","","","","","","","","","","","","","","","","","","","","","","","","","","","","","","","","","","","","","","","","","","","","","","","","SYN098AAXX  18124 68558 32970 80000 10180 20131 38200 48513 58006 84121 333 1//// 20145 9//// 555 91021;","","","","","","","","","",""
"68558099999","2005-02-18T20:00:00","-30.9333333","27.6","1819.0","BARKLY EAST, SF","FM-12","4","","54","60","","","-0.01","3","80","","","24.24","6.21","56","000","25","0","","","","","","","","","","","","","","","","","","","","","","","","","","","","","","","","","","","","","","","","","","","","","","","","","","","","","","","","","","","","","","","","","","","","","","","","","","","","","","","","","","","","","","","","","","","SYN098AAXX  18184 68558 32660 80000 10155 20121 38207 48523 53005 8422/ 333 10195 2//// 9//// 555 91022;","","","","","","","","","",""
"68558099999","2005-02-19T08:00:00","-30.9333333","27.6","1819.0","BARKLY EAST, SF","FM-12","4","","56","59","","","-0.02","3","89","","","24.23","12.43","57","000","25","0","","","","","","","","","","","","","","","","","","","","","","","","","","","","","","","","","","","","","","","","","","","","","","","","","","","","","","","","","","","","","","","","","","","","","","","","","","","","","","","","","","","","","","","","","","","SYN110AAXX  19064 68558 12770 60000 10150 20132 38205 48521 53007 60084 83222 333 20130 9//// 555 10195 20075 91022;","","","","","","","","","",""
"68558099999","2005-02-19T20:00:00","-30.9333333","27.6","1819.0","BARKLY EAST, SF","FM-12","4","","55","60","","","-0.02","3","85","","","24.23","18.64","57","050","24","7","","","","","","","","","","","","","","","","","","","","","","","","","","","","","","","","","","","","","","","","","","","","","","","","","","","","","","","","","","","","","","","","","","","","","","","","","","","","","","","","","","","","","","","","","","","SYN098AAXX  19184 68558 32980 70506 10155 20130 38204 48520 53008 83221 333 10165 2//// 9//// 555 91021;","","","","","","","","","",""
"68558099999","2005-02-20T08:00:00","-30.9333333","27.6","1819.0","BARKLY EAST, SF","FM-12","4","","54","57","","","-0.05","3","89","","","24.27","18.64","55","000","26","0","","","","","","","","","","","","","","","","","","","","","","","","","","","","","","","","","","","","","","","","","","","","","","","","","","","","","","","","","","","","","","","","","","","","","","","","","","","","","","","","","","","","","","","","","","","SYN110AAXX  20064 68558 12980 70000 10140 20122 38219 48536 53017 60304 83221 333 20130 9//// 555 10165 20295 91023;","","","","","","","","","",""
"68558099999","2005-02-21T14:00:00","-30.9333333","27.6","1819.0","BARKLY EAST, SF","FM-12","4","","53","71","","","+0.04","8","53","","","24.22","18.64","60","140","24","15","","","","","","","","","","","","","","","","","","","","","","","","","","","","","","","","","","","","","","","","","","","","","","","","","","","","","","","","","","","","","","","","","","","","","","","","","","","","","","","","","","","","","","","","","","","SYN098AAXX  21124 68558 32980 41413 10215 20116 38203 48512 58015 83201 333 1//// 20130 9//// 555 91021;","","","","","","","","","",""
"68558099999","2005-02-21T20:00:00","-30.9333333","27.6","1819.0","BARKLY EAST, SF","FM-12","4","","54","63","","","-0.04","3","72","","","24.24","18.64","58","000","25","0","","","","","","","","","","","","","","","","","","","","","","","","","","","","","","","","","","","","","","","","","","","","","","","","","","","","","","","","","","","","","","","","","","","","","","","","","","","","","","","","","","","","","","","","","","","SYN098AAXX  21184 68558 32980 60000 10175 20124 38210 48524 53012 83201 333 10240 2//// 9//// 555 91022;","","","","","","","","","",""
"68558099999","2005-02-22T08:00:00","-30.9333333","27.6","1819.0","BARKLY EAST, SF","FM-12","4","","51","54","","","-0.03","3","89","","","24.26","18.64","52","000","26","0","","","","","","","","","","","","","","","","","","","","","","","","","","","","","","","","","","","","","","","","","","","","","","","","","","","","","","","","","","","","","","","","","","","","","","","","","","","","","","","","","","","","","","","","","","","SYN098AAXX  22064 68558 32980 20000 10125 20107 38214 48533 53011 81101 333 20115 9//// 555 10235 91023;","","","","","","","","","",""
"68558099999","2005-02-22T14:00:00","-30.9333333","27.6","1819.0","BARKLY EAST, SF","FM-12","4","","51","73","","","+0.04","8","46","","","24.22","18.64","60","230","24","7","","","","","","","","","","","","","","","","","","","","","","","","","","","","","","","","","","","","","","","","","","","","","","","","","","","","","","","","","","","","","","","","","","","","","","","","","","","","","","","","","","","","","","","","","","","SYN098AAXX  22124 68558 32980 32306 10230 20106 38203 48511 58012 83100 333 1//// 20125 9//// 555 91021;","","","","","","","","","",""
"68558099999","2005-02-22T20:00:00","-30.9333333","27.6","1819.0","BARKLY EAST, SF","FM-12","4","","52","62","","","-0.04","3","71","","","24.22","18.64","56","000","24","0","","","","","","","","","","","","","","","","","","","","","","","","","","","","","","","","","","","","","","","","","","","","","","","","","","","","","","","","","","","","","","","","","","","","","","","","","","","","","","","","","","","","","","","","","","","SYN098AAXX  22184 68558 32980 30000 10165 20112 38202 48517 53012 82301 333 10235 2//// 9//// 555 91021;","","","","","","","","","",""
"68558099999","2005-02-23T08:00:00","-30.9333333","27.6","1819.0","BARKLY EAST, SF","FM-12","4","","48","50","","","-0.01","3","94","","","24.24","18.64","49","000","25","0","","","","","","","","","","","","","","","","","","","","","","","","","","","","","","","","","","","","","","","","","","","","","","","","","","","","","","","","","","","","","","","","","","","","","","","","","","","","","","","","","","","","","","","","","","","SYN098AAXX  23064 68558 32980 30000 10100 20090 38209 48530 53003 82101 333 20085 9//// 555 10235 91022;","","","","","","","","","",""
"68558099999","2005-02-23T14:00:00","-30.9333333","27.6","1819.0","BARKLY EAST, SF","FM-12","4","","47","76","","","+0.04","8","35","","","24.20","18.64","59","320","23","13","","","","","","","","","","","","","","","","","","","","","","","","","","","","","","","","","","","","","","","","","","","","","","","","","","","","","","","","","","","","","","","","","","","","","","","","","","","","","","","","","","","","","","","","","","","SYN098AAXX  23124 68558 32980 43211 10245 20082 38194 48500 58013 83201 333 1//// 20105 9//// 555 91020;","","","","","","","","","",""
"68558099999","2005-02-23T20:00:00","-30.9333333","27.6","1819.0","BARKLY EAST, SF","FM-12","4","","54","64","","","-0.01","3","68","","","24.18","18.64","58","000","22","0","","","","","","","","","","","","","","","","","","","","","","","","","","","","","","","","","","","","","","","","","","","","","","","","","","","","","","","","","","","","","","","","","","","","","","","","","","","","","","","","","","","","","","","","","","","SYN098AAXX  23184 68558 32980 50000 10180 20120 38187 48500 53004 83201 333 10250 2//// 9//// 555 91019;","","","","","","","","","",""
"68558099999","2005-02-24T14:00:00","-30.9333333","27.6","1819.0","BARKLY EAST, SF","FM-12","4","","53","71","","","+0.05","8","53","","","24.11","12.43","60","320","19","19","","","","","","","","","","","","","","","","","","","","","","","","","","","","","","","","","","","","","","","","","","","","","","","","","","","","","","","","","","","","","","","","","","","","","","","","","","","","","","","","","","","","","","","","","","","SYN098AAXX  24124 68558 32970 63217 10215 20116 38164 48472 58017 84222 333 1//// 20120 9//// 555 91017;","","","","","","","","","",""
"68558099999","2005-02-24T20:00:00","-30.9333333","27.6","1819.0","BARKLY EAST, SF","FM-12","4","","47","64","","","+0.03","8","53","","","24.09","12.43","54","320","18","9","","","","","","","","","","","","","","","","","","","","","","","","","","","","","","","","","","","","","","","","","","","","","","","","","","","","","","","","","","","","","","","","","","","","","","","","","","","","","","","","","","","","","","","","","","","SYN098AAXX  24184 68558 32970 63208 10180 20081 38159 48471 58010 84222 333 10250 2//// 9//// 555 91016;","","","","","","","","","",""
"68558099999","2005-02-25T14:00:00","-30.9333333","27.6","1819.0","BARKLY EAST, SF","FM-12","4","","51","76","","","+0.02","8","42","","","24.16","18.64","61","320","22","22","","","","","","","","","","","","","","","","","","","","","","","","","","","","","","","","","","","","","","","","","","","","","","","","","","","","","","","","","","","","","","","","","","","","","","","","","","","","","","","","","","","","","","","","","","","SYN098AAXX  25124 68558 32980 63219 10245 20106 38180 48485 58007 83222 333 1//// 20135 9//// 555 91019;","","","","","","","","","",""
"68558099999","2005-02-25T20:00:00","-30.9333333","27.6","1819.0","BARKLY EAST, SF","FM-12","4","","53","56","","","-0.06","3","89","","","24.21","18.64","54","140","24","7","","","","","","","","","","","","","","","","","","","","","","","","","","","","","","","","","","","","","","","","","","","","","","","","","","","","","","","","","","","","","","","","","","","","","","","","","","","","","","","","","","","","","","","","","","","SYN098AAXX  25184 68558 32980 11406 10135 20117 38198 48516 53020 81100 333 10250 2//// 9//// 555 91021;","","","","","","","","","",""
"68558099999","2005-02-26T08:00:00","-30.9333333","27.6","1819.0","BARKLY EAST, SF","FM-12","4","","41","48","","","-0.05","3","75","","","24.29","18.64","44","000","28","0","","","","","","","","","","","","","","","","","","","","","","","","","","","","","","","","","","","","","","","","","","","","","","","","","","","","","","","","","","","","","","","","","","","","","","","","","","","","","","","","","","","","","","","","","","","SYN098AAXX  26064 68558 32980 10000 10090 20048 38227 48549 53018 81100 333 20075 9//// 555 10250 91024;","","","","","","","","","",""
"68558099999","2005-02-26T14:00:00","-30.9333333","27.6","1819.0","BARKLY EAST, SF","FM-12","4","","51","72","","","+0.02","8","48","","","24.30","18.64","59","320","28","11","","","","","","","","","","","","","","","","","","","","","","","","","","","","","","","","","","","","","","","","","","","","","","","","","","","","","","","","","","","","","","","","","","","","","","","","","","","","","","","","","","","","","","","","","","","SYN098AAXX  26124 68558 32980 63210 10225 20108 38228 48537 58006 83222 333 1//// 20090 9//// 555 91024;","","","","","","","","","",""
"68558099999","2005-02-27T08:00:00","-30.9333333","27.6","1819.0","BARKLY EAST, SF","FM-12","4","","54","57","","","-0.02","3","89","","","24.37","18.64","55","000","31","0","","","","","","","","","","","","","","","","","","","","","","","","","","","","","","","","","","","","","","","","","","","","","","","","","","","","","","","","","","","","","","","","","","","","","","","","","","","","","","","","","","","","","","","","","","","SYN098AAXX  27064 68558 32980 20000 10140 20122 38254 48572 53008 82100 333 20090 9//// 555 10250 91027;","","","","","","","","","",""
"68558099999","2005-02-27T20:00:00","-30.9333333","27.6","1819.0","BARKLY EAST, SF","FM-12","4","","57","64","","","-0.04","3","77","","","24.33","18.64","60","140","30","11","","","","","","","","","","","","","","","","","","","","","","","","","","","","","","","","","","","","","","","","","","","","","","","","","","","","","","","","","","","","","","","","","","","","","","","","","","","","","","","","","","","","","","","","","","","SYN098AAXX  27184 68558 32980 31410 10180 20139 38240 48554 53012 82101 333 10260 2//// 9//// 555 91026;","","","","","","","","","",""
"68558099999","2005-02-28T14:00:00","-30.9333333","27.6","1819.0","BARKLY EAST, SF","FM-12","4","","51","78","","","+0.03","8","39","","","24.28","18.64","61","000","28","0","","","","","","","","","","","","","","","","","","","","","","","","","","","","","","","","","","","","","","","","","","","","","","","","","","","","","","","","","","","","","","","","","","","","","","","","","","","","","","","","","","","","","","","","","","","SYN098AAXX  28124 68558 32980 20000 10255 20107 38222 48528 58010 82200 333 1//// 20110 9//// 555 91024;","","","","","","","","","",""
"68558099999","2005-02-28T20:00:00","-30.9333333","27.6","1819.0","BARKLY EAST, SF","FM-12","4","","59","67","","","-0.01","3","74","","","24.25","18.64","62","000","25","0","","","","","","","","","","","","","","","","","","","","","","","","","","","","","","","","","","","","","","","","","","","","","","","","","","","","","","","","","","","","","","","","","","","","","","","","","","","","","","","","","","","","","","","","","","","SYN098AAXX  28184 68558 32980 10000 10195 20148 38212 48524 53005 81200 333 10265 2//// 9//// 555 91022;","","","","","","","","","",""
"68558099999","2005-03-01T14:00:00","-30.9333333","27.6","1819.0","BARKLY EAST, SF","FM-12","4","","56","77","","","-0.05","3","48","","","24.24","18.64","64","230","25","19","","","","","","","","","","","","","","","","","","","","","","","","","","","","","","","","","","","","","","","","","","","","","","","","","","","","","","","","","","","","","","","","","","","","","","","","","","","","","","","","","","","","","","","","","","","SYN098AAXX  01124 68558 32980 42317 10250 20131 38207 48513 53017 83202 333 1//// 20125 9//// 555 91022;","","","","","","","","","",""
"68558099999","2005-03-01T20:00:00","-30.9333333","27.6","1819.0","BARKLY EAST, SF","FM-12","4","","55","60","","","-0.03","3","85","","","24.25","18.64","57","000","26","0","","","","","","","","","","","","","","","","","","","","","","","","","","","","","","","","","","","","","","","","","","","","","","","","","","","","","","","","","","","","","","","","","","","","","","","","","","","","","","","","","","","","","","","","","","","SYN098AAXX  01184 68558 32980 50000 10155 20130 38213 48529 53011 83201 333 10255 2//// 9//// 555 91023;","","","","","","","","","",""
"68558099999","2005-03-02T08:00:00","-30.9333333","27.6","1819.0","BARKLY EAST, SF","FM-12","4","","49","51","","","-0.02","3","94","CLR:00","","24.31","18.64","50","000","29","0","","","","","","","","","","","","","","","","","","","","","","","","","","","","","","","","","","","","","","","","","","","","","","","","","","","","","","","","","","","","","","","","","","","","","","","","","","","","","","","","","","","","","","","","","","","SYN092AAXX  02064 68558 32980 00000 10105 20095 38231 48552 53007 333 20090 9//// 555 10255 91025;","","","","","","","","","",""
"68558099999","2005-03-02T14:00:00","-30.9333333","27.6","1819.0","BARKLY EAST, SF","FM-12","4","","53","75","","","+0.02","8","46","","","24.28","18.64","61","320","28","5","","","","","","","","","","","","","","","","","","","","","","","","","","","","","","","","","","","","","","","","","","","","","","","","","","","","","","","","","","","","","","","","","","","","","","","","","","","","","","","","","","","","","","","","","","","SYN098AAXX  02124 68558 32980 33204 10240 20118 38223 48531 58008 83200 333 1//// 20105 9//// 555 91024;","","","","","","","","","",""
"68558099999","2005-03-02T20:00:00","-30.9333333","27.6","1819.0","BARKLY EAST, SF","FM-12","4","","54","62","","","-0.03","3","76","","","24.28","18.64","57","140","28","5","","","","","","","","","","","","","","","","","","","","","","","","","","","","","","","","","","","","","","","","","","","","","","","","","","","","","","","","","","","","","","","","","","","","","","","","","","","","","","","","","","","","","","","","","","","SYN098AAXX  02184 68558 32980 11404 10165 20123 38223 48538 53010 81200 333 10250 2//// 9//// 555 91024;","","","","","","","","","",""
"68558099999","2005-03-03T08:00:00","-30.9333333","27.6","1819.0","BARKLY EAST, SF","FM-12","4","","52","55","","","-0.02","3","89","CLR:00","","24.34","18.64","53","000","30","0","","","","","","","","","","","","","","","","","","","","","","","","","","","","","","","","","","","","","","","","","","","","","","","","","","","","","","","","","","","","","","","","","","","","","","","","","","","","","","","","","","","","","","","","","","","SYN092AAXX  03064 68558 32980 00000 10130 20112 38243 48562 53008 333 20100 9//// 555 10250 91026;","","","","","","","","","",""
"68558099999","2005-03-04T08:00:00","-30.9333333","27.6","1819.0","BARKLY EAST, SF","FM-12","4","","46","52","","","-0.00","3","82","CLR:00","","24.39","18.64","49","000","32","0","","","","","","","","","","","","","","","","","","","","","","","","","","","","","","","","","","","","","","","","","","","","","","","","","","","","","","","","","","","","","","","","","","","","","","","","","","","","","","","","","","","","","","","","","","","SYN092AAXX  04064 68558 32980 00000 10110 20080 38259 48579 53001 333 20085 9//// 555 10235 91028;","","","","","","","","","",""
"68558099999","2005-03-04T20:00:00","-30.9333333","27.6","1819.0","BARKLY EAST, SF","FM-12","4","","55","65","","","","","69","CLR:00","","24.31","18.64","59","000","29","0","","","","","","","","","","","","","","","","","","","","","","","","","","","","","","","","","","","","","","","","","","","","","","","","","","","","","","","","","","","","","","","","","","","","","","","","","","","","","","","","","","","","","","","","","","","SYN092AAXX  04184 68558 32980 00000 10185 20127 38233 48546 53000 333 10250 2//// 9//// 555 91025;","","","","","","","","","",""
"68558099999","2005-03-05T08:00:00","-30.9333333","27.6","1819.0","BARKLY EAST, SF","FM-12","4","","51","54","","","-0.02","3","89","CLR:00","","24.32","18.64","52","000","29","0","","","","","","","","","","","","","","","","","","","","","","","","","","","","","","","","","","","","","","","","","","","","","","","","","","","","","","","","","","","","","","","","","","","","","","","","","","","","","","","","","","","","","","","","","","","SYN092AAXX  05064 68558 32980 00000 10125 20107 38235 48554 53007 333 20095 9//// 555 10250 91025;","","","","","","","","","",""
"68558099999","2005-03-05T14:00:00","-30.9333333","27.6","1819.0","BARKLY EAST, SF","FM-12","4","","47","75","","","+0.04","8","38","","","24.27","18.64","58","000","26","0","","","","","","","","","","","","","","","","","","","","","","","","","","","","","","","","","","","","","","","","","","","","","","","","","","","","","","","","","","","","","","","","","","","","","","","","","","","","","","","","","","","","","","","","","","","SYN098AAXX  05124 68558 32980 10000 10240 20086 38218 48525 58015 81100 333 1//// 20120 9//// 555 91023;","","","","","","","","","",""
"68558099999","2005-03-06T08:00:00","-30.9333333","27.6","1819.0","BARKLY EAST, SF","FM-12","4","","52","54","","","-0.02","3","94","CLR:00","","24.30","18.64","53","000","29","0","","","","","","","","","","","","","","","","","","","","","","","","","","","","","","","","","","","","","","","","","","","","","","","","","","","","","","","","","","","","","","","","","","","","","","","","","","","","","","","","","","","","","","","","","","","SYN092AAXX  06064 68558 32980 00000 10120 20110 38230 48549 53006 333 20095 9//// 555 10250 91025;","","","","","","","","","",""
"68558099999","2005-03-06T14:00:00","-30.9333333","27.6","1819.0","BARKLY EAST, SF","FM-12","4","","48","77","","","+0.06","8","37","","","24.13","18.64","60","320","21","7","","","","","","","","","","","","","","","","","","","","","","","","","","","","","","","","","","","","","","","","","","","","","","","","","","","","","","","","","","","","","","","","","","","","","","","","","","","","","","","","","","","","","","","","","","","SYN098AAXX  06124 68558 32980 63206 10250 20091 38173 48477 58020 83222 333 1//// 20105 9//// 555 91018;","","","","","","","","","",""
"68558099999","2005-03-06T20:00:00","-30.9333333","27.6","1819.0","BARKLY EAST, SF","FM-12","4","","46","67","","","-0.03","3","48","","","24.14","18.64","55","050","","77s","","","","","","","","","","","","","","","","","","","","","","","","","","","","","","","","","","","","","","","","","","","","","","","","","","","","","","","","","","","","","","","","","","","","","","","","","","","","","","","","","","","","","","","","","","","SYN098AAXX  06184 68558 32980 80567 10195 20080 38175 48485 53010 84221 333 10270 2//// 9//// 555 91018;","","","","","","","","","",""
"68558099999","2005-03-07T14:00:00","-30.9333333","27.6","1819.0","BARKLY EAST, SF","FM-12","4","","51","68","","","+0.04","8","56","","","24.11","12.43","58","230","19","5","","","","","","","","","","","","","","","","","","","","","","","","","","","","","","","","","","","","","","","","","","","","","","","","","","","","","","","","","","","","","","","","","","","","","","","","","","","","","","","","","","","","","","","","","","","SYN098AAXX  07124 68558 32770 72304 10200 20108 38166 48476 58013 84221 333 1//// 20120 9//// 555 91017;","","","","","","","","","",""
"68558099999","2005-03-08T08:00:00","-30.9333333","27.6","1819.0","BARKLY EAST, SF","FM-12","4","","47","54","","","+0.01","8","78","","","24.10","18.64","50","050","18","11","","","","","","","","","","","","","","","","","","","","","","","","","","","","","","","","","","","","","","","","","","","","","","","","","","","","","","","","","","","","","","","","","","","","","","","","","","","","","","","","","","","","","","","","","","","SYN110AAXX  08064 68558 12980 50510 10120 20083 38162 48481 58005 60104 83221 333 20090 9//// 555 10265 20095 91016;","","","","","","","","","",""
"68558099999","2005-03-08T14:00:00","-30.9333333","27.6","1819.0","BARKLY EAST, SF","FM-12","4","","45","66","","","+0.02","8","46","","","24.09","18.64","54","320","18","9","","","","","","","","","","","","","","","","","","","","","","","","","","","","","","","","","","","","","","","","","","","","","","","","","","","","","","","","","","","","","","","","","","","","","","","","","","","","","","","","","","","","","","","","","","","SYN098AAXX  08124 68558 32980 53208 10190 20072 38157 48467 58006 82221 333 1//// 20120 9//// 555 91016;","","","","","","","","","",""
"68558099999","2005-03-08T20:00:00","-30.9333333","27.6","1819.0","BARKLY EAST, SF","FM-12","4","","46","56","","","-0.04","3","69","","","24.13","18.64","51","180","19","11","","","","","","","","","","","","","","","","","","","","","","","","","","","","","","","","","","","","","","","","","","","","","","","","","","","","","","","","","","","","","","","","","","","","","","","","","","","","","","","","","","","","","","","","","","","SYN098AAXX  08184 68558 32980 21810 10135 20079 38170 48487 53012 82100 333 10210 2//// 9//// 555 91017;","","","","","","","","","",""
"68558099999","2005-03-09T08:00:00","-30.9333333","27.6","1819.0","BARKLY EAST, SF","FM-12","4","","43","45","","","-0.03","3","93","CLR:00","","24.22","18.64","44","000","24","0","","","","","","","","","","","","","","","","","","","","","","","","","","","","","","","","","","","","","","","","","","","","","","","","","","","","","","","","","","","","","","","","","","","","","","","","","","","","","","","","","","","","","","","","","","","SYN092AAXX  09064 68558 32980 00000 10070 20059 38203 48527 53010 333 20050 9//// 555 10210 91021;","","","","","","","","","",""
"68558099999","2005-03-09T14:00:00","-30.9333333","27.6","1819.0","BARKLY EAST, SF","FM-12","4","","36","72","","","+0.03","8","26","CLR:00","","24.21","18.64","53","360","24","15","","","","","","","","","","","","","","","","","","","","","","","","","","","","","","","","","","","","","","","","","","","","","","","","","","","","","","","","","","","","","","","","","","","","","","","","","","","","","","","","","","","","","","","","","","","SYN092AAXX  09124 68558 32980 03613 10225 20022 38198 48506 58010 333 1//// 20070 9//// 555 91021;","","","","","","","","","",""
"68558099999","2005-03-09T20:00:00","-30.9333333","27.6","1819.0","BARKLY EAST, SF","FM-12","4","","30","66","","","+0.01","8","25","CLR:00","","24.14","18.64","48","050","21","11","","","","","","","","","","","","","","","","","","","","","","","","","","","","","","","","","","","","","","","","","","","","","","","","","","","","","","","","","","","","","","","","","","","","","","","","","","","","","","","","","","","","","","","","","","","SYN092AAXX  09184 68558 32980 00510 10190 21013 38175 48486 58002 333 10240 2//// 9//// 555 91018;","","","","","","","","","",""
"68558099999","2005-03-10T08:00:00","-30.9333333","27.6","1819.0","BARKLY EAST, SF","FM-12","4","","38","56","","","-0.04","3","50","","","24.17","18.64","47","000","22","0","","","","","","","","","","","","","","","","","","","","","","","","","","","","","","","","","","","","","","","","","","","","","","","","","","","","","","","","","","","","","","","","","","","","","","","","","","","","","","","","","","","","","","","","","","","SYN098AAXX  10064 68558 32980 10000 10135 20033 38185 48502 53013 81100 333 20100 9//// 555 10240 91019;","","","","","","","","","",""
"68558099999","2005-03-10T14:00:00","-30.9333333","27.6","1819.0","BARKLY EAST, SF","FM-12","4","","49","69","","","-0.01","3","48","","","24.19","18.64","57","140","23","11","","","","","","","","","","","","","","","","","","","","","","","","","","","","","","","","","","","","","","","","","","","","","","","","","","","","","","","","","","","","","","","","","","","","","","","","","","","","","","","","","","","","","","","","","","","SYN098AAXX  10124 68558 32980 61410 10205 20092 38192 48502 53003 83121 333 1//// 20140 9//// 555 91020;","","","","","","","","","",""
"68558099999","2005-03-10T20:00:00","-30.9333333","27.6","1819.0","BARKLY EAST, SF","FM-12","4","","45","51","","","-0.07","3","82","","","24.28","18.64","48","140","28","11","","","","","","","","","","","","","","","","","","","","","","","","","","","","","","","","","","","","","","","","","","","","","","","","","","","","","","","","","","","","","","","","","","","","","","","","","","","","","","","","","","","","","","","","","","","SYN098AAXX  10184 68558 32980 71410 10105 20075 38223 48544 53025 83222 333 10225 2//// 9//// 555 91024;","","","","","","","","","",""
"68558099999","2005-03-12T08:00:00","-30.9333333","27.6","1819.0","BARKLY EAST, SF","FM-12","4","","41","45","","","-0.02","3","86","CLR:00","","24.41","18.64","43","000","33","0","","","","","","","","","","","","","","","","","","","","","","","","","","","","","","","","","","","","","","","","","","","","","","","","","","","","","","","","","","","","","","","","","","","","","","","","","","","","","","","","","","","","","","","","","","","SYN092AAXX  12064 68558 32980 00000 10070 20048 38265 48589 53007 333 20045 9//// 555 10220 91029;","","","","","","","","","",""
"68558099999","2005-03-12T20:00:00","-30.9333333","27.6","1819.0","BARKLY EAST, SF","FM-12","4","","49","59","","","-0.01","3","70","CLR:00","","24.34","18.64","53","140","30","7","","","","","","","","","","","","","","","","","","","","","","","","","","","","","","","","","","","","","","","","","","","","","","","","","","","","","","","","","","","","","","","","","","","","","","","","","","","","","","","","","","","","","","","","","","","SYN092AAXX  12184 68558 32980 01406 10150 20096 38242 48559 53003 333 10215 2//// 9//// 555 91026;","","","","","","","","","",""
"68558099999","2005-03-12T21:00:00","-30.9333333","27.6","1819.0","BARKLY EAST, SF","FM-12","4","","49","59","","","","","70","CLR:00","","","18.64","","140","","7","","","","","","","","","","","","","","","","","","","","","","","","","","","","","","","","","","","","","","","","","","","","","","","","","","","","","","","","","","","","","","","","","","","","","","","","","","","","","","","","","","","","","","","","","","","SYN092AAXX  12194 68558 32980 01406 10150 20096 10215 2//// 38242 48559 53003 EEE 9//// 555 91026;","","","","","","","","","",""
"68558099999","2005-03-13T08:00:00","-30.9333333","27.6","1819.0","BARKLY EAST, SF","FM-12","4","","41","57","","","-0.01","3","55","","","24.32","18.64","49","000","29","0","","","","","","","","","","","","","","","","","","","","","","","","","","","","","","","","","","","","","","","","","","","","","","","","","","","","","","","","","","","","","","","","","","","","","","","","","","","","","","","","","","","","","","","","","","","SYN098AAXX  13064 68558 32980 20000 10140 20051 38237 48555 53005 82100 333 20060 9//// 555 10215 91025;","","","","","","","","","",""
"68558099999","2005-03-13T20:00:00","-30.9333333","27.6","1819.0","BARKLY EAST, SF","FM-12","4","","53","59","","","-0.02","3","80","","","24.26","12.43","55","000","26","0","","","","","","","","","","","","","","","","","","","","","","","","","","","","","","","","","","","","","","","","","","","","","","","","","","","","","","","","","","","","","","","","","","","","","","","","","","","","","","","","","","","","","","","","","","","SYN098AAXX  13184 68558 32770 50000 10150 20116 38214 48530 53007 82322 333 10240 2//// 9//// 555 91023;","","","","","","","","","",""
"68558099999","2005-03-14T08:00:00","-30.9333333","27.6","1819.0","BARKLY EAST, SF","FM-12","4","","45","52","","||DZ","-0.02","3","77","","","24.29","12.43","48","050","28","7","","","","","","","","","","","","","","","","","","","","","","","","","","","","","","","","","","","","","","","","","","","","","","","","","","","","","","","","","","","","","","","","","","","","","","","","","","","","","","","","","","","","","","","","","","","SYN116AAXX  14064 68558 11770 80506 10110 20071 38227 48547 53006 60044 75052 84222 333 20105 9//// 555 10240 20035 91024;","","","","","","","","","",""
"68558099999","2005-03-14T14:00:00","-30.9333333","27.6","1819.0","BARKLY EAST, SF","FM-12","4","","48","52","","||DZ","+0.02","8","88","","","24.27","12.43","50","050","26","7","","","","","","","","","","","","","","","","","","","","","","","","","","","","","","","","","","","","","","","","","","","","","","","","","","","","","","","","","","","","","","","","","","","","","","","","","","","","","","","","","","","","","","","","","","","SYN104AAXX  14124 68558 31770 80506 10110 20091 38220 48540 58007 75052 83222 333 1//// 20095 9//// 555 91023;","","","","","","","","","",""
"68558099999","2005-03-15T08:00:00","-30.9333333","27.6","1819.0","BARKLY EAST, SF","FM-12","4","","47","50","","","-0.01","3","88","","","24.28","18.64","48","000","28","0","","","","","","","","","","","","","","","","","","","","","","","","","","","","","","","","","","","","","","","","","","","","","","","","","","","","","","","","","","","","","","","","","","","","","","","","","","","","","","","","","","","","","","","","","","","SYN110AAXX  15064 68558 12980 70000 10100 20081 38222 48543 53005 60064 85201 333 20080 9//// 555 10140 20055 91024;","","","","","","","","","",""
"68558099999","2005-03-15T14:00:00","-30.9333333","27.6","1819.0","BARKLY EAST, SF","FM-12","4","","49","66","","","+0.04","8","54","","","24.30","18.64","56","050","29","7","","","","","","","","","","","","","","","","","","","","","","","","","","","","","","","","","","","","","","","","","","","","","","","","","","","","","","","","","","","","","","","","","","","","","","","","","","","","","","","","","","","","","","","","","","","SYN098AAXX  15124 68558 32980 50506 10190 20093 38230 48543 58013 84201 333 1//// 20100 9//// 555 91025;","","","","","","","","","",""
"68558099999","2005-03-15T20:00:00","-30.9333333","27.6","1819.0","BARKLY EAST, SF","FM-12","4","","51","55","","","-0.02","3","84","","","24.27","18.64","53","000","26","0","","","","","","","","","","","","","","","","","","","","","","","","","","","","","","","","","","","","","","","","","","","","","","","","","","","","","","","","","","","","","","","","","","","","","","","","","","","","","","","","","","","","","","","","","","","SYN098AAXX  15184 68558 32980 20000 10130 20103 38219 48537 53006 82100 333 10200 2//// 9//// 555 91023;","","","","","","","","","",""
"68558099999","2005-03-16T08:00:00","-30.9333333","27.6","1819.0","BARKLY EAST, SF","FM-12","4","","52","55","","","-0.05","3","89","","","24.33","18.64","53","000","30","0","","","","","","","","","","","","","","","","","","","","","","","","","","","","","","","","","","","","","","","","","","","","","","","","","","","","","","","","","","","","","","","","","","","","","","","","","","","","","","","","","","","","","","","","","","","SYN110AAXX  16064 68558 12980 50000 10130 20112 38239 48558 53016 60024 83201 333 20090 9//// 555 10200 20020 91026;","","","","","","","","","",""
"68558099999","2005-03-16T14:00:00","-30.9333333","27.6","1819.0","BARKLY EAST, SF","FM-12","4","","50","65","","","+0.04","8","57","","","24.31","18.64","56","320","29","7","","","","","","","","","","","","","","","","","","","","","","","","","","","","","","","","","","","","","","","","","","","","","","","","","","","","","","","","","","","","","","","","","","","","","","","","","","","","","","","","","","","","","","","","","","","SYN098AAXX  16124 68558 32980 63206 10185 20099 38232 48545 58013 82222 333 1//// 20130 9//// 555 91025;","","","","","","","","","",""
"68558099999","2005-03-17T08:00:00","-30.9333333","27.6","1819.0","BARKLY EAST, SF","FM-12","4","","44","45","","","-0.04","3","93","CLR:00","","24.36","18.64","44","000","31","0","","","","","","","","","","","","","","","","","","","","","","","","","","","","","","","","","","","","","","","","","","","","","","","","","","","","","","","","","","","","","","","","","","","","","","","","","","","","","","","","","","","","","","","","","","","SYN092AAXX  17064 68558 32980 00000 10075 20064 38248 48571 53012 333 20065 9//// 555 10200 91027;","","","","","","","","","",""
"68558099999","2005-03-17T14:00:00","-30.9333333","27.6","1819.0","BARKLY EAST, SF","FM-12","4","","44","72","","","+0.04","8","35","","","24.34","18.64","56","320","30","7","","","","","","","","","","","","","","","","","","","","","","","","","","","","","","","","","","","","","","","","","","","","","","","","","","","","","","","","","","","","","","","","","","","","","","","","","","","","","","","","","","","","","","","","","","","SYN098AAXX  17124 68558 32980 33206 10225 20064 38241 48551 58012 82101 333 1//// 20075 9//// 555 91026;","","","","","","","","","",""
"68558099999","2005-03-17T20:00:00","-30.9333333","27.6","1819.0","BARKLY EAST, SF","FM-12","4","","45","66","","","-0.03","3","46","","","24.36","18.64","54","140","31","7","","","","","","","","","","","","","","","","","","","","","","","","","","","","","","","","","","","","","","","","","","","","","","","","","","","","","","","","","","","","","","","","","","","","","","","","","","","","","","","","","","","","","","","","","","","SYN098AAXX  17184 68558 32980 31406 10190 20072 38250 48563 53011 82101 333 10235 2//// 9//// 555 91027;","","","","","","","","","",""
"68558099999","2005-03-18T14:00:00","-30.9333333","27.6","1819.0","BARKLY EAST, SF","FM-12","4","","39","76","","","+0.04","8","26","CLR:00","","24.34","18.64","55","230","30","5","","","","","","","","","","","","","","","","","","","","","","","","","","","","","","","","","","","","","","","","","","","","","","","","","","","","","","","","","","","","","","","","","","","","","","","","","","","","","","","","","","","","","","","","","","","SYN092AAXX  18124 68558 32980 02304 10245 20039 38243 48551 58015 333 1//// 20080 9//// 555 91026;","","","","","","","","","",""
"68558099999","2005-03-18T20:00:00","-30.9333333","27.6","1819.0","BARKLY EAST, SF","FM-12","4","","42","59","","","-0.02","2","53","","","24.34","18.64","50","140","30","7","","","","","","","","","","","","","","","","","","","","","","","","","","","","","","","","","","","","","","","","","","","","","","","","","","","","","","","","","","","","","","","","","","","","","","","","","","","","","","","","","","","","","","","","","","","SYN098AAXX  18184 68558 32980 11406 10150 20053 38243 48560 52006 81100 333 10255 2//// 9//// 555 91026;","","","","","","","","","",""
"68558099999","2005-03-19T08:00:00","-30.9333333","27.6","1819.0","BARKLY EAST, SF","FM-12","4","","50","74","","","-0.01","2","43","","","27.02s","13.67","60","010","","5","","","","","","","","","","","","","","","","","","","","","","","","","","","","","","","","","","","","","","","","","","","","","","","","","","","","","","","","","","","","","","","","","","","","","","","","","","","","","","","","","","","","","","","","","","","SYN098AAXX  19064 68558 32972 20104 10235 20100 39151 4//// 52003 80001 333 20173 9//// 555 10308 9////;","","","","","","","","","",""
"68558099999","2005-03-19T14:00:00","-30.9333333","27.6","1819.0","BARKLY EAST, SF","FM-12","4","","47","73","","","+0.04","8","39","","","","18.64","","230","30","7","","","","","","","","","","","","","","","","","","","","","","","","","","","","","","","","","","","","","","","","","","","","","","","","","","","","","","","","","","","","","","","","","","","","","","","","","","","","","","","","","","","","","","","","","","","SYN098AAXX  19124 68558 32980 72306 10230 20081 38241 48550 58013 84221 333 1//// 20075 9//// 555 91026;","","","","","","","","","",""
"68558099999","2005-03-20T20:00:00","-30.9333333","27.6","1819.0","BARKLY EAST, SF","FM-12","4","","49","64","","","-0.01","3","57","","","24.23","18.64","55","320","24","13","","","","","","","","","","","","","","","","","","","","","","","","","","","","","","","","","","","","","","","","","","","","","","","","","","","","","","","","","","","","","","","","","","","","","","","","","","","","","","","","","","","","","","","","","","","SYN098AAXX  20184 68558 32980 63211 10180 20092 38204 48517 53003 83222 333 10255 2//// 9//// 555 91021;","","","","","","","","","",""
"68558099999","2005-03-21T08:00:00","-30.9333333","27.6","1819.0","BARKLY EAST, SF","FM-12","4","","54","56","","","-0.02","3","94","","","24.29","18.64","55","000","28","0","","","","","","","","","","","","","","","","","","","","","","","","","","","","","","","","","","","","","","","","","","","","","","","","","","","","","","","","","","","","","","","","","","","","","","","","","","","","","","","","","","","","","","","","","","","SYN110AAXX  21064 68558 12980 70000 10135 20125 38225 48543 53007 60094 82101 333 20100 9//// 555 10255 20090 91024;","","","","","","","","","",""
"68558099999","2005-03-21T14:00:00","-30.9333333","27.6","1819.0","BARKLY EAST, SF","FM-12","4","","46","54","","","-0.01","3","73","","","24.32","18.64","50","140","29","13","","","","","","","","","","","","","","","","","","","","","","","","","","","","","","","","","","","","","","","","","","","","","","","","","","","","","","","","","","","","","","","","","","","","","","","","","","","","","","","","","","","","","","","","","","","SYN098AAXX  21124 68558 32980 81411 10125 20078 38235 48554 53002 83221 333 1//// 20115 9//// 555 91025;","","","","","","","","","",""
"68558099999","2005-03-21T20:00:00","-30.9333333","27.6","1819.0","BARKLY EAST, SF","FM-12","4","","50","54","","","-0.02","3","88","","","24.34","18.64","52","180","30","13","","","","","","","","","","","","","","","","","","","","","","","","","","","","","","","","","","","","","","","","","","","","","","","","","","","","","","","","","","","","","","","","","","","","","","","","","","","","","","","","","","","","","","","","","","","SYN098AAXX  21184 68558 32980 71811 10120 20100 38241 48560 53007 84221 333 10155 2//// 9//// 555 91026;","","","","","","","","","",""
"68558099999","2005-03-22T08:00:00","-30.9333333","27.6","1819.0","BARKLY EAST, SF","FM-12","4","","50","52","","","-0.04","3","94","","","24.38","18.64","51","000","32","0","","","","","","","","","","","","","","","","","","","","","","","","","","","","","","","","","","","","","","","","","","","","","","","","","","","","","","","","","","","","","","","","","","","","","","","","","","","","","","","","","","","","","","","","","","","SYN098AAXX  22064 68558 32980 60000 10110 20100 38255 48575 53012 83101 333 20095 9//// 555 10155 91028;","","","","","","","","","",""
"68558099999","2005-03-22T14:00:00","-30.9333333","27.6","1819.0","BARKLY EAST, SF","FM-12","4","","50","67","","","+0.03","8","54","","","24.36","18.64","57","280","","","","","","","","","","","","","","","","","","","","","","","","","","","","","","","","","","","","","","","","","","","","","","","","","","","","","","","","","","","","","","","","","","","","","","","","","","","","","","","","","","","","","","","","","","","","","SYN098AAXX  22124 68558 32980 32876 10195 20100 38250 48563 58011 83222 333 1//// 20110 9//// 555 91027;","","","","","","","","","",""
"68558099999","2005-03-22T20:00:00","-30.9333333","27.6","1819.0","BARKLY EAST, SF","FM-12","4","","52","60","","","-0.04","3","75","","","24.38","18.64","55","000","32","0","","","","","","","","","","","","","","","","","","","","","","","","","","","","","","","","","","","","","","","","","","","","","","","","","","","","","","","","","","","","","","","","","","","","","","","","","","","","","","","","","","","","","","","","","","","SYN098AAXX  22184 68558 32980 40000 10155 20111 38256 48573 53013 81201 333 10220 2//// 9//// 555 91028;","","","","","","","","","",""
"68558099999","2005-03-23T08:00:00","-30.9333333","27.6","1819.0","BARKLY EAST, SF","FM-12","4","","45","51","","","-0.02","3","82","CLR:00","","24.41","18.64","48","000","33","0","","","","","","","","","","","","","","","","","","","","","","","","","","","","","","","","","","","","","","","","","","","","","","","","","","","","","","","","","","","","","","","","","","","","","","","","","","","","","","","","","","","","","","","","","","","SYN092AAXX  23064 68558 32980 00000 10105 20075 38266 48587 53008 333 20070 9//// 555 10220 91029;","","","","","","","","","",""
"68558099999","2005-03-23T14:00:00","-30.9333333","27.6","1819.0","BARKLY EAST, SF","FM-12","4","","47","76","","","+0.06","8","35","","","24.34","18.64","59","000","30","0","","","","","","","","","","","","","","","","","","","","","","","","","","","","","","","","","","","","","","","","","","","","","","","","","","","","","","","","","","","","","","","","","","","","","","","","","","","","","","","","","","","","","","","","","","","SYN098AAXX  23124 68558 32980 10000 10245 20082 38243 48551 58019 81100 333 1//// 20100 9//// 555 91026;","","","","","","","","","",""
"68558099999","2005-03-23T20:00:00","-30.9333333","27.6","1819.0","BARKLY EAST, SF","FM-12","4","","49","62","","","-0.01","3","64","CLR:00","","24.33","18.64","55","140","30","7","","","","","","","","","","","","","","","","","","","","","","","","","","","","","","","","","","","","","","","","","","","","","","","","","","","","","","","","","","","","","","","","","","","","","","","","","","","","","","","","","","","","","","","","","","","SYN092AAXX  23184 68558 32980 01406 10165 20095 38239 48554 53005 333 10250 2//// 9//// 555 91026;","","","","","","","","","",""
"68558099999","2005-03-24T08:00:00","-30.9333333","27.6","1819.0","BARKLY EAST, SF","FM-12","4","","45","47","","","-0.02","3","93","","","24.33","18.64","46","000","30","0","","","","","","","","","","","","","","","","","","","","","","","","","","","","","","","","","","","","","","","","","","","","","","","","","","","","","","","","","","","","","","","","","","","","","","","","","","","","","","","","","","","","","","","","","","","SYN098AAXX  24064 68558 32980 30000 10085 20074 38240 48563 53006 82101 333 20080 9//// 555 10250 91026;","","","","","","","","","",""
"68558099999","2005-03-24T14:00:00","-30.9333333","27.6","1819.0","BARKLY EAST, SF","FM-12","4","","51","72","","","+0.06","8","48","","","24.26","18.64","59","320","26","9","","","","","","","","","","","","","","","","","","","","","","","","","","","","","","","","","","","","","","","","","","","","","","","","","","","","","","","","","","","","","","","","","","","","","","","","","","","","","","","","","","","","","","","","","","","SYN098AAXX  24124 68558 32980 33208 10220 20103 38215 48524 58022 83100 333 1//// 20085 9//// 555 91023;","","","","","","","","","",""
"68558099999","2005-03-25T14:00:00","-30.9333333","27.6","1819.0","BARKLY EAST, SF","FM-12","4","","56","63","","","+0.04","8","77","","","24.16","12.43","59","000","22","0","","","","","","","","","","","","","","","","","","","","","","","","","","","","","","","","","","","","","","","","","","","","","","","","","","","","","","","","","","","","","","","","","","","","","","","","","","","","","","","","","","","","","","","","","","","SYN098AAXX  25124 68558 32970 70000 10175 20134 38180 48493 58012 84222 333 1//// 20105 9//// 555 91019;","","","","","","","","","",""
"68558099999","2005-03-26T08:00:00","-30.9333333","27.6","1819.0","BARKLY EAST, SF","FM-12","4","","53","56","","","-0.02","3","89","","","24.08","18.64","54","000","18","0","","","","","","","","","","","","","","","","","","","","","","","","","","","","","","","","","","","","","","","","","","","","","","","","","","","","","","","","","","","","","","","","","","","","","","","","","","","","","","","","","","","","","","","","","","","SYN098AAXX  26064 68558 32980 20000 10135 20117 38154 48471 53006 81101 333 20100 9//// 555 10235 91016;","","","","","","","","","",""
"68558099999","2005-03-26T14:00:00","-30.9333333","27.6","1819.0","BARKLY EAST, SF","FM-12","4","","50","67","","","+0.02","8","54","","","24.14","18.64","57","000","21","0","","","","","","","","","","","","","","","","","","","","","","","","","","","","","","","","","","","","","","","","","","","","","","","","","","","","","","","","","","","","","","","","","","","","","","","","","","","","","","","","","","","","","","","","","","","SYN098AAXX  26124 68558 32980 50000 10195 20100 38175 48485 58007 83220 333 1//// 20130 9//// 555 91018;","","","","","","","","","",""
"68558099999","2005-03-26T20:00:00","-30.9333333","27.6","1819.0","BARKLY EAST, SF","FM-12","4","","55","57","","","-0.03","3","94","","","24.21","12.43","56","140","24","7","","","","","","","","","","","","","","","","","","","","","","","","","","","","","","","","","","","","","","","","","","","","","","","","","","","","","","","","","","","","","","","","","","","","","","","","","","","","","","","","","","","","","","","","","","","SYN098AAXX  26184 68558 32770 81406 10140 20130 38199 48516 53010 82322 333 10215 2//// 9//// 555 91021;","","","","","","","","","",""
"68558099999","2005-03-27T08:00:00","-30.9333333","27.6","1819.0","BARKLY EAST, SF","FM-12","4","","51","54","","","-0.02","3","89","","","24.18","18.64","52","000","23","0","","","","","","","","","","","","","","","","","","","","","","","","","","","","","","","","","","","","","","","","","","","","","","","","","","","","","","","","","","","","","","","","","","","","","","","","","","","","","","","","","","","","","","","","","","","SYN110AAXX  27064 68558 12980 50000 10125 20107 38188 48507 53006 60244 83101 333 20125 9//// 555 10215 20240 91020;","","","","","","","","","",""
"68558099999","2005-03-27T14:00:00","-30.9333333","27.6","1819.0","BARKLY EAST, SF","FM-12","4","","49","68","","","+0.03","8","51","","","24.14","18.64","57","320","21","7","","","","","","","","","","","","","","","","","","","","","","","","","","","","","","","","","","","","","","","","","","","","","","","","","","","","","","","","","","","","","","","","","","","","","","","","","","","","","","","","","","","","","","","","","","","SYN098AAXX  27124 68558 32980 43206 10200 20096 38176 48486 58010 82101 333 1//// 20125 9//// 555 91018;","","","","","","","","","",""
"68558099999","2005-03-27T20:00:00","-30.9333333","27.6","1819.0","BARKLY EAST, SF","FM-12","4","","44","61","","","-0.01","3","54","","","24.14","18.64","52","050","21","11","","","","","","","","","","","","","","","","","","","","","","","","","","","","","","","","","","","","","","","","","","","","","","","","","","","","","","","","","","","","","","","","","","","","","","","","","","","","","","","","","","","","","","","","","","","SYN098AAXX  27184 68558 32980 50510 10160 20067 38176 48490 53005 83101 333 10215 2//// 9//// 555 91018;","","","","","","","","","",""
"68558099999","2005-03-28T08:00:00","-30.9333333","27.6","1819.0","BARKLY EAST, SF","FM-12","4","","47","51","","","-0.04","3","88","","","24.23","18.64","49","000","25","0","","","","","","","","","","","","","","","","","","","","","","","","","","","","","","","","","","","","","","","","","","","","","","","","","","","","","","","","","","","","","","","","","","","","","","","","","","","","","","","","","","","","","","","","","","","SYN098AAXX  28064 68558 32980 20000 10105 20086 38206 48527 53012 82100 333 20075 9//// 555 10215 91022;","","","","","","","","","",""
"68558099999","2005-03-28T14:00:00","-30.9333333","27.6","1819.0","BARKLY EAST, SF","FM-12","4","","44","67","","","-0.02","2","44","","","24.22","18.64","54","320","24","11","","","","","","","","","","","","","","","","","","","","","","","","","","","","","","","","","","","","","","","","","","","","","","","","","","","","","","","","","","","","","","","","","","","","","","","","","","","","","","","","","","","","","","","","","","","SYN098AAXX  28124 68558 32980 43210 10195 20067 38201 48512 52008 84200 333 1//// 20100 9//// 555 91021;","","","","","","","","","",""
"68558099999","2005-03-28T20:00:00","-30.9333333","27.6","1819.0","BARKLY EAST, SF","FM-12","4","","49","53","","","-0.04","3","88","","","24.25","18.64","51","140","26","13","","","","","","","","","","","","","","","","","","","","","","","","","","","","","","","","","","","","","","","","","","","","","","","","","","","","","","","","","","","","","","","","","","","","","","","","","","","","","","","","","","","","","","","","","","","SYN098AAXX  28184 68558 32980 41411 10115 20096 38213 48533 53015 82101 333 10215 2//// 9//// 555 91023;","","","","","","","","","",""
"68558099999","2005-03-29T08:00:00","-30.9333333","27.6","1819.0","BARKLY EAST, SF","FM-12","4","","44","45","","","-0.01","3","93","CLR:00","","24.28","18.64","44","000","28","0","","","","","","","","","","","","","","","","","","","","","","","","","","","","","","","","","","","","","","","","","","","","","","","","","","","","","","","","","","","","","","","","","","","","","","","","","","","","","","","","","","","","","","","","","","","SYN092AAXX  29064 68558 32980 00000 10075 20064 38223 48547 53005 333 20045 9//// 555 10215 91024;","","","","","","","","","",""
"68558099999","2005-03-29T14:00:00","-30.9333333","27.6","1819.0","BARKLY EAST, SF","FM-12","4","","37","69","","","+0.04","8","31","","","24.24","18.64","52","320","25","17","","","","","","","","","","","","","","","","","","","","","","","","","","","","","","","","","","","","","","","","","","","","","","","","","","","","","","","","","","","","","","","","","","","","","","","","","","","","","","","","","","","","","","","","","","","SYN098AAXX  29124 68558 32980 33215 10205 20029 38209 48519 58013 83100 333 1//// 20020 9//// 555 91022;","","","","","","","","","",""
"68558099999","2005-03-29T20:00:00","-30.9333333","27.6","1819.0","BARKLY EAST, SF","FM-12","4","","37","63","","","-0.01","3","39","CLR:00","","24.22","18.64","49","060","24","7","","","","","","","","","","","","","","","","","","","","","","","","","","","","","","","","","","","","","","","","","","","","","","","","","","","","","","","","","","","","","","","","","","","","","","","","","","","","","","","","","","","","","","","","","","","SYN092AAXX  29184 68558 32980 00606 10170 20030 38203 48517 53003 333 10225 2//// 9//// 555 91021;","","","","","","","","","",""
"68558099999","2005-03-30T08:00:00","-30.9333333","27.6","1819.0","BARKLY EAST, SF","FM-12","4","","38","62","","","-0.02","3","42","CLR:00","","24.22","18.64","49","360","24","11","","","","","","","","","","","","","","","","","","","","","","","","","","","","","","","","","","","","","","","","","","","","","","","","","","","","","","","","","","","","","","","","","","","","","","","","","","","","","","","","","","","","","","","","","","","SYN092AAXX  30064 68558 32980 03610 10165 20036 38203 48517 53008 333 20105 9//// 555 10225 91021;","","","","","","","","","",""
"68558099999","2005-03-30T14:00:00","-30.9333333","27.6","1819.0","BARKLY EAST, SF","FM-12","4","","36","74","","","+0.03","8","25","","","24.19","18.64","53","320","23","19","","","","","","","","","","","","","","","","","","","","","","","","","","","","","","","","","","","","","","","","","","","","","","","","","","","","","","","","","","","","","","","","","","","","","","","","","","","","","","","","","","","","","","","","","","","SYN098AAXX  30124 68558 32980 43217 10235 20025 38192 48499 58011 84100 333 1//// 20160 9//// 555 91020;","","","","","","","","","",""
"68558099999","2005-03-30T20:00:00","-30.9333333","27.6","1819.0","BARKLY EAST, SF","FM-12","4","","38","66","","","-0.02","3","35","","","24.20","18.64","51","320","24","9","","","","","","","","","","","","","","","","","","","","","","","","","","","","","","","","","","","","","","","","","","","","","","","","","","","","","","","","","","","","","","","","","","","","","","","","","","","","","","","","","","","","","","","","","","","SYN098AAXX  30184 68558 32980 33208 10190 20033 38196 48508 53006 82101 333 10245 2//// 9//// 555 91021;","","","","","","","","","",""
"68558099999","2005-03-31T08:00:00","-30.9333333","27.6","1819.0","BARKLY EAST, SF","FM-12","4","","30","53","","","-0.03","3","43","","","24.24","18.64","42","000","25","0","","","","","","","","","","","","","","","","","","","","","","","","","","","","","","","","","","","","","","","","","","","","","","","","","","","","","","","","","","","","","","","","","","","","","","","","","","","","","","","","","","","","","","","","","","","SYN098AAXX  31064 68558 32980 10000 10115 21009 38207 48527 53009 81100 333 20100 9//// 555 10245 91022;","","","","","","","","","",""
"68558099999","2005-03-31T14:00:00","-30.9333333","27.6","1819.0","BARKLY EAST, SF","FM-12","4","","30","72","","","+0.02","8","20","","","24.22","18.64","50","320","24","17","","","","","","","","","","","","","","","","","","","","","","","","","","","","","","","","","","","","","","","","","","","","","","","","","","","","","","","","","","","","","","","","","","","","","","","","","","","","","","","","","","","","","","","","","","","SYN098AAXX  31124 68558 42980 13215 10225 21013 38202 48510 58007 81100 333 1//// 20050 9//// 555 91021;","","","","","","","","","",""
"68558099999","2005-03-31T20:00:00","-30.9333333","27.6","1819.0","BARKLY EAST, SF","FM-12","4","","43","66","","","+0.01","8","43","","","24.19","18.64","53","050","23","7","","","","","","","","","","","","","","","","","","","","","","","","","","","","","","","","","","","","","","","","","","","","","","","","","","","","","","","","","","","","","","","","","","","","","","","","","","","","","","","","","","","","","","","","","","","SYN098AAXX  31184 68558 32980 10506 10190 20062 38192 48504 58003 81100 333 10240 2//// 9//// 555 91020;","","","","","","","","","",""
"68558099999","2005-04-01T08:00:00","-30.9333333","27.6","1819.0","BARKLY EAST, SF","FM-12","4","","51","61","","","-0.02","3","71","","","24.17","18.64","55","320","22","11","","","","","","","","","","","","","","","","","","","","","","","","","","","","","","","","","","","","","","","","","","","","","","","","","","","","","","","","","","","","","","","","","","","","","","","","","","","","","","","","","","","","","","","","","","","SYN098AAXX  01064 68558 32980 63210 10160 20108 38184 48499 53006 84222 333 20140 9//// 555 10240 91019;","","","","","","","","","",""
"68558099999","2005-04-01T14:00:00","-30.9333333","27.6","1819.0","BARKLY EAST, SF","FM-12","4","","54","70","","","+0.08","8","57","","","24.08","18.64","60","320","","22","","","","","","","","","","","","","","","","","","","","","","","","","","","","","","","","","","","","","","","","","","","","","","","","","","","","","","","","","","","","","","","","","","","","","","","","","","","","","","","","","","","","","","","","","","","SYN098AAXX  01124 68558 32980 63219 10210 20120 38155 48463 58026 83222 333 1//// 20150 9//// 555 91016;","","","","","","","","","",""
"68558099999","2005-04-01T20:00:00","-30.9333333","27.6","1819.0","BARKLY EAST, SF","FM-12","4","","52","55","","||RA","-0.04","3","89","","","24.20","18.64","53","140","24","11","","","","","","","","","","","","","","","","","","","","","","","","","","","","","","","","","","","","","","","","","","","","","","","","","","","","","","","","","","","","","","","","","","","","","","","","","","","","","","","","","","","","","","","","","","","SYN104AAXX  01184 68558 31980 81410 10130 20112 38196 48514 53015 76162 85222 333 10225 2//// 9//// 555 91021;","","","","","","","","","",""
"68558099999","2005-04-02T08:00:00","-30.9333333","27.6","1819.0","BARKLY EAST, SF","FM-12","4","","41","46","","","-0.07","3","81","","","24.31","18.64","43","140","29","11","","","","","","","","","","","","","","","","","","","","","","","","","","","","","","","","","","","","","","","","","","","","","","","","","","","","","","","","","","","","","","","","","","","","","","","","","","","","","","","","","","","","","","","","","","","SYN110AAXX  02064 68558 12980 51410 10080 20049 38232 48555 53023 60214 84101 333 20070 9//// 555 10225 20205 91025;","","","","","","","","","",""
"68558099999","2005-04-02T14:00:00","-30.9333333","27.6","1819.0","BARKLY EAST, SF","FM-12","4","","45","55","","","+0.01","8","68","","","24.32","18.64","50","140","29","19","","","","","","","","","","","","","","","","","","","","","","","","","","","","","","","","","","","","","","","","","","","","","","","","","","","","","","","","","","","","","","","","","","","","","","","","","","","","","","","","","","","","","","","","","","","SYN098AAXX  02124 68558 32280 31417 10130 20072 38235 48553 58005 82101 333 1//// 20080 9//// 555 91025;","","","","","","","","","",""
"68558099999","2005-04-03T08:00:00","-30.9333333","27.6","1819.0","BARKLY EAST, SF","FM-12","4","","45","50","","","-0.01","3","82","CLR:00","","24.36","18.64","47","000","31","0","","","","","","","","","","","","","","","","","","","","","","","","","","","","","","","","","","","","","","","","","","","","","","","","","","","","","","","","","","","","","","","","","","","","","","","","","","","","","","","","","","","","","","","","","","","SYN092AAXX  03064 68558 32980 00000 10100 20070 38250 48571 53003 333 20060 9//// 555 10135 91027;","","","","","","","","","",""
"68558099999","2005-04-03T14:00:00","-30.9333333","27.6","1819.0","BARKLY EAST, SF","FM-12","4","","44","69","","","+0.04","8","41","","","24.31","18.64","55","320","29","15","","","","","","","","","","","","","","","","","","","","","","","","","","","","","","","","","","","","","","","","","","","","","","","","","","","","","","","","","","","","","","","","","","","","","","","","","","","","","","","","","","","","","","","","","","","SYN098AAXX  03124 68558 32980 23213 10205 20069 38234 48545 58013 82100 333 1//// 20095 9//// 555 91025;","","","","","","","","","",""
"68558099999","2005-04-03T20:00:00","-30.9333333","27.6","1819.0","BARKLY EAST, SF","FM-12","4","","46","59","","","-0.02","3","61","","","24.31","18.64","52","050","29","11","","","","","","","","","","","","","","","","","","","","","","","","","","","","","","","","","","","","","","","","","","","","","","","","","","","","","","","","","","","","","","","","","","","","","","","","","","","","","","","","","","","","","","","","","","","SYN098AAXX  03184 68558 32980 50510 10150 20076 38234 48551 53006 83101 333 10210 2//// 9//// 555 91025;","","","","","","","","","",""
"68558099999","2005-04-04T14:00:00","-30.9333333","27.6","1819.0","BARKLY EAST, SF","FM-12","4","","58","73","","","+0.04","7","58","","","27.09","13.67","64","210","","9","","","","","","","","","","","","","","","","","","","","","","","","","","","","","","","","","","","","","","","","","","","","","","","","","","","","","","","","","","","","","","","","","","","","","","","","","","","","","","","","","","","","","","","","","","","SYN098AAXX  04124 68558 32672 22108 10229 20143 39173 4//// 57012 82200 333 1//// 20172 9//// 555 9////;","","","","","","","","","",""
"68558099999","2005-04-04T20:00:00","-30.9333333","27.6","1819.0","BARKLY EAST, SF","FM-12","4","","43","62","","","-0.01","3","50","","","","18.64","","000","31","0","","","","","","","","","","","","","","","","","","","","","","","","","","","","","","","","","","","","","","","","","","","","","","","","","","","","","","","","","","","","","","","","","","","","","","","","","","","","","","","","","","","","","","","","","","","SYN098AAXX  04184 68558 32980 10000 10165 20061 38252 48568 53004 81100 333 10220 2//// 9//// 555 91027;","","","","","","","","","",""
"68558099999","2005-04-05T08:00:00","-30.9333333","27.6","1819.0","BARKLY EAST, SF","FM-12","4","","43","50","","","-0.03","3","76","CLR:00","","24.43","18.64","46","000","34","0","","","","","","","","","","","","","","","","","","","","","","","","","","","","","","","","","","","","","","","","","","","","","","","","","","","","","","","","","","","","","","","","","","","","","","","","","","","","","","","","","","","","","","","","","","","SYN092AAXX  05064 68558 32980 00000 10100 20059 38274 48595 53011 333 20070 9//// 555 10220 91030;","","","","","","","","","",""
"68558099999","2005-04-05T14:00:00","-30.9333333","27.6","1819.0","BARKLY EAST, SF","FM-12","4","","46","72","","","+0.05","8","40","","","24.39","18.64","57","230","32","7","","","","","","","","","","","","","","","","","","","","","","","","","","","","","","","","","","","","","","","","","","","","","","","","","","","","","","","","","","","","","","","","","","","","","","","","","","","","","","","","","","","","","","","","","","","SYN098AAXX  05124 68558 42980 32306 10220 20079 38261 48572 58018 83100 333 1//// 20095 9//// 555 91028;","","","","","","","","","",""
"68558099999","2005-04-05T20:00:00","-30.9333333","27.6","1819.0","BARKLY EAST, SF","FM-12","4","","44","64","","","","","48","","","24.39","18.64","53","000","32","0","","","","","","","","","","","","","","","","","","","","","","","","","","","","","","","","","","","","","","","","","","","","","","","","","","","","","","","","","","","","","","","","","","","","","","","","","","","","","","","","","","","","","","","","","","","SYN098AAXX  05184 68558 32980 40000 10180 20069 38258 48572 53000 83101 333 10235 2//// 9//// 555 91028;","","","","","","","","","",""
"68558099999","2005-04-06T08:00:00","-30.9333333","27.6","1819.0","BARKLY EAST, SF","FM-12","4","","42","49","","","-0.02","3","76","","","24.40","18.64","45","000","33","0","","","","","","","","","","","","","","","","","","","","","","","","","","","","","","","","","","","","","","","","","","","","","","","","","","","","","","","","","","","","","","","","","","","","","","","","","","","","","","","","","","","","","","","","","","","SYN098AAXX  06064 68558 32980 40000 10095 20055 38263 48585 53006 82101 333 20090 9//// 555 10235 91029;","","","","","","","","","",""
"68558099999","2005-04-06T14:00:00","-30.9333333","27.6","1819.0","BARKLY EAST, SF","FM-12","4","","40","73","","","+0.05","8","29","","","24.36","18.64","55","000","31","0","","","","","","","","","","","","","","","","","","","","","","","","","","","","","","","","","","","","","","","","","","","","","","","","","","","","","","","","","","","","","","","","","","","","","","","","","","","","","","","","","","","","","","","","","","","SYN098AAXX  06124 68558 32980 50000 10230 20042 38248 48558 58017 82101 333 1//// 20095 9//// 555 91027;","","","","","","","","","",""
"68558099999","2005-04-06T20:00:00","-30.9333333","27.6","1819.0","BARKLY EAST, SF","FM-12","4","","46","61","","","-0.00","3","58","","","24.34","18.64","53","000","30","0","","","","","","","","","","","","","","","","","","","","","","","","","","","","","","","","","","","","","","","","","","","","","","","","","","","","","","","","","","","","","","","","","","","","","","","","","","","","","","","","","","","","","","","","","","","SYN098AAXX  06184 68558 32980 80000 10160 20078 38243 48559 53001 83101 333 10225 2//// 9//// 555 91026;","","","","","","","","","",""
"68558099999","2005-04-07T08:00:00","-30.9333333","27.6","1819.0","BARKLY EAST, SF","FM-12","4","","47","54","","","-0.04","3","78","","","24.34","12.43","50","000","30","0","","","","","","","","","","","","","","","","","","","","","","","","","","","","","","","","","","","","","","","","","","","","","","","","","","","","","","","","","","","","","","","","","","","","","","","","","","","","","","","","","","","","","","","","","","","SYN098AAXX  07064 68558 32570 80000 10120 20083 38242 48561 53013 84527 333 20100 9//// 555 10225 91026;","","","","","","","","","",""
"68558099999","2005-04-07T14:00:00","-30.9333333","27.6","1819.0","BARKLY EAST, SF","FM-12","4","","44","64","","","+0.03","8","48","","","24.32","12.43","53","360","29","11","","","","","","","","","","","","","","","","","","","","","","","","","","","","","","","","","","","","","","","","","","","","","","","","","","","","","","","","","","","","","","","","","","","","","","","","","","","","","","","","","","","","","","","","","","","SYN098AAXX  07124 68558 32770 83610 10180 20069 38235 48549 58011 84222 333 1//// 20120 9//// 555 91025;","","","","","","","","","",""
"68558099999","2005-04-07T20:00:00","-30.9333333","27.6","1819.0","BARKLY EAST, SF","FM-12","4","","49","60","","","-0.03","3","66","","","24.34","18.64","54","000","30","0","","","","","","","","","","","","","","","","","","","","","","","","","","","","","","","","","","","","","","","","","","","","","","","","","","","","","","","","","","","","","","","","","","","","","","","","","","","","","","","","","","","","","","","","","","","SYN098AAXX  07184 68558 32980 50000 10155 20092 38243 48559 53011 82101 333 10205 2//// 9//// 555 91026;","","","","","","","","","",""
"68558099999","2005-04-08T08:00:00","-30.9333333","27.6","1819.0","BARKLY EAST, SF","FM-12","4","","48","52","","","-0.03","3","88","","","24.37","18.64","50","000","31","0","","","","","","","","","","","","","","","","","","","","","","","","","","","","","","","","","","","","","","","","","","","","","","","","","","","","","","","","","","","","","","","","","","","","","","","","","","","","","","","","","","","","","","","","","","","SYN098AAXX  08064 68558 32980 20000 10110 20091 38254 48574 53011 81101 333 20080 9//// 555 10205 91027;","","","","","","","","","",""
"68558099999","2005-04-08T14:00:00","-30.9333333","27.6","1819.0","BARKLY EAST, SF","FM-12","4","","48","70","","","+0.06","8","45","","","24.31","18.64","57","320","29","7","","","","","","","","","","","","","","","","","","","","","","","","","","","","","","","","","","","","","","","","","","","","","","","","","","","","","","","","","","","","","","","","","","","","","","","","","","","","","","","","","","","","","","","","","","","SYN098AAXX  08124 68558 32980 33206 10210 20087 38234 48545 58021 83100 333 1//// 20110 9//// 555 91025;","","","","","","","","","",""
"68558099999","2005-04-09T08:00:00","-30.9333333","27.6","1819.0","BARKLY EAST, SF","FM-12","4","","48","53","","","-0.01","3","83","","","24.36","18.64","50","000","31","0","","","","","","","","","","","","","","","","","","","","","","","","","","","","","","","","","","","","","","","","","","","","","","","","","","","","","","","","","","","","","","","","","","","","","","","","","","","","","","","","","","","","","","","","","","","SYN098AAXX  09064 68558 32980 10000 10115 20087 38250 48570 53005 81100 333 20075 9//// 555 10220 91027;","","","","","","","","","",""
"68558099999","2005-04-09T14:00:00","-30.9333333","27.6","1819.0","BARKLY EAST, SF","FM-12","4","","50","70","","","+0.07","8","50","","","24.29","18.64","58","320","28","11","","","","","","","","","","","","","","","","","","","","","","","","","","","","","","","","","","","","","","","","","","","","","","","","","","","","","","","","","","","","","","","","","","","","","","","","","","","","","","","","","","","","","","","","","","","SYN098AAXX  09124 68558 42980 33210 10210 20100 38225 48536 58023 83100 333 1//// 20110 9//// 555 91024;","","","","","","","","","",""
"68558099999","2005-04-10T08:00:00","-30.9333333","27.6","1819.0","BARKLY EAST, SF","FM-12","4","","48","52","","","-0.02","3","88","","","24.29","18.64","50","000","28","0","","","","","","","","","","","","","","","","","","","","","","","","","","","","","","","","","","","","","","","","","","","","","","","","","","","","","","","","","","","","","","","","","","","","","","","","","","","","","","","","","","","","","","","","","","","SYN098AAXX  10064 68558 32980 20000 10110 20091 38225 48545 53007 82100 333 20070 9//// 555 10220 91024;","","","","","","","","","",""
"68558099999","2005-04-10T14:00:00","-30.9333333","27.6","1819.0","BARKLY EAST, SF","FM-12","4","","50","70","","","+0.04","8","50","","","24.25","18.64","58","320","25","7","","","","","","","","","","","","","","","","","","","","","","","","","","","","","","","","","","","","","","","","","","","","","","","","","","","","","","","","","","","","","","","","","","","","","","","","","","","","","","","","","","","","","","","","","","","SYN098AAXX  10124 68558 32980 23206 10210 20100 38212 48522 58012 82100 333 1//// 20080 9//// 555 91022;","","","","","","","","","",""
"68558099999","2005-04-11T08:00:00","-30.9333333","27.6","1819.0","BARKLY EAST, SF","FM-12","4","","51","59","","","-0.01","3","75","","","24.21","18.64","54","000","24","0","","","","","","","","","","","","","","","","","","","","","","","","","","","","","","","","","","","","","","","","","","","","","","","","","","","","","","","","","","","","","","","","","","","","","","","","","","","","","","","","","","","","","","","","","","","SYN098AAXX  11064 68558 32980 40000 10150 20106 38200 48516 53003 82101 333 20120 9//// 555 10225 91021;","","","","","","","","","",""
"68558099999","2005-04-11T14:00:00","-30.9333333","27.6","1819.0","BARKLY EAST, SF","FM-12","4","","53","58","","","+0.02","8","84","","","24.20","12.43","55","320","23","5","","","","","","","","","","","","","","","","","","","","","","","","","","","","","","","","","","","","","","","","","","","","","","","","","","","","","","","","","","","","","","","","","","","","","","","","","","","","","","","","","","","","","","","","","","","SYN098AAXX  11124 68558 32770 83204 10145 20118 38194 48511 58008 84222 333 1//// 20135 9//// 555 91020;","","","","","","","","","",""
"68558099999","2005-04-11T20:00:00","-30.9333333","27.6","1819.0","BARKLY EAST, SF","FM-12","4","","48","61","","","+0.04","8","63","","","24.09","12.43","54","050","","19","","","","","","","","","","","","","","","","","","","","","","","","","","","","","","","","","","","","","","","","","","","","","","","","","","","","","","","","","","","","","","","","","","","","","","","","","","","","","","","","","","","","","","","","","","","SYN098AAXX  11184 68558 32770 80517 10160 20088 38159 48473 58015 82321 333 10175 2//// 9//// 555 91016;","","","","","","","","","",""
"68558099999","2005-04-12T08:00:00","-30.9333333","27.6","1819.0","BARKLY EAST, SF","FM-12","4","","42","49","","","-0.03","3","76","","","24.16","18.64","45","320","22","7","","","","","","","","","","","","","","","","","","","","","","","","","","","","","","","","","","","","","","","","","","","","","","","","","","","","","","","","","","","","","","","","","","","","","","","","","","","","","","","","","","","","","","","","","","","SYN110AAXX  12064 68558 12980 63206 10095 20055 38180 48502 53011 60114 84101 333 20075 9//// 555 10175 20105 91019;","","","","","","","","","",""
"68558099999","2005-04-12T14:00:00","-30.9333333","27.6","1819.0","BARKLY EAST, SF","FM-12","4","","45","54","","","-0.01","3","73","","","24.19","18.64","49","320","23","11","","","","","","","","","","","","","","","","","","","","","","","","","","","","","","","","","","","","","","","","","","","","","","","","","","","","","","","","","","","","","","","","","","","","","","","","","","","","","","","","","","","","","","","","","","","SYN098AAXX  12124 68558 32980 63210 10120 20073 38191 48510 53005 84101 333 1//// 20095 9//// 555 91020;","","","","","","","","","",""
"68558099999","2005-04-12T20:00:00","-30.9333333","27.6","1819.0","BARKLY EAST, SF","FM-12","4","","48","53","","","-0.04","3","83","","","24.22","18.64","50","000","24","0","","","","","","","","","","","","","","","","","","","","","","","","","","","","","","","","","","","","","","","","","","","","","","","","","","","","","","","","","","","","","","","","","","","","","","","","","","","","","","","","","","","","","","","","","","","SYN098AAXX  12184 68558 32980 80000 10115 20087 38203 48523 53012 84222 333 10145 2//// 9//// 555 91021;","","","","","","","","","",""
"68558099999","2005-04-13T08:00:00","-30.9333333","27.6","1819.0","BARKLY EAST, SF","FM-12","4","","42","44","","","-0.02","3","93","","","24.32","18.64","43","000","29","0","","","","","","","","","","","","","","","","","","","","","","","","","","","","","","","","","","","","","","","","","","","","","","","","","","","","","","","","","","","","","","","","","","","","","","","","","","","","","","","","","","","","","","","","","","","SYN098AAXX  13064 68558 32980 10000 10065 20054 38235 48559 53007 81100 333 20055 9//// 555 10145 91025;","","","","","","","","","",""
"68558099999","2005-04-13T14:00:00","-30.9333333","27.6","1819.0","BARKLY EAST, SF","FM-12","4","","44","64","","","+0.03","8","48","","","24.30","18.64","53","000","28","0","","","","","","","","","","","","","","","","","","","","","","","","","","","","","","","","","","","","","","","","","","","","","","","","","","","","","","","","","","","","","","","","","","","","","","","","","","","","","","","","","","","","","","","","","","","SYN098AAXX  13124 68558 32980 30000 10180 20069 38228 48542 58010 83100 333 1//// 20060 9//// 555 91024;","","","","","","","","","",""
"68558099999","2005-04-13T20:00:00","-30.9333333","27.6","1819.0","BARKLY EAST, SF","FM-12","4","","46","53","","","-0.03","3","77","","","24.35","18.64","49","140","30","7","","","","","","","","","","","","","","","","","","","","","","","","","","","","","","","","","","","","","","","","","","","","","","","","","","","","","","","","","","","","","","","","","","","","","","","","","","","","","","","","","","","","","","","","","","","SYN098AAXX  13184 68558 32980 31406 10115 20076 38245 48565 53010 82201 333 10185 2//// 9//// 555 91026;","","","","","","","","","",""
"68558099999","2005-04-14T08:00:00","-30.9333333","27.6","1819.0","BARKLY EAST, SF","FM-12","4","","44","46","","","-0.03","3","93","","","24.36","18.64","45","000","31","0","","","","","","","","","","","","","","","","","","","","","","","","","","","","","","","","","","","","","","","","","","","","","","","","","","","","","","","","","","","","","","","","","","","","","","","","","","","","","","","","","","","","","","","","","","","SYN098AAXX  14064 68558 32980 70000 10080 20069 38249 48572 53010 85101 333 20060 9//// 555 10185 91027;","","","","","","","","","",""
"68558099999","2005-04-14T14:00:00","-30.9333333","27.6","1819.0","BARKLY EAST, SF","FM-12","4","","43","66","","","+0.03","8","42","","","24.34","18.64","53","320","30","9","","","","","","","","","","","","","","","","","","","","","","","","","","","","","","","","","","","","","","","","","","","","","","","","","","","","","","","","","","","","","","","","","","","","","","","","","","","","","","","","","","","","","","","","","","","SYN098AAXX  14124 68558 32980 53208 10190 20059 38241 48554 58010 84101 333 1//// 20080 9//// 555 91026;","","","","","","","","","",""
"68558099999","2005-04-14T20:00:00","-30.9333333","27.6","1819.0","BARKLY EAST, SF","FM-12","4","","46","53","","","-0.03","3","77","CLR:00","","24.35","18.64","49","140","31","7","","","","","","","","","","","","","","","","","","","","","","","","","","","","","","","","","","","","","","","","","","","","","","","","","","","","","","","","","","","","","","","","","","","","","","","","","","","","","","","","","","","","","","","","","","","SYN092AAXX  14184 68558 32980 01406 10115 20076 38247 48567 53010 333 10195 2//// 9//// 555 91027;","","","","","","","","","",""
"68558099999","2005-04-15T20:00:00","-30.9333333","27.6","1819.0","BARKLY EAST, SF","FM-12","4","","42","59","","","-0.00","3","53","","","24.27","18.64","50","000","26","0","","","","","","","","","","","","","","","","","","","","","","","","","","","","","","","","","","","","","","","","","","","","","","","","","","","","","","","","","","","","","","","","","","","","","","","","","","","","","","","","","","","","","","","","","","","SYN098AAXX  15184 68558 32980 20000 10150 20053 38220 48536 53001 82100 333 10210 2//// 9//// 555 91023;","","","","","","","","","",""
"68558099999","2005-04-16T08:00:00","-30.9333333","27.6","1819.0","BARKLY EAST, SF","FM-12","4","","42","49","","","-0.00","3","76","","","24.28","18.64","45","000","28","0","","","","","","","","","","","","","","","","","","","","","","","","","","","","","","","","","","","","","","","","","","","","","","","","","","","","","","","","","","","","","","","","","","","","","","","","","","","","","","","","","","","","","","","","","","","SYN098AAXX  16064 68558 32980 30000 10095 20055 38221 48543 53001 83100 333 20055 9//// 555 10210 91024;","","","","","","","","","",""
"68558099999","2005-04-16T14:00:00","-30.9333333","27.6","1819.0","BARKLY EAST, SF","FM-12","4","","47","66","","","+0.05","8","50","","","24.26","18.64","55","320","26","11","","","","","","","","","","","","","","","","","","","","","","","","","","","","","","","","","","","","","","","","","","","","","","","","","","","","","","","","","","","","","","","","","","","","","","","","","","","","","","","","","","","","","","","","","","","SYN098AAXX  16124 68558 32980 43210 10190 20084 38214 48526 58017 83101 333 1//// 20095 9//// 555 91023;","","","","","","","","","",""
"68558099999","2005-04-16T20:00:00","-30.9333333","27.6","1819.0","BARKLY EAST, SF","FM-12","4","","55","60","","","-0.00","3","85","","","24.22","18.64","57","050","24","7","","","","","","","","","","","","","","","","","","","","","","","","","","","","","","","","","","","","","","","","","","","","","","","","","","","","","","","","","","","","","","","","","","","","","","","","","","","","","","","","","","","","","","","","","","","SYN098AAXX  16184 68558 32980 20506 10155 20130 38201 48517 53001 82100 333 10205 2//// 9//// 555 91021;","","","","","","","","","",""
"68558099999","2005-04-17T08:00:00","-30.9333333","27.6","1819.0","BARKLY EAST, SF","FM-12","4","","41","48","","","-0.01","3","75","","","24.23","18.64","44","000","25","0","","","","","","","","","","","","","","","","","","","","","","","","","","","","","","","","","","","","","","","","","","","","","","","","","","","","","","","","","","","","","","","","","","","","","","","","","","","","","","","","","","","","","","","","","","","SYN098AAXX  17064 68558 32980 80000 10090 20048 38206 48528 53005 85202 333 20055 9//// 555 10205 91022;","","","","","","","","","",""
"68558099999","2005-04-17T20:00:00","-30.9333333","27.6","1819.0","BARKLY EAST, SF","FM-12","4","","47","54","","","-0.01","3","78","","","24.23","18.64","50","140","25","7","","","","","","","","","","","","","","","","","","","","","","","","","","","","","","","","","","","","","","","","","","","","","","","","","","","","","","","","","","","","","","","","","","","","","","","","","","","","","","","","","","","","","","","","","","","SYN098AAXX  17184 68558 32980 21406 10120 20083 38206 48525 53005 82100 333 10210 2//// 9//// 555 91022;","","","","","","","","","",""
"68558099999","2005-04-18T14:00:00","-30.9333333","27.6","1819.0","BARKLY EAST, SF","FM-12","4","","53","73","","","+0.04","8","48","","","24.19","18.64","61","320","23","11","","","","","","","","","","","","","","","","","","","","","","","","","","","","","","","","","","","","","","","","","","","","","","","","","","","","","","","","","","","","","","","","","","","","","","","","","","","","","","","","","","","","","","","","","","","SYN098AAXX  18124 68558 32980 33210 10230 20115 38191 48498 58013 82101 333 1//// 20065 9//// 555 91020;","","","","","","","","","",""
"68558099999","2005-04-18T20:00:00","-30.9333333","27.6","1819.0","BARKLY EAST, SF","FM-12","4","","49","66","","","-0.01","3","55","","","24.17","12.43","56","050","22","15","","","","","","","","","","","","","","","","","","","","","","","","","","","","","","","","","","","","","","","","","","","","","","","","","","","","","","","","","","","","","","","","","","","","","","","","","","","","","","","","","","","","","","","","","","","SYN098AAXX  18184 68558 32770 80513 10190 20096 38186 48497 53003 83222 333 10235 2//// 9//// 555 91019;","","","","","","","","","",""
"68558099999","2005-04-19T08:00:00","-30.9333333","27.6","1819.0","BARKLY EAST, SF","FM-12","4","","49","60","","","-0.06","3","66","","","24.21","12.43","54","320","24","17","","","","","","","","","","","","","","","","","","","","","","","","","","","","","","","","","","","","","","","","","","","","","","","","","","","","","","","","","","","","","","","","","","","","","","","","","","","","","","","","","","","","","","","","","","","SYN110AAXX  19064 68558 12770 83215 10155 20092 38197 48512 53019 60084 83222 333 20120 9//// 555 10235 20080 91021;","","","","","","","","","",""
"68558099999","2005-04-19T14:00:00","-30.9333333","27.6","1819.0","BARKLY EAST, SF","FM-12","4","","48","68","","","+0.07","8","49","","","24.13","18.64","56","320","21","15","","","","","","","","","","","","","","","","","","","","","","","","","","","","","","","","","","","","","","","","","","","","","","","","","","","","","","","","","","","","","","","","","","","","","","","","","","","","","","","","","","","","","","","","","","","SYN098AAXX  19124 68558 32980 43213 10200 20088 38171 48481 58025 83220 333 1//// 20120 9//// 555 91018;","","","","","","","","","",""
"68558099999","2005-04-19T20:00:00","-30.9333333","27.6","1819.0","BARKLY EAST, SF","FM-12","4","","49","53","","||RA","","","88","","","24.18","18.64","51","320","22","16","","","","","","","","","","","","","","","","","","","","","","","","","","","","","","","","","","","","","","","","","","","","","","","","","","","","","","","","","","","","","","","","","","","","","","","","","","","","","","","","","","","","","","","","","","","SYN104AAXX  19184 68558 41280 83214 10115 20096 38187 48507 58000 76052 8322/ 333 10210 2//// 9//// 555 91019;","","","","","","","","","",""
"68558099999","2005-04-20T08:00:00","-30.9333333","27.6","1819.0","BARKLY EAST, SF","FM-12","4","","33","42","","","-0.03","3","72","","","24.24","18.64","38","320","25","7","","","","","","","","","","","","","","","","","","","","","","","","","","","","","","","","","","","","","","","","","","","","","","","","","","","","","","","","","","","","","","","","","","","","","","","","","","","","","","","","","","","","","","","","","","","SYN110AAXX  20064 68558 12980 13206 10055 20008 38209 48535 53010 60054 81100 333 20045 9//// 555 10205 20045 91022;","","","","","","","","","",""
"68558099999","2005-04-20T14:00:00","-30.9333333","27.6","1819.0","BARKLY EAST, SF","FM-12","4","","37","55","","","+0.03","8","50","","","24.21","18.64","46","320","24","11","","","","","","","","","","","","","","","","","","","","","","","","","","","","","","","","","","","","","","","","","","","","","","","","","","","","","","","","","","","","","","","","","","","","","","","","","","","","","","","","","","","","","","","","","","","SYN098AAXX  20124 68558 32980 13210 10130 20026 38199 48517 58010 81101 333 1//// 20050 9//// 555 91021;","","","","","","","","","",""
"68558099999","2005-04-20T20:00:00","-30.9333333","27.6","1819.0","BARKLY EAST, SF","FM-12","4","","31","45","","","-0.05","3","57","CLR:00","","24.27","18.64","39","000","26","0","","","","","","","","","","","","","","","","","","","","","","","","","","","","","","","","","","","","","","","","","","","","","","","","","","","","","","","","","","","","","","","","","","","","","","","","","","","","","","","","","","","","","","","","","","","SYN092AAXX  20184 68558 32980 00000 10075 21006 38220 48544 53016 333 10160 2//// 9//// 555 91023;","","","","","","","","","",""
"68558099999","2005-04-21T08:00:00","-30.9333333","27.6","1819.0","BARKLY EAST, SF","FM-12","4","","25","30","","","-0.02","3","82","CLR:00","","24.30","18.64","28","000","28","0","","","","","","","","","","","","","","","","","","","","","","","","","","","","","","","","","","","","","","","","","","","","","","","","","","","","","","","","","","","","","","","","","","","","","","","","","","","","","","","","","","","","","","","","","","","SYN092AAXX  21064 68558 32980 00000 11010 21038 38228 48560 53007 333 21015 9//// 555 10140 91024;","","","","","","","","","",""
"68558099999","2005-04-21T20:00:00","-30.9333333","27.6","1819.0","BARKLY EAST, SF","FM-12","4","","29","52","","","-0.02","3","42","CLR:00","","24.25","18.64","41","000","25","0","","","","","","","","","","","","","","","","","","","","","","","","","","","","","","","","","","","","","","","","","","","","","","","","","","","","","","","","","","","","","","","","","","","","","","","","","","","","","","","","","","","","","","","","","","","SYN092AAXX  21184 68558 32980 00000 10110 21016 38211 48531 53006 333 10160 2//// 9//// 555 91022;","","","","","","","","","",""
"68558099999","2005-04-22T08:00:00","-30.9333333","27.6","1819.0","BARKLY EAST, SF","FM-12","4","","30","39","","","-0.01","3","71","CLR:00","","24.21","18.64","35","000","24","0","","","","","","","","","","","","","","","","","","","","","","","","","","","","","","","","","","","","","","","","","","","","","","","","","","","","","","","","","","","","","","","","","","","","","","","","","","","","","","","","","","","","","","","","","","","SYN092AAXX  22064 68558 32980 00000 10040 21009 38200 48527 53005 333 21010 9//// 555 10160 91021;","","","","","","","","","",""
"68558099999","2005-04-24T08:00:00","-30.9333333","27.6","1819.0","BARKLY EAST, SF","FM-12","4","","41","43","","","-0.02","3","93","","","24.10","18.64","42","000","18","0","","","","","","","","","","","","","","","","","","","","","","","","","","","","","","","","","","","","","","","","","","","","","","","","","","","","","","","","","","","","","","","","","","","","","","","","","","","","","","","","","","","","","","","","","","","SYN110AAXX  24064 68558 12980 60000 10060 20049 38162 48488 53008 60054 84101 333 20040 9//// 555 10175 20045 91016;","","","","","","","","","",""
"68558099999","2005-04-24T14:00:00","-30.9333333","27.6","1819.0","BARKLY EAST, SF","FM-12","4","","28","58","","","+0.02","8","32","","","24.08","12.43","44","320","18","15","","","","","","","","","","","","","","","","","","","","","","","","","","","","","","","","","","","","","","","","","","","","","","","","","","","","","","","","","","","","","","","","","","","","","","","","","","","","","","","","","","","","","","","","","","","SYN098AAXX  24124 68558 32770 83213 10145 21023 38155 48471 58008 83221 333 1//// 20100 9//// 555 91016;","","","","","","","","","",""
"68558099999","2005-04-24T20:00:00","-30.9333333","27.6","1819.0","BARKLY EAST, SF","FM-12","4","","32","50","","","-0.03","3","50","","","24.13","18.64","41","050","21","7","","","","","","","","","","","","","","","","","","","","","","","","","","","","","","","","","","","","","","","","","","","","","","","","","","","","","","","","","","","","","","","","","","","","","","","","","","","","","","","","","","","","","","","","","","","SYN098AAXX  24184 68558 32980 60506 10100 21001 38173 48494 53011 82101 333 10155 2//// 9//// 555 91018;","","","","","","","","","",""
"68558099999","2005-04-25T14:00:00","-30.9333333","27.6","1819.0","BARKLY EAST, SF","FM-12","4","","31","58","","","+0.02","8","36","","","24.08","18.64","45","320","18","15","","","","","","","","","","","","","","","","","","","","","","","","","","","","","","","","","","","","","","","","","","","","","","","","","","","","","","","","","","","","","","","","","","","","","","","","","","","","","","","","","","","","","","","","","","","SYN098AAXX  25124 68558 32980 83213 10145 21006 38155 48471 58008 83200 333 1//// 20100 9//// 555 91016;","","","","","","","","","",""
"68558099999","2005-04-25T20:00:00","-30.9333333","27.6","1819.0","BARKLY EAST, SF","FM-12","4","","38","46","","","-0.02","3","74","","","24.21","18.64","42","140","24","7","","","","","","","","","","","","","","","","","","","","","","","","","","","","","","","","","","","","","","","","","","","","","","","","","","","","","","","","","","","","","","","","","","","","","","","","","","","","","","","","","","","","","","","","","","","SYN098AAXX  25184 68558 32980 31406 10080 20036 38199 48522 53008 82101 333 10145 2//// 9//// 555 91021;","","","","","","","","","",""
"68558099999","2005-04-26T08:00:00","-30.9333333","27.6","1819.0","BARKLY EAST, SF","FM-12","4","","32","36","","","-0.02","3","84","","","24.30","18.64","34","000","28","0","","","","","","","","","","","","","","","","","","","","","","","","","","","","","","","","","","","","","","","","","","","","","","","","","","","","","","","","","","","","","","","","","","","","","","","","","","","","","","","","","","","","","","","","","","","SYN098AAXX  26064 68558 32980 20000 10025 20000 38228 48556 53007 82100 333 21010 9//// 555 10145 91024;","","","","","","","","","",""
"68558099999","2005-04-26T14:00:00","-30.9333333","27.6","1819.0","BARKLY EAST, SF","FM-12","4","","39","55","","","+0.03","8","54","","","24.31","18.64","47","140","29","11","","","","","","","","","","","","","","","","","","","","","","","","","","","","","","","","","","","","","","","","","","","","","","","","","","","","","","","","","","","","","","","","","","","","","","","","","","","","","","","","","","","","","","","","","","","SYN098AAXX  26124 68558 32980 51410 10130 20039 38231 48549 58011 84202 333 1//// 20025 9//// 555 91025;","","","","","","","","","",""
"68558099999","2005-04-26T20:00:00","-30.9333333","27.6","1819.0","BARKLY EAST, SF","FM-12","4","","39","45","","","-0.05","3","80","","","24.36","18.64","42","140","31","11","","","","","","","","","","","","","","","","","","","","","","","","","","","","","","","","","","","","","","","","","","","","","","","","","","","","","","","","","","","","","","","","","","","","","","","","","","","","","","","","","","","","","","","","","","","SYN098AAXX  26184 68558 32980 21410 10070 20038 38250 48574 53016 82100 333 10140 2//// 9//// 555 91027;","","","","","","","","","",""
"68558099999","2005-04-27T14:00:00","-30.9333333","27.6","1819.0","BARKLY EAST, SF","FM-12","4","","41","60","","","+0.02","8","49","CLR:00","","24.40","18.64","50","320","32","5","","","","","","","","","","","","","","","","","","","","","","","","","","","","","","","","","","","","","","","","","","","","","","","","","","","","","","","","","","","","","","","","","","","","","","","","","","","","","","","","","","","","","","","","","","","SYN092AAXX  27124 68558 32980 03204 10155 20049 38262 48579 58007 333 1//// 20005 9//// 555 91028;","","","","","","","","","",""
"68558099999","2005-04-27T20:00:00","-30.9333333","27.6","1819.0","BARKLY EAST, SF","FM-12","4","","41","52","","","-0.03","3","66","CLR:00","","24.43","18.64","46","000","34","0","","","","","","","","","","","","","","","","","","","","","","","","","","","","","","","","","","","","","","","","","","","","","","","","","","","","","","","","","","","","","","","","","","","","","","","","","","","","","","","","","","","","","","","","","","","SYN092AAXX  27184 68558 32980 00000 10110 20049 38272 48592 53010 333 10165 2//// 9//// 555 91030;","","","","","","","","","",""
"68558099999","2005-04-28T08:00:00","-30.9333333","27.6","1819.0","BARKLY EAST, SF","FM-12","4","","31","36","","","-0.02","3","84","CLR:00","","24.46","18.64","34","000","36","0","","","","","","","","","","","","","","","","","","","","","","","","","","","","","","","","","","","","","","","","","","","","","","","","","","","","","","","","","","","","","","","","","","","","","","","","","","","","","","","","","","","","","","","","","","","SYN092AAXX  28064 68558 32980 00000 10020 21005 38284 48611 53007 333 20005 9//// 555 10165 91031;","","","","","","","","","",""
"68558099999","2005-04-28T14:00:00","-30.9333333","27.6","1819.0","BARKLY EAST, SF","FM-12","4","","37","61","","","+0.04","8","41","","","24.44","18.64","49","000","34","0","","","","","","","","","","","","","","","","","","","","","","","","","","","","","","","","","","","","","","","","","","","","","","","","","","","","","","","","","","","","","","","","","","","","","","","","","","","","","","","","","","","","","","","","","","","SYN098AAXX  28124 68558 32980 10000 10160 20028 38275 48591 58015 81100 333 1//// 20020 9//// 555 91030;","","","","","","","","","",""
"68558099999","2005-04-28T20:00:00","-30.9333333","27.6","1819.0","BARKLY EAST, SF","FM-12","4","","40","51","","","-0.03","3","66","CLR:00","","24.46","18.64","45","140","36","7","","","","","","","","","","","","","","","","","","","","","","","","","","","","","","","","","","","","","","","","","","","","","","","","","","","","","","","","","","","","","","","","","","","","","","","","","","","","","","","","","","","","","","","","","","","SYN092AAXX  28184 68558 32980 01406 10105 20044 38282 48603 53010 333 10180 2//// 9//// 555 91031;","","","","","","","","","",""
"68558099999","2005-04-29T08:00:00","-30.9333333","27.6","1819.0","BARKLY EAST, SF","FM-12","4","","31","34","","","-0.01","3","91","CLR:00","","24.47","18.64","33","000","36","0","","","","","","","","","","","","","","","","","","","","","","","","","","","","","","","","","","","","","","","","","","","","","","","","","","","","","","","","","","","","","","","","","","","","","","","","","","","","","","","","","","","","","","","","","","","SYN092AAXX  29064 68558 32980 00000 10010 21003 38286 48614 53002 333 20010 9//// 555 10180 91031;","","","","","","","","","",""
"68558099999","2005-04-29T14:00:00","-30.9333333","27.6","1819.0","BARKLY EAST, SF","FM-12","4","","31","63","","","+0.05","8","30","CLR:00","","24.42","18.64","47","000","33","0","","","","","","","","","","","","","","","","","","","","","","","","","","","","","","","","","","","","","","","","","","","","","","","","","","","","","","","","","","","","","","","","","","","","","","","","","","","","","","","","","","","","","","","","","","","SYN092AAXX  29124 68558 32980 00000 10175 21005 38269 48584 58018 333 1//// 20005 9//// 555 91029;","","","","","","","","","",""
"68558099999","2005-04-29T20:00:00","-30.9333333","27.6","1819.0","BARKLY EAST, SF","FM-12","4","","35","53","","","-0.02","3","51","CLR:00","","24.41","18.64","44","180","33","5","","","","","","","","","","","","","","","","","","","","","","","","","","","","","","","","","","","","","","","","","","","","","","","","","","","","","","","","","","","","","","","","","","","","","","","","","","","","","","","","","","","","","","","","","","","SYN092AAXX  29184 68558 32980 01804 10115 20017 38267 48587 53008 333 10190 2//// 9//// 555 91029;","","","","","","","","","",""
"68558099999","2005-04-30T08:00:00","-30.9333333","27.6","1819.0","BARKLY EAST, SF","FM-12","4","","26","34","","","-0.01","3","74","CLR:00","","24.39","18.64","31","000","32","0","","","","","","","","","","","","","","","","","","","","","","","","","","","","","","","","","","","","","","","","","","","","","","","","","","","","","","","","","","","","","","","","","","","","","","","","","","","","","","","","","","","","","","","","","","","SYN092AAXX  30064 68558 32980 00000 10010 21031 38258 48587 53005 333 20005 9//// 555 10190 91028;","","","","","","","","","",""
"68558099999","2005-04-30T14:00:00","-30.9333333","27.6","1819.0","BARKLY EAST, SF","FM-12","4","","25","","","","+0.06","8","","CLR:00","","24.31","18.64","","320","29","7","","","","","","","","","","","","","","","","","","","","","","","","","","","","","","","","","","","","","","","","","","","","","","","","","","","","","","","","","","","","","","","","","","","","","","","","","","","","","","","","","","","","","","","","","","","SYN092AAXX  30124 68558 32980 03206 10185 21041 38233 48546 58020 333 1//// 20010 9//// 555 91025;","","","","","","","","","",""
"68558099999","2005-05-01T14:00:00","-30.9333333","27.6","1819.0","BARKLY EAST, SF","FM-12","4","","35","61","","","+0.02","8","37","","","24.29","18.64","48","320","28","7","","","","","","","","","","","","","","","","","","","","","","","","","","","","","","","","","","","","","","","","","","","","","","","","","","","","","","","","","","","","","","","","","","","","","","","","","","","","","","","","","","","","","","","","","","","SYN098AAXX  01124 68558 32980 43206 10160 20014 38224 48539 58008 82101 333 1//// 20030 9//// 555 91024;","","","","","","","","","",""
"68558099999","2005-05-01T20:00:00","-30.9333333","27.6","1819.0","BARKLY EAST, SF","FM-12","4","","26","63","","","-0.02","3","24","","","24.31","18.64","45","000","29","0","","","","","","","","","","","","","","","","","","","","","","","","","","","","","","","","","","","","","","","","","","","","","","","","","","","","","","","","","","","","","","","","","","","","","","","","","","","","","","","","","","","","","","","","","","","SYN098AAXX  01184 68558 32980 20000 10170 21036 38231 48546 53006 81101 333 10190 2//// 9//// 555 91025;","","","","","","","","","",""
"68558099999","2005-05-02T08:00:00","-30.9333333","27.6","1819.0","BARKLY EAST, SF","FM-12","4","","37","41","","","-0.03","3","85","","","24.35","18.64","39","000","31","0","","","","","","","","","","","","","","","","","","","","","","","","","","","","","","","","","","","","","","","","","","","","","","","","","","","","","","","","","","","","","","","","","","","","","","","","","","","","","","","","","","","","","","","","","","","SYN098AAXX  02064 68558 32980 40000 10050 20026 38246 48572 53011 83201 333 20040 9//// 555 10190 91027;","","","","","","","","","",""
"68558099999","2005-05-02T14:00:00","-30.9333333","27.6","1819.0","BARKLY EAST, SF","FM-12","4","","39","63","","","+0.03","8","40","","","24.35","18.64","50","320","31","5","","","","","","","","","","","","","","","","","","","","","","","","","","","","","","","","","","","","","","","","","","","","","","","","","","","","","","","","","","","","","","","","","","","","","","","","","","","","","","","","","","","","","","","","","","","SYN098AAXX  02124 68558 32980 23204 10175 20038 38246 48560 58010 82200 333 1//// 20050 9//// 555 91027;","","","","","","","","","",""
"68558099999","2005-05-02T20:00:00","-30.9333333","27.6","1819.0","BARKLY EAST, SF","FM-12","4","","47","54","","","-0.01","3","78","","","24.36","18.64","50","140","31","7","","","","","","","","","","","","","","","","","","","","","","","","","","","","","","","","","","","","","","","","","","","","","","","","","","","","","","","","","","","","","","","","","","","","","","","","","","","","","","","","","","","","","","","","","","","SYN098AAXX  02184 68558 32980 61406 10120 20083 38248 48567 53005 84202 333 10190 2//// 9//// 555 91027;","","","","","","","","","",""
"68558099999","2005-05-03T08:00:00","-30.9333333","27.6","1819.0","BARKLY EAST, SF","FM-12","4","","37","41","","","-0.03","3","85","","","24.35","18.64","39","000","31","0","","","","","","","","","","","","","","","","","","","","","","","","","","","","","","","","","","","","","","","","","","","","","","","","","","","","","","","","","","","","","","","","","","","","","","","","","","","","","","","","","","","","","","","","","","","SYN098AAXX  03064 68558 32980 40000 10050 20026 38246 48572 53011 83201 333 20040 9//// 555 10190 91027;","","","","","","","","","",""
"68558099999","2005-05-03T14:00:00","-30.9333333","27.6","1819.0","BARKLY EAST, SF","FM-12","4","","39","60","","","+0.04","8","46","","","24.29","12.43","49","320","28","13","","","","","","","","","","","","","","","","","","","","","","","","","","","","","","","","","","","","","","","","","","","","","","","","","","","","","","","","","","","","","","","","","","","","","","","","","","","","","","","","","","","","","","","","","","","SYN098AAXX  03124 68558 32770 83211 10155 20037 38227 48543 58012 83221 333 1//// 20040 9//// 555 91024;","","","","","","","","","",""
"68558099999","2005-05-03T20:00:00","-30.9333333","27.6","1819.0","BARKLY EAST, SF","FM-12","4","","37","55","","","-0.03","3","50","","","24.27","18.64","46","360","26","11","","","","","","","","","","","","","","","","","","","","","","","","","","","","","","","","","","","","","","","","","","","","","","","","","","","","","","","","","","","","","","","","","","","","","","","","","","","","","","","","","","","","","","","","","","","SYN098AAXX  03184 68558 32980 13610 10130 20026 38219 48537 53010 81100 333 10190 2//// 9//// 555 91023;","","","","","","","","","",""
"68558099999","2005-05-04T08:00:00","-30.9333333","27.6","1819.0","BARKLY EAST, SF","FM-12","4","","41","46","","","-0.04","3","83","","","24.28","12.43","43","320","28","13","","","","","","","","","","","","","","","","","","","","","","","","","","","","","","","","","","","","","","","","","","","","","","","","","","","","","","","","","","","","","","","","","","","","","","","","","","","","","","","","","","","","","","","","","","","SYN116AAXX  04064 68558 11770 83211 10078 20051 38223 48546 53013 60084 72562 84222 333 20070 9//// 555 10190 20080 91024;","","","","","","","","","",""
"68558099999","2005-05-04T14:00:00","-30.9333333","27.6","1819.0","BARKLY EAST, SF","FM-12","4","","42","54","","","+0.08","8","64","","","24.19","12.43","48","320","23","7","","","","","","","","","","","","","","","","","","","","","","","","","","","","","","","","","","","","","","","","","","","","","","","","","","","","","","","","","","","","","","","","","","","","","","","","","","","","","","","","","","","","","","","","","","","SYN098AAXX  04124 68558 32770 83206 10125 20057 38191 48510 58026 84222 333 1//// 20075 9//// 555 91020;","","","","","","","","","",""
"68558099999","2005-05-04T20:00:00","-30.9333333","27.6","1819.0","BARKLY EAST, SF","FM-12","4","","40","45","","","+0.02","8","80","","","24.21","6.21","43","000","24","0","","","","","","","","","","","","","","","","","","","","","","","","","","","","","","","","","","","","","","","","","","","","","","","","","","","","","","","","","","","","","","","","","","","","","","","","","","","","","","","","","","","","","","","","","","","SYN098AAXX  04184 68558 32660 80000 10075 20042 38200 48524 58007 83322 333 10135 2//// 9//// 555 91021;","","","","","","","","","",""
"68558099999","2005-05-05T08:00:00","-30.9333333","27.6","1819.0","BARKLY EAST, SF","FM-12","4","","38","40","","","-0.05","3","92","","","24.25","18.64","39","000","25","0","","","","","","","","","","","","","","","","","","","","","","","","","","","","","","","","","","","","","","","","","","","","","","","","","","","","","","","","","","","","","","","","","","","","","","","","","","","","","","","","","","","","","","","","","","","SYN110AAXX  05064 68558 12980 40000 10045 20033 38211 48538 53018 60214 83101 333 20025 9//// 555 10135 20210 91022;","","","","","","","","","",""
"68558099999","2005-05-05T14:00:00","-30.9333333","27.6","1819.0","BARKLY EAST, SF","FM-12","4","","39","57","","","+0.05","8","52","","","24.20","18.64","48","320","23","13","","","","","","","","","","","","","","","","","","","","","","","","","","","","","","","","","","","","","","","","","","","","","","","","","","","","","","","","","","","","","","","","","","","","","","","","","","","","","","","","","","","","","","","","","","","SYN098AAXX  05124 68558 32980 23211 10140 20041 38195 48512 58017 82100 333 1//// 20040 9//// 555 91020;","","","","","","","","","",""
"68558099999","2005-05-05T20:00:00","-30.9333333","27.6","1819.0","BARKLY EAST, SF","FM-12","4","","38","49","","","-0.01","3","65","","","24.21","18.64","44","000","24","0","","","","","","","","","","","","","","","","","","","","","","","","","","","","","","","","","","","","","","","","","","","","","","","","","","","","","","","","","","","","","","","","","","","","","","","","","","","","","","","","","","","","","","","","","","","SYN098AAXX  05184 68558 32980 10000 10095 20032 38199 48521 53005 81100 333 10150 2//// 9//// 555 91021;","","","","","","","","","",""
"68558099999","2005-05-06T14:00:00","-30.9333333","27.6","1819.0","BARKLY EAST, SF","FM-12","4","","31","56","","","+0.00","8","38","","","24.24","12.43","44","320","25","11","","","","","","","","","","","","","","","","","","","","","","","","","","","","","","","","","","","","","","","","","","","","","","","","","","","","","","","","","","","","","","","","","","","","","","","","","","","","","","","","","","","","","","","","","","","SYN098AAXX  06124 68558 32970 73210 10135 21008 38210 48528 58001 83101 333 1//// 20050 9//// 555 91022;","","","","","","","","","",""
"68558099999","2005-05-06T20:00:00","-30.9333333","27.6","1819.0","BARKLY EAST, SF","FM-12","4","","34","48","","","-0.01","3","58","CLR:00","","24.30","18.64","41","000","28","0","","","","","","","","","","","","","","","","","","","","","","","","","","","","","","","","","","","","","","","","","","","","","","","","","","","","","","","","","","","","","","","","","","","","","","","","","","","","","","","","","","","","","","","","","","","SYN092AAXX  06184 68558 32980 00000 10090 20012 38228 48550 53005 333 10145 2//// 9//// 555 91024;","","","","","","","","","",""
"68558099999","2005-05-07T08:00:00","-30.9333333","27.6","1819.0","BARKLY EAST, SF","FM-12","4","","28","35","","","-0.04","3","76","CLR:00","","24.33","18.64","32","000","30","0","","","","","","","","","","","","","","","","","","","","","","","","","","","","","","","","","","","","","","","","","","","","","","","","","","","","","","","","","","","","","","","","","","","","","","","","","","","","","","","","","","","","","","","","","","","SYN092AAXX  07064 68558 32980 00000 10015 21024 38240 48569 53012 333 20000 9//// 555 10145 91026;","","","","","","","","","",""
"68558099999","2005-05-07T14:00:00","-30.9333333","27.6","1819.0","BARKLY EAST, SF","FM-12","4","","28","62","","","+0.04","8","28","CLR:00","","24.30","18.64","46","230","28","13","","","","","","","","","","","","","","","","","","","","","","","","","","","","","","","","","","","","","","","","","","","","","","","","","","","","","","","","","","","","","","","","","","","","","","","","","","","","","","","","","","","","","","","","","","","SYN092AAXX  07124 68558 32980 02311 10165 21024 38229 48544 58012 333 1//// 20015 9//// 555 91024;","","","","","","","","","",""
"68558099999","2005-05-07T20:00:00","-30.9333333","27.6","1819.0","BARKLY EAST, SF","FM-12","4","","32","51","","","-0.04","3","49","CLR:00","","","18.64","","000","55","0","","","","","","","","","","","","","","","","","","","","","","","","","","","","","","","","","","","","","","","","","","","","","","","","","","","","","","","","","","","","","","","","","","","","","","","","","","","","","","","","","","","","","","","","","","","SYN092AAXX  07184 68558 32980 00000 10105 20002 38424 48743 53015 333 10170 2//// 9//// 555 91048;","","","","","","","","","",""
"68558099999","2005-05-08T08:00:00","-30.9333333","27.6","1819.0","BARKLY EAST, SF","FM-12","4","","29","34","","","-0.03","3","82","CLR:00","","24.40","18.64","32","000","32","0","","","","","","","","","","","","","","","","","","","","","","","","","","","","","","","","","","","","","","","","","","","","","","","","","","","","","","","","","","","","","","","","","","","","","","","","","","","","","","","","","","","","","","","","","","","SYN092AAXX  08064 68558 32980 00000 10010 21017 38262 48591 53009 333 20000 9//// 555 10170 91028;","","","","","","","","","",""
"68558099999","2005-05-08T20:00:00","-30.9333333","27.6","1819.0","BARKLY EAST, SF","FM-12","4","","33","51","","","-0.04","3","50","CLR:00","","24.39","18.64","42","000","32","0","","","","","","","","","","","","","","","","","","","","","","","","","","","","","","","","","","","","","","","","","","","","","","","","","","","","","","","","","","","","","","","","","","","","","","","","","","","","","","","","","","","","","","","","","","","SYN092AAXX  08184 68558 32980 00000 10105 20005 38261 48582 53012 333 10175 2//// 9//// 555 91028;","","","","","","","","","",""
"68558099999","2005-05-09T08:00:00","-30.9333333","27.6","1819.0","BARKLY EAST, SF","FM-12","4","","30","36","","","-0.04","3","77","CLR:00","","24.46","18.64","33","000","36","0","","","","","","","","","","","","","","","","","","","","","","","","","","","","","","","","","","","","","","","","","","","","","","","","","","","","","","","","","","","","","","","","","","","","","","","","","","","","","","","","","","","","","","","","","","","SYN092AAXX  09064 68558 32980 00000 10025 21012 38282 48609 53012 333 20010 9//// 555 10175 91031;","","","","","","","","","",""
"68558099999","2005-05-09T14:00:00","-30.9333333","27.6","1819.0","BARKLY EAST, SF","FM-12","4","","35","64","","","+0.04","8","33","CLR:00","","24.42","18.64","49","320","33","7","","","","","","","","","","","","","","","","","","","","","","","","","","","","","","","","","","","","","","","","","","","","","","","","","","","","","","","","","","","","","","","","","","","","","","","","","","","","","","","","","","","","","","","","","","","SYN092AAXX  09124 68558 32980 03206 10180 20016 38269 48584 58012 333 1//// 20025 9//// 555 91029;","","","","","","","","","",""
"68558099999","2005-05-09T20:00:00","-30.9333333","27.6","1819.0","BARKLY EAST, SF","FM-12","4","","34","52","","","-0.02","3","52","CLR:00","","24.44","18.64","43","000","34","0","","","","","","","","","","","","","","","","","","","","","","","","","","","","","","","","","","","","","","","","","","","","","","","","","","","","","","","","","","","","","","","","","","","","","","","","","","","","","","","","","","","","","","","","","","","SYN092AAXX  09184 68558 32980 00000 10110 20013 38275 48595 53008 333 10190 2//// 9//// 555 91030;","","","","","","","","","",""
"68558099999","2005-05-10T08:00:00","-30.9333333","27.6","1819.0","BARKLY EAST, SF","FM-12","4","","25","35","","","-0.01","3","68","CLR:00","","24.45","18.64","31","000","36","0","","","","","","","","","","","","","","","","","","","","","","","","","","","","","","","","","","","","","","","","","","","","","","","","","","","","","","","","","","","","","","","","","","","","","","","","","","","","","","","","","","","","","","","","","","","SYN092AAXX  10064 68558 32980 00000 10015 21039 38281 48608 53002 333 20010 9//// 555 10185 91031;","","","","","","","","","",""
"68558099999","2005-05-10T14:00:00","-30.9333333","27.6","1819.0","BARKLY EAST, SF","FM-12","4","","32","66","","","+0.05","8","28","CLR:00","","24.40","18.64","49","320","33","7","","","","","","","","","","","","","","","","","","","","","","","","","","","","","","","","","","","","","","","","","","","","","","","","","","","","","","","","","","","","","","","","","","","","","","","","","","","","","","","","","","","","","","","","","","","SYN092AAXX  10124 68558 32980 03206 10190 20002 38264 48578 58018 333 1//// 20010 9//// 555 91029;","","","","","","","","","",""
"68558099999","2005-05-10T20:00:00","-30.9333333","27.6","1819.0","BARKLY EAST, SF","FM-12","4","","29","55","","","-0.02","3","37","CLR:00","","24.40","18.64","43","000","33","0","","","","","","","","","","","","","","","","","","","","","","","","","","","","","","","","","","","","","","","","","","","","","","","","","","","","","","","","","","","","","","","","","","","","","","","","","","","","","","","","","","","","","","","","","","","SYN092AAXX  10184 68558 32980 00000 10130 21016 38264 48583 53006 333 10200 2//// 9//// 555 91029;","","","","","","","","","",""
"68558099999","2005-05-11T08:00:00","-30.9333333","27.6","1819.0","BARKLY EAST, SF","FM-12","4","","28","39","","","-0.00","3","64","","","24.41","18.64","34","000","33","0","","","","","","","","","","","","","","","","","","","","","","","","","","","","","","","","","","","","","","","","","","","","","","","","","","","","","","","","","","","","","","","","","","","","","","","","","","","","","","","","","","","","","","","","","","","SYN098AAXX  11064 68558 32980 40000 10040 21023 38267 48593 53001 82101 333 20030 9//// 555 10200 91029;","","","","","","","","","",""
"68558099999","2005-05-11T14:00:00","-30.9333333","27.6","1819.0","BARKLY EAST, SF","FM-12","4","","34","69","","","+0.07","8","27","","","","18.64","","320","55","7","","","","","","","","","","","","","","","","","","","","","","","","","","","","","","","","","","","","","","","","","","","","","","","","","","","","","","","","","","","","","","","","","","","","","","","","","","","","","","","","","","","","","","","","","","","SYN098AAXX  11124 68558 32980 33206 10205 20010 38423 48739 58023 81101 333 1//// 20035 9//// 555 91048;","","","","","","","","","",""
"68558099999","2005-05-11T20:00:00","-30.9333333","27.6","1819.0","BARKLY EAST, SF","FM-12","4","","34","52","","","-0.01","3","52","","","24.34","18.64","43","000","30","0","","","","","","","","","","","","","","","","","","","","","","","","","","","","","","","","","","","","","","","","","","","","","","","","","","","","","","","","","","","","","","","","","","","","","","","","","","","","","","","","","","","","","","","","","","","SYN098AAXX  11184 68558 32980 10000 10110 20013 38243 48563 53005 81100 333 10215 2//// 9//// 555 91026;","","","","","","","","","",""
"68558099999","2005-05-12T08:00:00","-30.9333333","27.6","1819.0","BARKLY EAST, SF","FM-12","4","","30","41","","","-0.01","3","66","CLR:00","","24.35","18.64","36","000","30","0","","","","","","","","","","","","","","","","","","","","","","","","","","","","","","","","","","","","","","","","","","","","","","","","","","","","","","","","","","","","","","","","","","","","","","","","","","","","","","","","","","","","","","","","","","","SYN092AAXX  12064 68558 32980 00000 10050 21010 38245 48571 53002 333 20045 9//// 555 10215 91026;","","","","","","","","","",""
"68558099999","2005-05-12T14:00:00","-30.9333333","27.6","1819.0","BARKLY EAST, SF","FM-12","4","","39","65","","","+0.05","8","38","CLR:00","","24.29","18.64","51","320","28","7","","","","","","","","","","","","","","","","","","","","","","","","","","","","","","","","","","","","","","","","","","","","","","","","","","","","","","","","","","","","","","","","","","","","","","","","","","","","","","","","","","","","","","","","","","","SYN092AAXX  12124 68558 32980 03206 10185 20040 38224 48537 58018 333 1//// 20045 9//// 555 91024;","","","","","","","","","",""
"68558099999","2005-05-12T20:00:00","-30.9333333","27.6","1819.0","BARKLY EAST, SF","FM-12","4","","38","58","","","-0.01","3","48","CLR:00","","24.27","18.64","48","050","26","7","","","","","","","","","","","","","","","","","","","","","","","","","","","","","","","","","","","","","","","","","","","","","","","","","","","","","","","","","","","","","","","","","","","","","","","","","","","","","","","","","","","","","","","","","","","SYN092AAXX  12184 68558 32980 00506 10145 20034 38218 48535 53002 333 10195 2//// 9//// 555 91023;","","","","","","","","","",""
"68558099999","2005-05-13T14:00:00","-30.9333333","27.6","1819.0","BARKLY EAST, SF","FM-12","4","","33","66","","","+0.04","8","29","","","24.25","18.64","49","320","26","5","","","","","","","","","","","","","","","","","","","","","","","","","","","","","","","","","","","","","","","","","","","","","","","","","","","","","","","","","","","","","","","","","","","","","","","","","","","","","","","","","","","","","","","","","","","SYN098AAXX  13124 68558 32980 13204 10190 20007 38213 48525 58015 81100 333 1//// 20065 9//// 555 91023;","","","","","","","","","",""
"68558099999","2005-05-13T20:00:00","-30.9333333","27.6","1819.0","BARKLY EAST, SF","FM-12","4","","39","55","","","-0.02","3","54","","","24.29","18.64","47","000","28","0","","","","","","","","","","","","","","","","","","","","","","","","","","","","","","","","","","","","","","","","","","","","","","","","","","","","","","","","","","","","","","","","","","","","","","","","","","","","","","","","","","","","","","","","","","","SYN098AAXX  13184 68558 32980 20000 10130 20039 38226 48544 53008 82100 333 10195 2//// 9//// 555 91024;","","","","","","","","","",""
"68558099999","2005-05-14T08:00:00","-30.9333333","27.6","1819.0","BARKLY EAST, SF","FM-12","4","","44","46","","","-0.00","3","93","","","24.31","18.64","45","000","29","0","","","","","","","","","","","","","","","","","","","","","","","","","","","","","","","","","","","","","","","","","","","","","","","","","","","","","","","","","","","","","","","","","","","","","","","","","","","","","","","","","","","","","","","","","","","SYN098AAXX  14064 68558 32980 40000 10080 20069 38232 48555 53001 82101 333 20065 9//// 555 10195 91025;","","","","","","","","","",""
"68558099999","2005-05-14T14:00:00","-30.9333333","27.6","1819.0","BARKLY EAST, SF","FM-12","4","","34","63","","","+0.06","8","33","","","24.24","18.64","48","320","25","13","","","","","","","","","","","","","","","","","","","","","","","","","","","","","","","","","","","","","","","","","","","","","","","","","","","","","","","","","","","","","","","","","","","","","","","","","","","","","","","","","","","","","","","","","","","SYN098AAXX  14124 68558 32980 53211 10175 20011 38208 48522 58021 83101 333 1//// 20080 9//// 555 91022;","","","","","","","","","",""
"68558099999","2005-05-14T20:00:00","-30.9333333","27.6","1819.0","BARKLY EAST, SF","FM-12","4","","39","52","","","-0.00","3","61","CLR:00","","24.21","18.64","45","000","24","0","","","","","","","","","","","","","","","","","","","","","","","","","","","","","","","","","","","","","","","","","","","","","","","","","","","","","","","","","","","","","","","","","","","","","","","","","","","","","","","","","","","","","","","","","","","SYN092AAXX  14184 68558 42980 00000 10110 20038 38200 48520 53001 333 10190 2//// 9//// 555 91021;","","","","","","","","","",""
"68558099999","2005-05-15T08:00:00","-30.9333333","27.6","1819.0","BARKLY EAST, SF","FM-12","4","","41","48","","","+0.03","8","75","","","24.12","12.43","44","320","19","19","","","","","","","","","","","","","","","","","","","","","","","","","","","","","","","","","","","","","","","","","","","","","","","","","","","","","","","","","","","","","","","","","","","","","","","","","","","","","","","","","","","","","","","","","","","SYN110AAXX  15064 68558 12770 73217 10090 20048 38167 48489 58010 60014 83221 333 20070 9//// 555 10190 20010 91017;","","","","","","","","","",""
"68558099999","2005-05-15T20:00:00","-30.9333333","27.6","1819.0","BARKLY EAST, SF","FM-12","4","","41","45","","","-0.04","3","86","","","24.22","18.64","43","000","24","0","","","","","","","","","","","","","","","","","","","","","","","","","","","","","","","","","","","","","","","","","","","","","","","","","","","","","","","","","","","","","","","","","","","","","","","","","","","","","","","","","","","","","","","","","","","SYN098AAXX  15184 68558 32980 50000 10070 20048 38201 48525 53013 83101 333 10115 2//// 9//// 555 91021;","","","","","","","","","",""
"68558099999","2005-05-16T14:00:00","-30.9333333","27.6","1819.0","BARKLY EAST, SF","FM-12","4","","37","59","","","+0.06","8","44","CLR:00","","24.20","18.64","48","320","23","7","","","","","","","","","","","","","","","","","","","","","","","","","","","","","","","","","","","","","","","","","","","","","","","","","","","","","","","","","","","","","","","","","","","","","","","","","","","","","","","","","","","","","","","","","","","SYN092AAXX  16124 68558 32980 03206 10150 20029 38194 48510 58021 333 1//// 20050 9//// 555 91020;","","","","","","","","","",""
"68558099999","2005-05-16T20:00:00","-30.9333333","27.6","1819.0","BARKLY EAST, SF","FM-12","4","","34","48","","","-0.03","3","58","CLR:00","","24.26","18.64","41","000","26","0","","","","","","","","","","","","","","","","","","","","","","","","","","","","","","","","","","","","","","","","","","","","","","","","","","","","","","","","","","","","","","","","","","","","","","","","","","","","","","","","","","","","","","","","","","","SYN092AAXX  16184 68558 32980 00000 10090 20012 38216 48538 53010 333 10170 2//// 9//// 555 91023;","","","","","","","","","",""
"68558099999","2005-05-17T08:00:00","-30.9333333","27.6","1819.0","BARKLY EAST, SF","FM-12","4","","32","48","","","-0.01","3","54","CLR:00","","24.29","18.64","41","050","28","7","","","","","","","","","","","","","","","","","","","","","","","","","","","","","","","","","","","","","","","","","","","","","","","","","","","","","","","","","","","","","","","","","","","","","","","","","","","","","","","","","","","","","","","","","","","SYN092AAXX  17064 68558 32980 00506 10090 21000 38225 48547 53005 333 20050 9//// 555 10170 91024;","","","","","","","","","",""
"68558099999","2005-05-17T14:00:00","-30.9333333","27.6","1819.0","BARKLY EAST, SF","FM-12","4","","21","63","","","+0.04","8","19","CLR:00","","24.25","18.64","44","320","25","5","","","","","","","","","","","","","","","","","","","","","","","","","","","","","","","","","","","","","","","","","","","","","","","","","","","","","","","","","","","","","","","","","","","","","","","","","","","","","","","","","","","","","","","","","","","SYN092AAXX  17124 68558 32980 03204 10175 21062 38211 48525 58012 333 1//// 20045 9//// 555 91022;","","","","","","","","","",""
"68558099999","2005-05-17T20:00:00","-30.9333333","27.6","1819.0","BARKLY EAST, SF","FM-12","4","","22","54","","","-0.04","3","29","CLR:00","","24.28","18.64","40","140","28","6","","","","","","","","","","","","","","","","","","","","","","","","","","","","","","","","","","","","","","","","","","","","","","","","","","","","","","","","","","","","","","","","","","","","","","","","","","","","","","","","","","","","","","","","","","","SYN092AAXX  17184 68558 32980 01405 10120 21054 38222 48541 53012 333 10180 2//// 9//// 555 91024;","","","","","","","","","",""
"68558099999","2005-05-18T08:00:00","-30.9333333","27.6","1819.0","BARKLY EAST, SF","FM-12","4","","29","48","","","-0.02","3","48","CLR:00","","24.27","18.64","39","000","26","0","","","","","","","","","","","","","","","","","","","","","","","","","","","","","","","","","","","","","","","","","","","","","","","","","","","","","","","","","","","","","","","","","","","","","","","","","","","","","","","","","","","","","","","","","","","SYN092AAXX  18064 68558 32980 00000 10090 21016 38219 48541 53006 333 20045 9//// 555 10180 91023;","","","","","","","","","",""
"68558099999","2005-05-18T14:00:00","-30.9333333","27.6","1819.0","BARKLY EAST, SF","FM-12","4","","30","68","","","+0.03","8","24","CLR:00","","24.25","18.64","49","320","26","11","","","","","","","","","","","","","","","","","","","","","","","","","","","","","","","","","","","","","","","","","","","","","","","","","","","","","","","","","","","","","","","","","","","","","","","","","","","","","","","","","","","","","","","","","","","SYN092AAXX  18124 68558 32980 03210 10200 21010 38213 48524 58011 333 1//// 20085 9//// 555 91023;","","","","","","","","","",""
"68558099999","2005-05-18T20:00:00","-30.9333333","27.6","1819.0","BARKLY EAST, SF","FM-12","4","","32","59","","","-0.02","3","36","CLR:00","","24.28","18.64","46","000","28","0","","","","","","","","","","","","","","","","","","","","","","","","","","","","","","","","","","","","","","","","","","","","","","","","","","","","","","","","","","","","","","","","","","","","","","","","","","","","","","","","","","","","","","","","","","","SYN092AAXX  18184 68558 32980 00000 10150 21002 38221 48537 53007 333 10205 2//// 9//// 555 91024;","","","","","","","","","",""
"68558099999","2005-05-19T08:00:00","-30.9333333","27.6","1819.0","BARKLY EAST, SF","FM-12","4","","31","37","","","-0.03","3","76","CLR:00","","24.35","18.64","34","000","31","0","","","","","","","","","","","","","","","","","","","","","","","","","","","","","","","","","","","","","","","","","","","","","","","","","","","","","","","","","","","","","","","","","","","","","","","","","","","","","","","","","","","","","","","","","","","SYN092AAXX  19064 68558 32980 00000 10030 21008 38247 48574 53009 333 20015 9//// 555 10205 91027;","","","","","","","","","",""
"68558099999","2005-05-19T14:00:00","-30.9333333","27.6","1819.0","BARKLY EAST, SF","FM-12","4","","33","63","","","+0.04","8","32","CLR:00","","24.34","18.64","48","230","30","7","","","","","","","","","","","","","","","","","","","","","","","","","","","","","","","","","","","","","","","","","","","","","","","","","","","","","","","","","","","","","","","","","","","","","","","","","","","","","","","","","","","","","","","","","","","SYN092AAXX  19124 68558 32980 02306 10170 20003 38242 48557 58012 333 1//// 20025 9//// 555 91026;","","","","","","","","","",""
"68558099999","2005-05-19T20:00:00","-30.9333333","27.6","1819.0","BARKLY EAST, SF","FM-12","4","","38","44","","","-0.07","3","79","CLR:00","","24.42","18.64","41","000","33","0","","","","","","","","","","","","","","","","","","","","","","","","","","","","","","","","","","","","","","","","","","","","","","","","","","","","","","","","","","","","","","","","","","","","","","","","","","","","","","","","","","","","","","","","","","","SYN092AAXX  19184 68558 32980 00000 10065 20031 38269 48593 53023 333 10125 2//// 9//// 555 91029;","","","","","","","","","",""
"68558099999","2005-05-20T08:00:00","-30.9333333","27.6","1819.0","BARKLY EAST, SF","FM-12","4","","31","33","","","-0.04","3","92","CLR:00","","24.45","18.64","32","000","34","0","","","","","","","","","","","","","","","","","","","","","","","","","","","","","","","","","","","","","","","","","","","","","","","","","","","","","","","","","","","","","","","","","","","","","","","","","","","","","","","","","","","","","","","","","","","SYN092AAXX  20064 68558 32980 00000 10005 21007 38279 48607 53012 333 21005 9//// 555 10175 91030;","","","","","","","","","",""
"68558099999","2005-05-21T08:00:00","-30.9333333","27.6","1819.0","BARKLY EAST, SF","FM-12","4","","32","38","","","-0.02","3","78","CLR:00","","24.47","18.64","35","000","36","0","","","","","","","","","","","","","","","","","","","","","","","","","","","","","","","","","","","","","","","","","","","","","","","","","","","","","","","","","","","","","","","","","","","","","","","","","","","","","","","","","","","","","","","","","","","SYN092AAXX  21064 68558 32980 00000 10035 21001 38285 48611 53008 333 20025 9//// 555 10185 91031;","","","","","","","","","",""
"68558099999","2005-05-21T14:00:00","-30.9333333","27.6","1819.0","BARKLY EAST, SF","FM-12","4","","33","64","","","+0.06","8","30","CLR:00","","24.40","18.64","48","320","33","11","","","","","","","","","","","","","","","","","","","","","","","","","","","","","","","","","","","","","","","","","","","","","","","","","","","","","","","","","","","","","","","","","","","","","","","","","","","","","","","","","","","","","","","","","","","SYN092AAXX  21124 68558 32980 03210 10180 20003 38264 48578 58022 333 1//// 20035 9//// 555 91029;","","","","","","","","","",""
"68558099999","2005-05-21T20:00:00","-30.9333333","27.6","1819.0","BARKLY EAST, SF","FM-12","4","","33","49","","","-0.01","3","53","CLR:00","","24.38","18.64","41","000","32","0","","","","","","","","","","","","","","","","","","","","","","","","","","","","","","","","","","","","","","","","","","","","","","","","","","","","","","","","","","","","","","","","","","","","","","","","","","","","","","","","","","","","","","","","","","","SYN092AAXX  21184 68558 32980 00000 10095 20004 38257 48578 53002 333 10195 2//// 9//// 555 91028;","","","","","","","","","",""
"68558099999","2005-05-22T08:00:00","-30.9333333","27.6","1819.0","BARKLY EAST, SF","FM-12","4","","35","39","","","-0.02","3","85","CLR:00","","24.39","18.64","37","000","32","0","","","","","","","","","","","","","","","","","","","","","","","","","","","","","","","","","","","","","","","","","","","","","","","","","","","","","","","","","","","","","","","","","","","","","","","","","","","","","","","","","","","","","","","","","","","SYN092AAXX  22064 68558 32980 00000 10040 20017 38260 48586 53008 333 20030 9//// 555 10195 91028;","","","","","","","","","",""
"68558099999","2005-05-23T08:00:00","-30.9333333","27.6","1819.0","BARKLY EAST, SF","FM-12","4","","40","53","","","-0.05","3","62","","","24.33","18.64","46","050","30","7","","","","","","","","","","","","","","","","","","","","","","","","","","","","","","","","","","","","","","","","","","","","","","","","","","","","","","","","","","","","","","","","","","","","","","","","","","","","","","","","","","","","","","","","","","","SYN098AAXX  23064 68558 32980 80506 10115 20045 38238 48558 53016 81101 333 20030 9//// 555 10195 91026;","","","","","","","","","",""
"68558099999","2005-05-23T14:00:00","-30.9333333","27.6","1819.0","BARKLY EAST, SF","FM-12","4","","39","63","","","-0.04","3","40","","","24.33","18.64","50","320","30","11","","","","","","","","","","","","","","","","","","","","","","","","","","","","","","","","","","","","","","","","","","","","","","","","","","","","","","","","","","","","","","","","","","","","","","","","","","","","","","","","","","","","","","","","","","","SYN098AAXX  23124 68558 32980 13210 10175 20038 38238 48552 53015 81100 333 1//// 20115 9//// 555 91026;","","","","","","","","","",""
"68558099999","2005-05-23T20:00:00","-30.9333333","27.6","1819.0","BARKLY EAST, SF","FM-12","4","","36","56","","","-0.01","3","46","","","24.27","18.64","46","140","26","11","","","","","","","","","","","","","","","","","","","","","","","","","","","","","","","","","","","","","","","","","","","","","","","","","","","","","","","","","","","","","","","","","","","","","","","","","","","","","","","","","","","","","","","","","","","SYN098AAXX  23184 68558 32980 41410 10135 20021 38219 48537 53003 82101 333 10185 2//// 9//// 555 91023;","","","","","","","","","",""
"68558099999","2005-05-24T08:00:00","-30.9333333","27.6","1819.0","BARKLY EAST, SF","FM-12","4","","40","42","","","-0.06","3","92","","","24.33","12.43","41","000","30","0","","","","","","","","","","","","","","","","","","","","","","","","","","","","","","","","","","","","","","","","","","","","","","","","","","","","","","","","","","","","","","","","","","","","","","","","","","","","","","","","","","","","","","","","","","","SYN110AAXX  24064 68558 12770 50000 10055 20043 38238 48563 53020 60044 84202 333 20045 9//// 555 10185 20035 91026;","","","","","","","","","",""
"68558099999","2005-05-24T14:00:00","-30.9333333","27.6","1819.0","BARKLY EAST, SF","FM-12","4","","26","50","","","-0.06","3","40","CLR:00","","24.33","18.64","39","140","30","11","","","","","","","","","","","","","","","","","","","","","","","","","","","","","","","","","","","","","","","","","","","","","","","","","","","","","","","","","","","","","","","","","","","","","","","","","","","","","","","","","","","","","","","","","","","SYN092AAXX  24124 68558 32980 01410 10100 21032 38238 48559 53020 333 1//// 20055 9//// 555 91026;","","","","","","","","","",""
"68558099999","2005-05-24T20:00:00","-30.9333333","27.6","1819.0","BARKLY EAST, SF","FM-12","4","","26","40","","","-0.02","3","58","CLR:00","","24.37","18.64","34","140","31","11","","","","","","","","","","","","","","","","","","","","","","","","","","","","","","","","","","","","","","","","","","","","","","","","","","","","","","","","","","","","","","","","","","","","","","","","","","","","","","","","","","","","","","","","","","","SYN092AAXX  24184 68558 32980 01410 10045 21032 38253 48579 53007 333 10105 2//// 9//// 555 91027;","","","","","","","","","",""
"68558099999","2005-05-25T08:00:00","-30.9333333","27.6","1819.0","BARKLY EAST, SF","FM-12","4","","25","27","","","-0.01","3","90","CLR:00","","24.42","18.64","26","000","33","0","","","","","","","","","","","","","","","","","","","","","","","","","","","","","","","","","","","","","","","","","","","","","","","","","","","","","","","","","","","","","","","","","","","","","","","","","","","","","","","","","","","","","","","","","","","SYN092AAXX  25064 68558 32980 00000 11025 21040 38270 48601 53005 333 21030 9//// 555 10105 91029;","","","","","","","","","",""
"68558099999","2005-05-25T14:00:00","-30.9333333","27.6","1819.0","BARKLY EAST, SF","FM-12","4","","30","58s","","","+0.06","8","35","CLR:00","","24.39","18.64","45","000","32","0","","","","","","","","","","","","","","","","","","","","","","","","","","","","","","","","","","","","","","","","","","","","","","","","","","","","","","","","","","","","","","","","","","","","","","","","","","","","","","","","","","","","","","","","","","","SYN092AAXX  25124 68558 32980 00000 10145 21010 38258 48575 58019 333 1//// 21025 9//// 555 91028;","","","","","","","","","",""
"68558099999","2005-05-25T20:00:00","-30.9333333","27.6","1819.0","BARKLY EAST, SF","FM-12","4","","34","50","","","-0.01","3","54","CLR:00","","24.37","18.64","42","000","31","0","","","","","","","","","","","","","","","","","","","","","","","","","","","","","","","","","","","","","","","","","","","","","","","","","","","","","","","","","","","","","","","","","","","","","","","","","","","","","","","","","","","","","","","","","","","SYN092AAXX  25184 68558 32980 00000 10100 20011 38254 48575 53003 333 10160 2//// 9//// 555 91027;","","","","","","","","","",""
"68558099999","2005-05-26T08:00:00","-30.9333333","27.6","1819.0","BARKLY EAST, SF","FM-12","4","","28","44","","","-0.02","3","55","","","24.34","18.64","37","000","30","0","","","","","","","","","","","","","","","","","","","","","","","","","","","","","","","","","","","","","","","","","","","","","","","","","","","","","","","","","","","","","","","","","","","","","","","","","","","","","","","","","","","","","","","","","","","SYN098AAXX  26064 68558 32980 10000 10065 21021 38241 48565 53006 81100 333 20015 9//// 555 10160 91026;","","","","","","","","","",""
"68558099999","2005-05-26T14:00:00","-30.9333333","27.6","1819.0","BARKLY EAST, SF","FM-12","4","","34","57","","","+0.08","8","42","","","24.24","18.64","46","320","25","7","","","","","","","","","","","","","","","","","","","","","","","","","","","","","","","","","","","","","","","","","","","","","","","","","","","","","","","","","","","","","","","","","","","","","","","","","","","","","","","","","","","","","","","","","","","SYN098AAXX  26124 68558 32980 53206 10140 20013 38210 48527 58027 84101 333 1//// 20015 9//// 555 91022;","","","","","","","","","",""
"68558099999","2005-05-26T20:00:00","-30.9333333","27.6","1819.0","BARKLY EAST, SF","FM-12","4","","35","51","","","-0.01","3","55","","","24.25","18.64","43","000","25","0","","","","","","","","","","","","","","","","","","","","","","","","","","","","","","","","","","","","","","","","","","","","","","","","","","","","","","","","","","","","","","","","","","","","","","","","","","","","","","","","","","","","","","","","","","","SYN098AAXX  26184 68558 32980 10000 10105 20018 38212 48533 53002 81100 333 10160 2//// 9//// 555 91022;","","","","","","","","","",""
"68558099999","2005-05-27T08:00:00","-30.9333333","27.6","1819.0","BARKLY EAST, SF","FM-12","4","","36","53","","","-0.01","3","52","","","24.22","18.64","45","050","24","11","","","","","","","","","","","","","","","","","","","","","","","","","","","","","","","","","","","","","","","","","","","","","","","","","","","","","","","","","","","","","","","","","","","","","","","","","","","","","","","","","","","","","","","","","","","SYN098AAXX  27064 68558 32980 60510 10115 20020 38203 48523 53005 84101 333 20005 9//// 555 10160 91021;","","","","","","","","","",""
"68558099999","2005-05-27T14:00:00","-30.9333333","27.6","1819.0","BARKLY EAST, SF","FM-12","4","","38","62","","","+0.04","8","42","","","24.19","18.64","49","320","23","19","","","","","","","","","","","","","","","","","","","","","","","","","","","","","","","","","","","","","","","","","","","","","","","","","","","","","","","","","","","","","","","","","","","","","","","","","","","","","","","","","","","","","","","","","","","SYN098AAXX  27124 68558 32980 43217 10165 20036 38190 48504 58013 83101 333 1//// 20115 9//// 555 91020;","","","","","","","","","",""
"68558099999","2005-05-28T08:00:00","-30.9333333","27.6","1819.0","BARKLY EAST, SF","FM-12","4","","44","47","","","-0.05","3","87","","","24.27","12.43","45","000","26","0","","","","","","","","","","","","","","","","","","","","","","","","","","","","","","","","","","","","","","","","","","","","","","","","","","","","","","","","","","","","","","","","","","","","","","","","","","","","","","","","","","","","","","","","","","","SYN110AAXX  28064 68558 12770 80000 10085 20064 38218 48541 53017 69954 83322 333 20085 9//// 555 10175 20005 91023;","","","","","","","","","",""
"68558099999","2005-05-28T14:00:00","-30.9333333","27.6","1819.0","BARKLY EAST, SF","FM-12","4","","48","50","","","+0.04","8","94","","","24.27","6.21","49","000","26","0","","","","","","","","","","","","","","","","","","","","","","","","","","","","","","","","","","","","","","","","","","","","","","","","","","","","","","","","","","","","","","","","","","","","","","","","","","","","","","","","","","","","","","","","","","","SYN098AAXX  28124 68558 32660 80000 10100 20090 38220 48541 58013 8422/ 333 1//// 20080 9//// 555 91023;","","","","","","","","","",""
"68558099999","2005-05-29T08:00:00","-30.9333333","27.6","1819.0","BARKLY EAST, SF","FM-12","4","","43","46","","","+0.02","8","87","","","24.11","18.64","44","320","19","11","","","","","","","","","","","","","","","","","","","","","","","","","","","","","","","","","","","","","","","","","","","","","","","","","","","","","","","","","","","","","","","","","","","","","","","","","","","","","","","","","","","","","","","","","","","SYN110AAXX  29064 68558 12980 83210 10080 20059 38165 48489 58006 60114 83221 333 20070 9//// 555 10110 20110 91017;","","","","","","","","","",""
"68558099999","2005-05-29T14:00:00","-30.9333333","27.6","1819.0","BARKLY EAST, SF","FM-12","4","","28","51","","","+0.01","8","41","","","24.10","18.64","40","320","18","17","","","","","","","","","","","","","","","","","","","","","","","","","","","","","","","","","","","","","","","","","","","","","","","","","","","","","","","","","","","","","","","","","","","","","","","","","","","","","","","","","","","","","","","","","","","SYN098AAXX  29124 68558 32980 33215 10105 21024 38161 48481 58002 82101 333 1//// 20070 9//// 555 91016;","","","","","","","","","",""
"68558099999","2005-05-29T20:00:00","-30.9333333","27.6","1819.0","BARKLY EAST, SF","FM-12","4","","27","41","","","-0.05","3","59","","","24.19","18.64","35","320","23","7","","","","","","","","","","","","","","","","","","","","","","","","","","","","","","","","","","","","","","","","","","","","","","","","","","","","","","","","","","","","","","","","","","","","","","","","","","","","","","","","","","","","","","","","","","","SYN098AAXX  29184 68558 32980 13206 10050 21025 38190 48517 53017 81100 333 10110 2//// 9//// 555 91020;","","","","","","","","","",""
"68558099999","2005-05-30T08:00:00","-30.9333333","27.6","1819.0","BARKLY EAST, SF","FM-12","4","","31","37","","","-0.02","3","76","","","24.27","18.64","34","320","26","7","","","","","","","","","","","","","","","","","","","","","","","","","","","","","","","","","","","","","","","","","","","","","","","","","","","","","","","","","","","","","","","","","","","","","","","","","","","","","","","","","","","","","","","","","","","SYN098AAXX  30064 68558 32980 63206 10030 21008 38219 48547 53008 84101 333 20025 9//// 555 10110 91023;","","","","","","","","","",""
"68558099999","2005-05-30T14:00:00","-30.9333333","27.6","1819.0","BARKLY EAST, SF","FM-12","4","","35","49","","","+0.05","8","59","","","24.25","18.64","42","000","26","0","","","","","","","","","","","","","","","","","","","","","","","","","","","","","","","","","","","","","","","","","","","","","","","","","","","","","","","","","","","","","","","","","","","","","","","","","","","","","","","","","","","","","","","","","","","SYN098AAXX  30124 68558 32980 10000 10095 20019 38213 48535 58018 81100 333 1//// 20030 9//// 555 91023;","","","","","","","","","",""
"68558099999","2005-05-30T20:00:00","-30.9333333","27.6","1819.0","BARKLY EAST, SF","FM-12","4","","34","38","","","-0.03","3","84","CLR:00","","24.30","18.64","36","000","29","0","","","","","","","","","","","","","","","","","","","","","","","","","","","","","","","","","","","","","","","","","","","","","","","","","","","","","","","","","","","","","","","","","","","","","","","","","","","","","","","","","","","","","","","","","","","SYN092AAXX  30184 68558 32980 00000 10035 20010 38230 48557 53011 333 10105 2//// 9//// 555 91025;","","","","","","","","","",""
"68558099999","2005-05-31T08:00:00","-30.9333333","27.6","1819.0","BARKLY EAST, SF","FM-12","4","","30","41","","","+0.03","8","66","CLR:00","","24.25","18.64","36","050","26","13","","","","","","","","","","","","","","","","","","","","","","","","","","","","","","","","","","","","","","","","","","","","","","","","","","","","","","","","","","","","","","","","","","","","","","","","","","","","","","","","","","","","","","","","","","","SYN092AAXX  31064 68558 32980 00511 10050 21010 38213 48539 58009 333 21015 9//// 555 10105 91023;","","","","","","","","","",""
"68558099999","2005-06-01T08:00:00","-30.9333333","27.6","1819.0","BARKLY EAST, SF","FM-12","4","","21","47","","","-0.04","3","36","CLR:00","","24.20","18.64","36","320","23","7","","","","","","","","","","","","","","","","","","","","","","","","","","","","","","","","","","","","","","","","","","","","","","","","","","","","","","","","","","","","","","","","","","","","","","","","","","","","","","","","","","","","","","","","","","","SYN092AAXX  01064 68558 32980 03206 10085 21060 38195 48518 53012 333 20000 9//// 555 10145 91020;","","","","","","","","","",""
"68558099999","2005-06-01T14:00:00","-30.9333333","27.6","1819.0","BARKLY EAST, SF","FM-12","4","","18","59","","","+0.01","8","20","CLR:00","","24.21","18.64","41","320","24","8","","","","","","","","","","","","","","","","","","","","","","","","","","","","","","","","","","","","","","","","","","","","","","","","","","","","","","","","","","","","","","","","","","","","","","","","","","","","","","","","","","","","","","","","","","","SYN092AAXX  01124 68558 32980 03207 10150 21077 38198 48514 58005 333 1//// 20080 9//// 555 91021;","","","","","","","","","",""
"68558099999","2005-06-01T20:00:00","-30.9333333","27.6","1819.0","BARKLY EAST, SF","FM-12","4","","19","48","","","-0.04","3","31","CLR:00","","24.25","18.64","36","000","26","0","","","","","","","","","","","","","","","","","","","","","","","","","","","","","","","","","","","","","","","","","","","","","","","","","","","","","","","","","","","","","","","","","","","","","","","","","","","","","","","","","","","","","","","","","","","SYN092AAXX  01184 68558 32980 00000 10090 21072 38213 48535 53012 333 10160 2//// 9//// 555 91023;","","","","","","","","","",""
"68558099999","2005-06-02T08:00:00","-30.9333333","27.6","1819.0","BARKLY EAST, SF","FM-12","4","","36","36","","","-0.01","3","100","CLR:00","","24.26","18.64","36","000","26","0","","","","","","","","","","","","","","","","","","","","","","","","","","","","","","","","","","","","","","","","","","","","","","","","","","","","","","","","","","","","","","","","","","","","","","","","","","","","","","","","","","","","","","","","","","","SYN092AAXX  02064 68558 32980 00000 10020 20020 38217 48546 53005 333 20015 9//// 555 10160 91023;","","","","","","","","","",""
"68558099999","2005-06-02T14:00:00","-30.9333333","27.6","1819.0","BARKLY EAST, SF","FM-12","4","","24","62","","","+0.05","8","24","CLR:00","","24.26","18.64","44","320","26","7","","","","","","","","","","","","","","","","","","","","","","","","","","","","","","","","","","","","","","","","","","","","","","","","","","","","","","","","","","","","","","","","","","","","","","","","","","","","","","","","","","","","","","","","","","","SYN092AAXX  02124 68558 32980 03206 10165 21045 38215 48530 58017 333 1//// 20080 9//// 555 91023;","","","","","","","","","",""
"68558099999","2005-06-02T20:00:00","-30.9333333","27.6","1819.0","BARKLY EAST, SF","FM-12","4","","24","53","","","-0.02","3","33","CLR:00","","24.29","18.64","40","050","28","7","","","","","","","","","","","","","","","","","","","","","","","","","","","","","","","","","","","","","","","","","","","","","","","","","","","","","","","","","","","","","","","","","","","","","","","","","","","","","","","","","","","","","","","","","","","SYN092AAXX  02184 68558 42980 00506 10115 21045 38226 48546 53008 333 10170 2//// 9//// 555 91024;","","","","","","","","","",""
"68558099999","2005-06-03T08:00:00","-30.9333333","27.6","1819.0","BARKLY EAST, SF","FM-12","4","","26","42","","","-0.03","3","53","CLR:00","","24.34","18.64","35","000","30","0","","","","","","","","","","","","","","","","","","","","","","","","","","","","","","","","","","","","","","","","","","","","","","","","","","","","","","","","","","","","","","","","","","","","","","","","","","","","","","","","","","","","","","","","","","","SYN092AAXX  03064 68558 32980 00000 10055 21035 38243 48568 53010 333 20045 9//// 555 10170 91026;","","","","","","","","","",""
"68558099999","2005-06-03T20:00:00","-30.9333333","27.6","1819.0","BARKLY EAST, SF","FM-12","4","","38","56","","","-0.02","3","50","CLR:00","","24.32","18.64","47","000","29","0","","","","","","","","","","","","","","","","","","","","","","","","","","","","","","","","","","","","","","","","","","","","","","","","","","","","","","","","","","","","","","","","","","","","","","","","","","","","","","","","","","","","","","","","","","","SYN092AAXX  03184 68558 32980 00000 10135 20033 38235 48553 53006 333 10195 2//// 9//// 555 91025;","","","","","","","","","",""
"68558099999","2005-06-04T08:00:00","-30.9333333","27.6","1819.0","BARKLY EAST, SF","FM-12","4","","27","41","","","-0.02","3","59","CLR:00","","24.30","18.64","35","000","28","0","","","","","","","","","","","","","","","","","","","","","","","","","","","","","","","","","","","","","","","","","","","","","","","","","","","","","","","","","","","","","","","","","","","","","","","","","","","","","","","","","","","","","","","","","","","SYN092AAXX  04064 68558 32980 00000 10050 21025 38229 48555 53006 333 20040 9//// 555 10195 91024;","","","","","","","","","",""
"68558099999","2005-06-04T20:00:00","-30.9333333","27.6","1819.0","BARKLY EAST, SF","FM-12","4","","33","49","","","-0.03","3","53","CLR:00","","24.26","18.64","41","000","26","0","","","","","","","","","","","","","","","","","","","","","","","","","","","","","","","","","","","","","","","","","","","","","","","","","","","","","","","","","","","","","","","","","","","","","","","","","","","","","","","","","","","","","","","","","","","SYN092AAXX  04184 68558 32980 00000 10095 20004 38215 48537 53011 333 10195 2//// 9//// 555 91023;","","","","","","","","","",""
"68558099999","2005-06-05T08:00:00","-30.9333333","27.6","1819.0","BARKLY EAST, SF","FM-12","4","","30","41","","","-0.05","3","66","","","24.31","18.64","36","000","29","0","","","","","","","","","","","","","","","","","","","","","","","","","","","","","","","","","","","","","","","","","","","","","","","","","","","","","","","","","","","","","","","","","","","","","","","","","","","","","","","","","","","","","","","","","","","SYN098AAXX  05064 68558 32980 30000 10050 21010 38231 48557 53016 83200 333 20035 9//// 555 10195 91025;","","","","","","","","","",""
"68558099999","2005-06-08T08:00:00","-30.9333333","27.6","1819.0","BARKLY EAST, SF","FM-12","4","","33","47","","","-0.04","3","58","","","24.19","18.64","40","360","23","11","","","","","","","","","","","","","","","","","","","","","","","","","","","","","","","","","","","","","","","","","","","","","","","","","","","","","","","","","","","","","","","","","","","","","","","","","","","","","","","","","","","","","","","","","","","SYN098AAXX  08064 68558 32980 23610 10085 20007 38190 48513 53012 82100 333 20010 9//// 555 10160 91020;","","","","","","","","","",""
"68558099999","2005-06-08T14:00:00","-30.9333333","27.6","1819.0","BARKLY EAST, SF","FM-12","4","","13","64","","","+0.04","8","13","","","24.16","18.64","42","320","22","17","","","","","","","","","","","","","","","","","","","","","","","","","","","","","","","","","","","","","","","","","","","","","","","","","","","","","","","","","","","","","","","","","","","","","","","","","","","","","","","","","","","","","","","","","","","SYN098AAXX  08124 68558 32980 23215 10180 21107 38183 48495 58015 82100 333 1//// 20070 9//// 555 91019;","","","","","","","","","",""
"68558099999","2005-06-08T20:00:00","-30.9333333","27.6","1819.0","BARKLY EAST, SF","FM-12","4","","31","44","","","-0.04","3","61","CLR:00","","24.19","18.64","38","320","23","7","","","","","","","","","","","","","","","","","","","","","","","","","","","","","","","","","","","","","","","","","","","","","","","","","","","","","","","","","","","","","","","","","","","","","","","","","","","","","","","","","","","","","","","","","","","SYN092AAXX  08184 68558 32980 03206 10065 21006 38190 48515 53012 333 10155 2//// 9//// 555 91020;","","","","","","","","","",""
"68558099999","2005-06-09T08:00:00","-30.9333333","27.6","1819.0","BARKLY EAST, SF","FM-12","4","","32","38","","","-0.03","3","78","","","24.24","18.64","35","320","25","7","","","","","","","","","","","","","","","","","","","","","","","","","","","","","","","","","","","","","","","","","","","","","","","","","","","","","","","","","","","","","","","","","","","","","","","","","","","","","","","","","","","","","","","","","","","SYN098AAXX  09064 68558 32980 43206 10035 21001 38210 48538 53010 84201 333 20025 9//// 555 10155 91022;","","","","","","","","","",""
"68558099999","2005-06-09T14:00:00","-30.9333333","27.6","1819.0","BARKLY EAST, SF","FM-12","4","","26","48","","","+0.03","8","43","","","24.24","18.64","38","320","25","19","","","","","","","","","","","","","","","","","","","","","","","","","","","","","","","","","","","","","","","","","","","","","","","","","","","","","","","","","","","","","","","","","","","","","","","","","","","","","","","","","","","","","","","","","","","SYN098AAXX  09124 68558 32980 13217 10090 21031 38208 48530 58010 81200 333 1//// 20035 9//// 555 91022;","","","","","","","","","",""
"68558099999","2005-06-09T20:00:00","-30.9333333","27.6","1819.0","BARKLY EAST, SF","FM-12","4","","","43","","","","","","CLR:00","","","13.67","","330","","5","","","","","","","","","","","","","","","","","","","","","","","","","","","","","","","","","","","","","","","","","","","","","","","","","","","","","","","","","","","","","","","","","","","","","","","","","","","","","","","","","","","","","","","","","","","SYN092AAXX  09184 68558 32972 03304 10059 2//// 3//// 4//// 5//// 333 10122 2//// 9//// 555 9////;","","","","","","","","","",""
"68558099999","2005-06-10T08:00:00","-30.9333333","27.6","1819.0","BARKLY EAST, SF","FM-12","4","","16","19","","","-0.02","3","87","CLR:00","","24.34","18.64","18","000","30","0","","","","","","","","","","","","","","","","","","","","","","","","","","","","","","","","","","","","","","","","","","","","","","","","","","","","","","","","","","","","","","","","","","","","","","","","","","","","","","","","","","","","","","","","","","","SYN092AAXX  10064 68558 32980 00000 11070 21088 38242 48578 53007 333 21085 9//// 555 10100 91026;","","","","","","","","","",""
"68558099999","2005-06-11T08:00:00","-30.9333333","27.6","1819.0","BARKLY EAST, SF","FM-12","4","","18","29","","","-0.02","3","63","CLR:00","","24.39","18.64","25","000","32","0","","","","","","","","","","","","","","","","","","","","","","","","","","","","","","","","","","","","","","","","","","","","","","","","","","","","","","","","","","","","","","","","","","","","","","","","","","","","","","","","","","","","","","","","","","","SYN092AAXX  11064 68558 32980 00000 11015 21078 38260 48591 53007 333 21020 9//// 555 10125 91028;","","","","","","","","","",""
"68558099999","2005-06-11T14:00:00","-30.9333333","27.6","1819.0","BARKLY EAST, SF","FM-12","4","","6","61s","","","+0.06","8","11","CLR:00","","24.34","18.64","40","320","30","11","","","","","","","","","","","","","","","","","","","","","","","","","","","","","","","","","","","","","","","","","","","","","","","","","","","","","","","","","","","","","","","","","","","","","","","","","","","","","","","","","","","","","","","","","","","SYN092AAXX  11124 68558 32980 03210 10160 21144 38243 48559 58021 333 1//// 20100 9//// 555 91026;","","","","","","","","","",""
"68558099999","2005-06-11T20:00:00","-30.9333333","27.6","1819.0","BARKLY EAST, SF","FM-12","4","","22","52","","","+0.01","8","31","CLR:00","","24.33","18.64","39","050","30","11","","","","","","","","","","","","","","","","","","","","","","","","","","","","","","","","","","","","","","","","","","","","","","","","","","","","","","","","","","","","","","","","","","","","","","","","","","","","","","","","","","","","","","","","","","","SYN092AAXX  11184 68558 32980 00510 10110 21054 38238 48558 58002 333 10165 2//// 9//// 555 91026;","","","","","","","","","",""
"68558099999","2005-06-12T08:00:00","-30.9333333","27.6","1819.0","BARKLY EAST, SF","FM-12","4","","41","48","","","-0.07","3","75","","","24.23","12.43","44","050","25","22","","","","","","","","","","","","","","","","","","","","","","","","","","","","","","","","","","","","","","","","","","","","","","","","","","","","","","","","","","","","","","","","","","","","","","","","","","","","","","","","","","","","","","","","","","","SYN110AAXX  12064 68558 12770 80519 10090 20048 38206 48528 53023 60104 83321 333 20050 9//// 555 10165 20095 91022;","","","","","","","","","",""
"68558099999","2005-06-12T14:00:00","-30.9333333","27.6","1819.0","BARKLY EAST, SF","FM-12","4","","41","60","","","+0.08","8","49","","","24.13","18.64","50","320","21","19","","","","","","","","","","","","","","","","","","","","","","","","","","","","","","","","","","","","","","","","","","","","","","","","","","","","","","","","","","","","","","","","","","","","","","","","","","","","","","","","","","","","","","","","","","","SYN098AAXX  12124 68558 32980 53217 10155 20049 38172 48487 58028 83201 333 1//// 20085 9//// 555 91018;","","","","","","","","","",""
"68558099999","2005-06-12T20:00:00","-30.9333333","27.6","1819.0","BARKLY EAST, SF","FM-12","4","","34","57","","","+0.01","8","42","","","24.10","18.64","46","320","18","17","","","","","","","","","","","","","","","","","","","","","","","","","","","","","","","","","","","","","","","","","","","","","","","","","","","","","","","","","","","","","","","","","","","","","","","","","","","","","","","","","","","","","","","","","","","SYN098AAXX  12184 68558 32980 33215 10140 20013 38160 48476 58002 82101 333 10160 2//// 9//// 555 91016;","","","","","","","","","",""
"68558099999","2005-06-13T08:00:00","-30.9333333","27.6","1819.0","BARKLY EAST, SF","FM-12","4","","25","39","","","-0.03","3","57","","","24.13","18.64","33","320","21","13","","","","","","","","","","","","","","","","","","","","","","","","","","","","","","","","","","","","","","","","","","","","","","","","","","","","","","","","","","","","","","","","","","","","","","","","","","","","","","","","","","","","","","","","","","","SYN098AAXX  13064 68558 32980 53211 10040 21039 38173 48501 53010 83201 333 20025 9//// 555 10160 91018;","","","","","","","","","",""
"68558099999","2005-06-13T14:00:00","-30.9333333","27.6","1819.0","BARKLY EAST, SF","FM-12","4","","28","45","","","+0.04","8","51","","","24.15","18.64","37","320","22","19","","","","","","","","","","","","","","","","","","","","","","","","","","","","","","","","","","","","","","","","","","","","","","","","","","","","","","","","","","","","","","","","","","","","","","","","","","","","","","","","","","","","","","","","","","","SYN098AAXX  13124 68558 32980 23217 10075 21022 38179 48503 58015 82200 333 1//// 20075 9//// 555 91019;","","","","","","","","","",""
"68558099999","2005-06-13T20:00:00","-30.9333333","27.6","1819.0","BARKLY EAST, SF","FM-12","4","","27","36","","","-0.03","3","68","CLR:00","","24.18","18.64","32","000","23","0","","","","","","","","","","","","","","","","","","","","","","","","","","","","","","","","","","","","","","","","","","","","","","","","","","","","","","","","","","","","","","","","","","","","","","","","","","","","","","","","","","","","","","","","","","","SYN092AAXX  13184 68558 32980 00000 10025 21028 38189 48518 53010 333 10085 2//// 9//// 555 91020;","","","","","","","","","",""
"68558099999","2005-06-14T08:00:00","-30.9333333","27.6","1819.0","BARKLY EAST, SF","FM-12","4","","23","28","","","-0.02","3","81","CLR:00","","24.23","18.64","26","000","25","0","","","","","","","","","","","","","","","","","","","","","","","","","","","","","","","","","","","","","","","","","","","","","","","","","","","","","","","","","","","","","","","","","","","","","","","","","","","","","","","","","","","","","","","","","","","SYN092AAXX  14064 68558 32980 00000 11020 21049 38205 48539 53006 333 21020 9//// 555 10085 91022;","","","","","","","","","",""
"68558099999","2005-06-14T14:00:00","-30.9333333","27.6","1819.0","BARKLY EAST, SF","FM-12","4","","23","50","","","+0.06","8","34","CLR:00","","24.19","18.64","38","140","23","5","","","","","","","","","","","","","","","","","","","","","","","","","","","","","","","","","","","","","","","","","","","","","","","","","","","","","","","","","","","","","","","","","","","","","","","","","","","","","","","","","","","","","","","","","","","SYN092AAXX  14124 68558 32980 01404 10100 21051 38191 48512 58020 333 1//// 21020 9//// 555 91020;","","","","","","","","","",""
"68558099999","2005-06-14T20:00:00","-30.9333333","27.6","1819.0","BARKLY EAST, SF","FM-12","4","","24","41","","","-0.02","3","52","CLR:00","","24.20","18.64","34","000","23","0","","","","","","","","","","","","","","","","","","","","","","","","","","","","","","","","","","","","","","","","","","","","","","","","","","","","","","","","","","","","","","","","","","","","","","","","","","","","","","","","","","","","","","","","","","","SYN092AAXX  14184 68558 32980 00000 10050 21042 38194 48520 53007 333 10115 2//// 9//// 555 91020;","","","","","","","","","",""
"68558099999","2005-06-15T08:00:00","-30.9333333","27.6","1819.0","BARKLY EAST, SF","FM-12","4","","27","36","","","-0.04","3","68","","","24.31","18.64","32","000","29","0","","","","","","","","","","","","","","","","","","","","","","","","","","","","","","","","","","","","","","","","","","","","","","","","","","","","","","","","","","","","","","","","","","","","","","","","","","","","","","","","","","","","","","","","","","","SYN098AAXX  15064 68558 32980 30000 10025 21028 38233 48561 53015 82101 333 21020 9//// 555 10115 91025;","","","","","","","","","",""
"68558099999","2005-06-15T20:00:00","-30.9333333","27.6","1819.0","BARKLY EAST, SF","FM-12","4","","29","42","","","-0.02","3","60","CLR:00","","24.34","18.64","36","000","30","0","","","","","","","","","","","","","","","","","","","","","","","","","","","","","","","","","","","","","","","","","","","","","","","","","","","","","","","","","","","","","","","","","","","","","","","","","","","","","","","","","","","","","","","","","","","SYN092AAXX  15184 68558 32980 00000 10055 21018 38241 48566 53008 333 10105 2//// 9//// 555 91026;","","","","","","","","","",""
"68558099999","2005-06-16T08:00:00","-30.9333333","27.6","1819.0","BARKLY EAST, SF","FM-12","4","","21","32","","","-0.04","3","64","CLR:00","","24.40","18.64","28","000","32","0","","","","","","","","","","","","","","","","","","","","","","","","","","","","","","","","","","","","","","","","","","","","","","","","","","","","","","","","","","","","","","","","","","","","","","","","","","","","","","","","","","","","","","","","","","","SYN092AAXX  16064 68558 32980 00000 10000 21060 38262 48591 53013 333 21015 9//// 555 10105 91028;","","","","","","","","","",""
"68558099999","2005-06-16T14:00:00","-30.9333333","27.6","1819.0","BARKLY EAST, SF","FM-12","4","","30","54","","","+0.04","8","40","","","24.37","18.64","43","000","31","0","","","","","","","","","","","","","","","","","","","","","","","","","","","","","","","","","","","","","","","","","","","","","","","","","","","","","","","","","","","","","","","","","","","","","","","","","","","","","","","","","","","","","","","","","","","SYN098AAXX  16124 68558 32980 10000 10125 21010 38254 48573 58013 81100 333 1//// 21005 9//// 555 91027;","","","","","","","","","",""
"68558099999","2005-06-17T08:00:00","-30.9333333","27.6","1819.0","BARKLY EAST, SF","FM-12","4","","18","29","","","-0.03","3","63","CLR:00","","24.45","18.64","25","000","36","0","","","","","","","","","","","","","","","","","","","","","","","","","","","","","","","","","","","","","","","","","","","","","","","","","","","","","","","","","","","","","","","","","","","","","","","","","","","","","","","","","","","","","","","","","","","SYN092AAXX  17064 68558 32980 00000 11015 21078 38280 48610 53010 333 21020 9//// 555 10135 91031;","","","","","","","","","",""
"68558099999","2005-06-17T14:00:00","-30.9333333","27.6","1819.0","BARKLY EAST, SF","FM-12","4","","30","54","","","+0.05","8","40","CLR:00","","24.40","18.64","43","000","33","0","","","","","","","","","","","","","","","","","","","","","","","","","","","","","","","","","","","","","","","","","","","","","","","","","","","","","","","","","","","","","","","","","","","","","","","","","","","","","","","","","","","","","","","","","","","SYN092AAXX  17124 68558 32980 00000 10125 21010 38264 48583 58018 333 1//// 21025 9//// 555 91029;","","","","","","","","","",""
"68558099999","2005-06-17T20:00:00","-30.9333333","27.6","1819.0","BARKLY EAST, SF","FM-12","4","","27","45","","","-0.02","3","50","CLR:00","","24.41","18.64","37","000","33","0","","","","","","","","","","","","","","","","","","","","","","","","","","","","","","","","","","","","","","","","","","","","","","","","","","","","","","","","","","","","","","","","","","","","","","","","","","","","","","","","","","","","","","","","","","","SYN092AAXX  17184 68558 32980 00000 10070 21029 38267 48590 53007 333 10165 2//// 9//// 555 91029;","","","","","","","","","",""
"68558099999","2005-06-18T14:00:00","-30.9333333","27.6","1819.0","BARKLY EAST, SF","FM-12","4","","20","63","","","+0.08","8","18","CLR:00","","24.34","18.64","44","050","30","7","","","","","","","","","","","","","","","","","","","","","","","","","","","","","","","","","","","","","","","","","","","","","","","","","","","","","","","","","","","","","","","","","","","","","","","","","","","","","","","","","","","","","","","","","","","SYN092AAXX  18124 68558 32980 00506 10175 21069 38241 48555 58027 333 1//// 20000 9//// 555 91026;","","","","","","","","","",""
"68558099999","2005-06-18T20:00:00","-30.9333333","27.6","1819.0","BARKLY EAST, SF","FM-12","4","","23","50","","","-0.04","3","34","","","24.36","18.64","38","000","31","0","","","","","","","","","","","","","","","","","","","","","","","","","","","","","","","","","","","","","","","","","","","","","","","","","","","","","","","","","","","","","","","","","","","","","","","","","","","","","","","","","","","","","","","","","","","SYN098AAXX  18184 68558 32980 20000 10100 21051 38250 48571 53013 81101 333 10175 2//// 9//// 555 91027;","","","","","","","","","",""
"68558099999","2005-06-19T08:00:00","-30.9333333","27.6","1819.0","BARKLY EAST, SF","FM-12","4","","27","36","","","-0.03","3","68","","","24.34","18.64","32","060","30","13","","","","","","","","","","","","","","","","","","","","","","","","","","","","","","","","","","","","","","","","","","","","","","","","","","","","","","","","","","","","","","","","","","","","","","","","","","","","","","","","","","","","","","","","","","","SYN098AAXX  19064 68558 32980 40611 10025 21028 38244 48572 53010 82101 333 20000 9//// 555 10175 91026;","","","","","","","","","",""
"68558099999","2005-06-19T14:00:00","-30.9333333","27.6","1819.0","BARKLY EAST, SF","FM-12","4","","31","62","","","+0.04","8","32","CLR:00","","24.33","18.64","47","320","30","15","","","","","","","","","","","","","","","","","","","","","","","","","","","","","","","","","","","","","","","","","","","","","","","","","","","","","","","","","","","","","","","","","","","","","","","","","","","","","","","","","","","","","","","","","","","SYN092AAXX  19124 68558 32980 03213 10165 21005 38238 48553 58013 333 1//// 20065 9//// 555 91026;","","","","","","","","","",""
"68558099999","2005-06-19T20:00:00","-30.9333333","27.6","1819.0","BARKLY EAST, SF","FM-12","4","","35","53","","","-0.02","3","50","CLR:00","","24.30","18.64","44","000","28","0","","","","","","","","","","","","","","","","","","","","","","","","","","","","","","","","","","","","","","","","","","","","","","","","","","","","","","","","","","","","","","","","","","","","","","","","","","","","","","","","","","","","","","","","","","","SYN092AAXX  19184 68558 32980 00000 10115 20014 38228 48548 53007 333 10175 2//// 9//// 555 91024;","","","","","","","","","",""
"68558099999","2005-06-20T14:00:00","-30.9333333","27.6","1819.0","BARKLY EAST, SF","FM-12","4","","27","60","","","+0.05","8","28","CLR:00","","24.34","18.64","44","000","30","0","","","","","","","","","","","","","","","","","","","","","","","","","","","","","","","","","","","","","","","","","","","","","","","","","","","","","","","","","","","","","","","","","","","","","","","","","","","","","","","","","","","","","","","","","","","SYN092AAXX  20124 68558 32980 00000 10155 21028 38244 48560 58017 333 1//// 20010 9//// 555 91026;","","","","","","","","","",""
"68558099999","2005-06-20T20:00:00","-30.9333333","27.6","1819.0","BARKLY EAST, SF","FM-12","4","","25","45","","","-0.02","3","45","CLR:00","","24.37","18.64","36","000","31","0","","","","","","","","","","","","","","","","","","","","","","","","","","","","","","","","","","","","","","","","","","","","","","","","","","","","","","","","","","","","","","","","","","","","","","","","","","","","","","","","","","","","","","","","","","","SYN092AAXX  20184 68558 32980 00000 10075 21039 38252 48575 53007 333 10195 2//// 9//// 555 91027;","","","","","","","","","",""
"68558099999","2005-06-21T08:00:00","-30.9333333","27.6","1819.0","BARKLY EAST, SF","FM-12","4","","28","33","","","-0.02","3","82","","","24.42","18.64","31","000","33","0","","","","","","","","","","","","","","","","","","","","","","","","","","","","","","","","","","","","","","","","","","","","","","","","","","","","","","","","","","","","","","","","","","","","","","","","","","","","","","","","","","","","","","","","","","","SYN098AAXX  21064 68558 32980 40000 10005 21022 38268 48597 53007 83201 333 21005 9//// 555 10195 91029;","","","","","","","","","",""
"68558099999","2005-06-21T14:00:00","-30.9333333","27.6","1819.0","BARKLY EAST, SF","FM-12","4","","35","56","","","+0.04","8","45","","","24.38","18.64","46","140","32","11","","","","","","","","","","","","","","","","","","","","","","","","","","","","","","","","","","","","","","","","","","","","","","","","","","","","","","","","","","","","","","","","","","","","","","","","","","","","","","","","","","","","","","","","","","","SYN098AAXX  21124 68558 32980 11410 10135 20018 38255 48573 58013 81200 333 1//// 21005 9//// 555 91028;","","","","","","","","","",""
"68558099999","2005-06-21T20:00:00","-30.9333333","27.6","1819.0","BARKLY EAST, SF","FM-12","4","","38","47","","","-0.07","3","69","","","24.46","18.64","43","140","36","15","","","","","","","","","","","","","","","","","","","","","","","","","","","","","","","","","","","","","","","","","","","","","","","","","","","","","","","","","","","","","","","","","","","","","","","","","","","","","","","","","","","","","","","","","","","SYN098AAXX  21184 68558 32980 21413 10085 20031 38282 48604 53023 82200 333 10140 2//// 9//// 555 91031;","","","","","","","","","",""
"68558099999","2005-06-22T08:00:00","-30.9333333","27.6","1819.0","BARKLY EAST, SF","FM-12","4","","36","42","","","-0.05","3","79","","","24.52","18.64","39","000","38","0","","","","","","","","","","","","","","","","","","","","","","","","","","","","","","","","","","","","","","","","","","","","","","","","","","","","","","","","","","","","","","","","","","","","","","","","","","","","","","","","","","","","","","","","","","","SYN098AAXX  22064 68558 32980 40000 10055 20021 38303 48627 53017 83201 333 20040 9//// 555 10140 91033;","","","","","","","","","",""
"68558099999","2005-06-22T14:00:00","-30.9333333","27.6","1819.0","BARKLY EAST, SF","FM-12","4","","40","54","","","+0.06","8","58","CLR:00","","24.50","18.64","47","000","37","0","","","","","","","","","","","","","","","","","","","","","","","","","","","","","","","","","","","","","","","","","","","","","","","","","","","","","","","","","","","","","","","","","","","","","","","","","","","","","","","","","","","","","","","","","","","SYN092AAXX  22124 68558 32980 00000 10125 20045 38295 48614 58022 333 1//// 20050 9//// 555 91032;","","","","","","","","","",""
"68558099999","2005-06-22T20:00:00","-30.9333333","27.6","1819.0","BARKLY EAST, SF","FM-12","4","","40","45","","","-0.02","3","80","","","24.50","18.64","43","000","37","0","","","","","","","","","","","","","","","","","","","","","","","","","","","","","","","","","","","","","","","","","","","","","","","","","","","","","","","","","","","","","","","","","","","","","","","","","","","","","","","","","","","","","","","","","","","SYN098AAXX  22184 68558 32980 20000 10075 20042 38295 48618 53007 82200 333 10145 2//// 9//// 555 91032;","","","","","","","","","",""
"68558099999","2005-06-23T08:00:00","-30.9333333","27.6","1819.0","BARKLY EAST, SF","FM-12","4","","34","36","","","-0.01","3","91","","","24.50","18.64","35","000","37","0","","","","","","","","","","","","","","","","","","","","","","","","","","","","","","","","","","","","","","","","","","","","","","","","","","","","","","","","","","","","","","","","","","","","","","","","","","","","","","","","","","","","","","","","","","","SYN098AAXX  23064 68558 32980 10000 10025 20011 38296 48622 53003 81100 333 20005 9//// 555 10145 91032;","","","","","","","","","",""
"68558099999","2005-06-23T14:00:00","-30.9333333","27.6","1819.0","BARKLY EAST, SF","FM-12","4","","47","57","","","+0.07","8","69","","","24.43","18.64","51","320","34","7","","","","","","","","","","","","","","","","","","","","","","","","","","","","","","","","","","","","","","","","","","","","","","","","","","","","","","","","","","","","","","","","","","","","","","","","","","","","","","","","","","","","","","","","","","","SYN098AAXX  23124 68558 32980 13206 10140 20084 38273 48591 58024 81100 333 1//// 20025 9//// 555 91030;","","","","","","","","","",""
"68558099999","2005-06-23T20:00:00","-30.9333333","27.6","1819.0","BARKLY EAST, SF","FM-12","4","","44","49","","","","","82","","","24.42","18.64","46","320","33","7","","","","","","","","","","","","","","","","","","","","","","","","","","","","","","","","","","","","","","","","","","","","","","","","","","","","","","","","","","","","","","","","","","","","","","","","","","","","","","","","","","","","","","","","","","","SYN098AAXX  23184 68558 32980 13206 10095 20066 38268 48589 53000 81100 333 10150 2//// 9//// 555 91029;","","","","","","","","","",""
"68558099999","2005-06-24T08:00:00","-30.9333333","27.6","1819.0","BARKLY EAST, SF","FM-12","4","","38","42","","","-0.00","3","85","CLR:00","","24.36","18.64","40","000","31","0","","","","","","","","","","","","","","","","","","","","","","","","","","","","","","","","","","","","","","","","","","","","","","","","","","","","","","","","","","","","","","","","","","","","","","","","","","","","","","","","","","","","","","","","","","","SYN092AAXX  24064 68558 32980 00000 10055 20031 38249 48574 53001 333 20020 9//// 555 10150 91027;","","","","","","","","","",""
"68558099999","2005-06-24T20:00:00","-30.9333333","27.6","1819.0","BARKLY EAST, SF","FM-12","4","","43","50","","","-0.00","3","76","CLR:00","","24.29","18.64","46","000","28","0","","","","","","","","","","","","","","","","","","","","","","","","","","","","","","","","","","","","","","","","","","","","","","","","","","","","","","","","","","","","","","","","","","","","","","","","","","","","","","","","","","","","","","","","","","","SYN092AAXX  24184 68558 32980 00000 10100 20059 38226 48547 53001 333 10150 2//// 9//// 555 91024;","","","","","","","","","",""
"68558099999","2005-06-25T14:00:00","-30.9333333","27.6","1819.0","BARKLY EAST, SF","FM-12","4","","51","59","","","+0.03","8","75","CLR:00","","24.29","18.64","54","320","28","19","","","","","","","","","","","","","","","","","","","","","","","","","","","","","","","","","","","","","","","","","","","","","","","","","","","","","","","","","","","","","","","","","","","","","","","","","","","","","","","","","","","","","","","","","","","SYN092AAXX  25124 68558 32980 03217 10150 20106 38227 48544 58010 333 1//// 20095 9//// 555 91024;","","","","","","","","","",""
"68558099999","2005-06-26T08:00:00","-30.9333333","27.6","1819.0","BARKLY EAST, SF","FM-12","4","","43","50","","","-0.01","3","76","","","24.29","18.64","46","050","28","13","","","","","","","","","","","","","","","","","","","","","","","","","","","","","","","","","","","","","","","","","","","","","","","","","","","","","","","","","","","","","","","","","","","","","","","","","","","","","","","","","","","","","","","","","","","SYN098AAXX  26064 68558 32980 60511 10100 20059 38226 48547 53002 82101 333 20055 9//// 555 10165 91024;","","","","","","","","","",""
"68558099999","2005-06-26T14:00:00","-30.9333333","27.6","1819.0","BARKLY EAST, SF","FM-12","4","","49","59","","","+0.05","8","70","","","24.25","18.64","53","320","26","13","","","","","","","","","","","","","","","","","","","","","","","","","","","","","","","","","","","","","","","","","","","","","","","","","","","","","","","","","","","","","","","","","","","","","","","","","","","","","","","","","","","","","","","","","","","SYN098AAXX  26124 68558 32980 53211 10150 20096 38213 48529 58016 82101 333 1//// 20100 9//// 555 91023;","","","","","","","","","",""
"68558099999","2005-06-27T08:00:00","-30.9333333","27.6","1819.0","BARKLY EAST, SF","FM-12","4","","40","47","","","-0.01","3","75","","","24.27","18.64","43","080","26","7","","","","","","","","","","","","","","","","","","","","","","","","","","","","","","","","","","","","","","","","","","","","","","","","","","","","","","","","","","","","","","","","","","","","","","","","","","","","","","","","","","","","","","","","","","","SYN110AAXX  27064 68558 12980 50806 10085 20043 38218 48541 53005 69954 83201 333 20065 9//// 555 10160 20005 91023;","","","","","","","","","",""
"68558099999","2005-06-27T14:00:00","-30.9333333","27.6","1819.0","BARKLY EAST, SF","FM-12","4","","44","53","","","+0.02","8","72","","","24.29","18.64","48","320","28","11","","","","","","","","","","","","","","","","","","","","","","","","","","","","","","","","","","","","","","","","","","","","","","","","","","","","","","","","","","","","","","","","","","","","","","","","","","","","","","","","","","","","","","","","","","","SYN098AAXX  27124 68558 32980 33210 10115 20066 38226 48546 58006 82201 333 1//// 20080 9//// 555 91024;","","","","","","","","","",""
"68558099999","2005-06-27T20:00:00","-30.9333333","27.6","1819.0","BARKLY EAST, SF","FM-12","4","","32","43","","","-0.03","3","66","","","24.31","18.64","38","000","29","0","","","","","","","","","","","","","","","","","","","","","","","","","","","","","","","","","","","","","","","","","","","","","","","","","","","","","","","","","","","","","","","","","","","","","","","","","","","","","","","","","","","","","","","","","","","SYN098AAXX  27184 68558 32980 10000 10060 20001 38234 48559 53011 81100 333 10130 2//// 9//// 555 91025;","","","","","","","","","",""
"68558099999","2005-06-28T08:00:00","-30.9333333","27.6","1819.0","BARKLY EAST, SF","FM-12","4","","30","32","","","-0.05","3","92","","","24.43","12.43","31","000","34","0","","","","","","","","","","","","","","","","","","","","","","","","","","","","","","","","","","","","","","","","","","","","","","","","","","","","","","","","","","","","","","","","","","","","","","","","","","","","","","","","","","","","","","","","","","","SYN098AAXX  28064 68558 32770 70000 10000 21012 38272 48601 53016 83201 333 21035 9//// 555 10130 91030;","","","","","","","","","",""
"68558099999","2005-06-28T14:00:00","-30.9333333","27.6","1819.0","BARKLY EAST, SF","FM-12","4","","36","46","","","+0.03","8","68","CLR:00","","24.40","18.64","41","000","32","0","","","","","","","","","","","","","","","","","","","","","","","","","","","","","","","","","","","","","","","","","","","","","","","","","","","","","","","","","","","","","","","","","","","","","","","","","","","","","","","","","","","","","","","","","","","SYN092AAXX  28124 68558 32980 00000 10080 20024 38262 48585 58010 333 1//// 2//// 9//// 555 91028;","","","","","","","","","",""
"68558099999","2005-06-28T20:00:00","-30.9333333","27.6","1819.0","BARKLY EAST, SF","FM-12","4","","30","39","","","-0.01","3","71","CLR:00","","24.41","18.64","35","000","33","0","","","","","","","","","","","","","","","","","","","","","","","","","","","","","","","","","","","","","","","","","","","","","","","","","","","","","","","","","","","","","","","","","","","","","","","","","","","","","","","","","","","","","","","","","","","SYN092AAXX  28184 68558 32980 00000 10040 21009 38266 48592 53003 333 10115 2//// 9//// 555 91029;","","","","","","","","","",""
"68558099999","2005-06-29T08:00:00","-30.9333333","27.6","1819.0","BARKLY EAST, SF","FM-12","4","","18","47","","","-0.01","3","31","CLR:00","","24.41","18.64","35","000","33","0","","","","","","","","","","","","","","","","","","","","","","","","","","","","","","","","","","","","","","","","","","","","","","","","","","","","","","","","","","","","","","","","","","","","","","","","","","","","","","","","","","","","","","","","","","","SYN092AAXX  29064 68558 32980 00000 10085 21080 38267 48589 53003 333 21010 9//// 555 10115 91029;","","","","","","","","","",""
"68558099999","2005-06-29T14:00:00","-30.9333333","27.6","1819.0","BARKLY EAST, SF","FM-12","4","","48","61","","","+0.06","8","63","","","24.37","18.64","54","320","31","19","","","","","","","","","","","","","","","","","","","","","","","","","","","","","","","","","","","","","","","","","","","","","","","","","","","","","","","","","","","","","","","","","","","","","","","","","","","","","","","","","","","","","","","","","","","SYN098AAXX  29124 68558 32980 13217 10160 20088 38251 48567 58020 80001 333 1//// 20045 9//// 555 91027;","","","","","","","","","",""
"68558099999","2005-06-29T20:00:00","-30.9333333","27.6","1819.0","BARKLY EAST, SF","FM-12","4","","42","53","","","-0.01","3","67","CLR:00","","24.37","18.64","47","360","31","11","","","","","","","","","","","","","","","","","","","","","","","","","","","","","","","","","","","","","","","","","","","","","","","","","","","","","","","","","","","","","","","","","","","","","","","","","","","","","","","","","","","","","","","","","","","SYN092AAXX  29184 68558 32980 03610 10115 20056 38252 48572 53004 333 10170 2//// 9//// 555 91027;","","","","","","","","","",""
"68558099999","2005-06-30T08:00:00","-30.9333333","27.6","1819.0","BARKLY EAST, SF","FM-12","4","","36","48","","","-0.01","3","64","CLR:00","","24.33","18.64","42","320","30","11","","","","","","","","","","","","","","","","","","","","","","","","","","","","","","","","","","","","","","","","","","","","","","","","","","","","","","","","","","","","","","","","","","","","","","","","","","","","","","","","","","","","","","","","","","","SYN092AAXX  30064 68558 32980 03210 10090 20025 38238 48560 53003 333 20045 9//// 555 10170 91026;","","","","","","","","","",""
"68558099999","2005-06-30T14:00:00","-30.9333333","27.6","1819.0","BARKLY EAST, SF","FM-12","4","","44","58","","","+0.04","8","61","","","24.30","12.43","50","320","28","19","","","","","","","","","","","","","","","","","","","","","","","","","","","","","","","","","","","","","","","","","","","","","","","","","","","","","","","","","","","","","","","","","","","","","","","","","","","","","","","","","","","","","","","","","","","SYN098AAXX  30124 68558 32670 63217 10145 20069 38228 48545 58015 83412 333 1//// 20080 9//// 555 91024;","","","","","","","","","",""
"68558099999","2005-06-30T20:00:00","-30.9333333","27.6","1819.0","BARKLY EAST, SF","FM-12","4","","45","52","","","-0.03","3","77","","","24.31","6.21","48","320","29","7","","","","","","","","","","","","","","","","","","","","","","","","","","","","","","","","","","","","","","","","","","","","","","","","","","","","","","","","","","","","","","","","","","","","","","","","","","","","","","","","","","","","","","","","","","","SYN098AAXX  30184 68558 32660 83206 10110 20071 38232 48552 53009 83322 333 10160 2//// 9//// 555 91025;","","","","","","","","","",""
"68558099999","2005-07-01T08:00:00","-30.9333333","27.6","1819.0","BARKLY EAST, SF","FM-12","4","","27","29","","","-0.02","3","90","CLR:00","","24.41","18.64","28","000","33","0","","","","","","","","","","","","","","","","","","","","","","","","","","","","","","","","","","","","","","","","","","","","","","","","","","","","","","","","","","","","","","","","","","","","","","","","","","","","","","","","","","","","","","","","","","","SYN104AAXX  01064 68558 12980 00000 11015 21029 38266 48596 53006 69954 333 21025 9//// 555 10160 20005 91029;","","","","","","","","","",""
"68558099999","2005-07-01T14:00:00","-30.9333333","27.6","1819.0","BARKLY EAST, SF","FM-12","4","","37","52","","","+0.04","8","56","CLR:00","","24.41","18.64","45","000","33","0","","","","","","","","","","","","","","","","","","","","","","","","","","","","","","","","","","","","","","","","","","","","","","","","","","","","","","","","","","","","","","","","","","","","","","","","","","","","","","","","","","","","","","","","","","","SYN092AAXX  01124 68558 32980 00000 10110 20026 38265 48585 58012 333 1//// 21025 9//// 555 91029;","","","","","","","","","",""
"68558099999","2005-07-01T20:00:00","-30.9333333","27.6","1819.0","BARKLY EAST, SF","FM-12","4","","29","38","","","-0.02","3","70","CLR:00","","24.39","18.64","34","000","32","0","","","","","","","","","","","","","","","","","","","","","","","","","","","","","","","","","","","","","","","","","","","","","","","","","","","","","","","","","","","","","","","","","","","","","","","","","","","","","","","","","","","","","","","","","","","SYN092AAXX  01184 68558 32980 00000 10035 21016 38260 48586 53007 333 10130 2//// 9//// 555 91028;","","","","","","","","","",""
"68558099999","2005-07-02T08:00:00","-30.9333333","27.6","1819.0","BARKLY EAST, SF","FM-12","4","","23","28","","","-0.01","3","81","CLR:00","","24.44","18.64","26","000","34","0","","","","","","","","","","","","","","","","","","","","","","","","","","","","","","","","","","","","","","","","","","","","","","","","","","","","","","","","","","","","","","","","","","","","","","","","","","","","","","","","","","","","","","","","","","","SYN092AAXX  02064 68558 32980 00000 11020 21049 38276 48606 53003 333 21025 9//// 555 10130 91030;","","","","","","","","","",""
"68558099999","2005-07-02T20:00:00","-30.9333333","27.6","1819.0","BARKLY EAST, SF","FM-12","4","","25","39","","","-0.05","3","57","CLR:00","","24.47","18.64","33","000","36","0","","","","","","","","","","","","","","","","","","","","","","","","","","","","","","","","","","","","","","","","","","","","","","","","","","","","","","","","","","","","","","","","","","","","","","","","","","","","","","","","","","","","","","","","","","","SYN092AAXX  02184 68558 32980 00000 10040 21039 38285 48610 53016 333 10150 2//// 9//// 555 91031;","","","","","","","","","",""
"68558099999","2005-07-03T08:00:00","-30.9333333","27.6","1819.0","BARKLY EAST, SF","FM-12","4","","27","29","","","-0.03","3","90","CLR:00","","24.49","18.64","28","000","37","0","","","","","","","","","","","","","","","","","","","","","","","","","","","","","","","","","","","","","","","","","","","","","","","","","","","","","","","","","","","","","","","","","","","","","","","","","","","","","","","","","","","","","","","","","","","SYN092AAXX  03064 68558 32980 00000 11015 21029 38294 48623 53010 333 21015 9//// 555 10150 91032;","","","","","","","","","",""
"68558099999","2005-07-03T20:00:00","-30.9333333","27.6","1819.0","BARKLY EAST, SF","FM-12","4","","27","43","","","-0.02","3","54","CLR:00","","24.46","18.64","36","000","36","0","","","","","","","","","","","","","","","","","","","","","","","","","","","","","","","","","","","","","","","","","","","","","","","","","","","","","","","","","","","","","","","","","","","","","","","","","","","","","","","","","","","","","","","","","","","SYN092AAXX  03184 68558 32980 00000 10060 21028 38283 48607 53008 333 10165 2//// 9//// 555 91031;","","","","","","","","","",""
"68558099999","2005-07-04T08:00:00","-30.9333333","27.6","1819.0","BARKLY EAST, SF","FM-12","4","","","46","","","","","","","","","13.67","","080","","9","","","","","","","","","","","","","","","","","","","","","","","","","","","","","","","","","","","","","","","","","","","","","","","","","","","","","","","","","","","","","","","","","","","","","","","","","","","","","","","","","","","","","","","","","","","SYN110AAXX  04064 68558 12672 70808 10076 2//// 3//// 4//// 5//// 69914 876// 333 20060 9//// 555 10119 20001 9////;","","","","","","","","","",""
"68558099999","2005-07-04T14:00:00","-30.9333333","27.6","1819.0","BARKLY EAST, SF","FM-12","4","","42","56","","","+0.06","8","60","","","24.46","18.64","49","000","36","0","","","","","","","","","","","","","","","","","","","","","","","","","","","","","","","","","","","","","","","","","","","","","","","","","","","","","","","","","","","","","","","","","","","","","","","","","","","","","","","","","","","","","","","","","","","SYN098AAXX  04124 68558 32980 30000 10135 20057 38283 48601 58019 82101 333 1//// 20085 9//// 555 91031;","","","","","","","","","",""
"68558099999","2005-07-04T20:00:00","-30.9333333","27.6","1819.0","BARKLY EAST, SF","FM-12","4","","36","48","","","-0.03","3","64","CLR:00","","24.47","18.64","42","000","36","0","","","","","","","","","","","","","","","","","","","","","","","","","","","","","","","","","","","","","","","","","","","","","","","","","","","","","","","","","","","","","","","","","","","","","","","","","","","","","","","","","","","","","","","","","","","SYN092AAXX  04184 68558 32980 00000 10090 20025 38285 48607 53010 333 10150 2//// 9//// 555 91031;","","","","","","","","","",""
"68558099999","2005-07-05T08:00:00","-30.9333333","27.6","1819.0","BARKLY EAST, SF","FM-12","4","","25","33","","","-0.03","3","74","","","24.49","18.64","30","000","37","0","","","","","","","","","","","","","","","","","","","","","","","","","","","","","","","","","","","","","","","","","","","","","","","","","","","","","","","","","","","","","","","","","","","","","","","","","","","","","","","","","","","","","","","","","","","SYN098AAXX  05064 68558 32980 40000 10005 21037 38294 48622 53011 82101 333 20000 9//// 555 10150 91032;","","","","","","","","","",""
"68558099999","2005-07-05T20:00:00","-30.9333333","27.6","1819.0","BARKLY EAST, SF","FM-12","4","","38","47","","","-0.03","3","69","","","24.49","18.64","43","000","37","0","","","","","","","","","","","","","","","","","","","","","","","","","","","","","","","","","","","","","","","","","","","","","","","","","","","","","","","","","","","","","","","","","","","","","","","","","","","","","","","","","","","","","","","","","","","SYN098AAXX  05184 68558 32980 10000 10085 20031 38293 48615 53010 81100 333 10150 2//// 9//// 555 91032;","","","","","","","","","",""
"68558099999","2005-07-06T08:00:00","-30.9333333","27.6","1819.0","BARKLY EAST, SF","FM-12","4","","30","35","","","-0.02","3","84","","","24.55","18.64","33","000","40","0","","","","","","","","","","","","","","","","","","","","","","","","","","","","","","","","","","","","","","","","","","","","","","","","","","","","","","","","","","","","","","","","","","","","","","","","","","","","","","","","","","","","","","","","","","","SYN098AAXX  06064 68558 32980 50000 10015 21010 38313 48639 53008 82101 333 20005 9//// 555 10150 91035;","","","","","","","","","",""
"68558099999","2005-07-06T14:00:00","-30.9333333","27.6","1819.0","BARKLY EAST, SF","FM-12","4","","40","56","","","+0.06","8","54","","","24.51","18.64","48","000","38","0","","","","","","","","","","","","","","","","","","","","","","","","","","","","","","","","","","","","","","","","","","","","","","","","","","","","","","","","","","","","","","","","","","","","","","","","","","","","","","","","","","","","","","","","","","","SYN098AAXX  06124 68558 32980 30000 10135 20044 38301 48619 58020 82101 333 1//// 20010 9//// 555 91033;","","","","","","","","","",""
"68558099999","2005-07-06T20:00:00","-30.9333333","27.6","1819.0","BARKLY EAST, SF","FM-12","4","","36","48","","","-0.02","3","64","","","24.52","18.64","42","140","39","7","","","","","","","","","","","","","","","","","","","","","","","","","","","","","","","","","","","","","","","","","","","","","","","","","","","","","","","","","","","","","","","","","","","","","","","","","","","","","","","","","","","","","","","","","","","SYN098AAXX  06184 68558 32980 41406 10090 20025 38305 48626 53006 82201 333 10155 2//// 9//// 555 91034;","","","","","","","","","",""
"68558099999","2005-07-07T08:00:00","-30.9333333","27.6","1819.0","BARKLY EAST, SF","FM-12","4","","25","30","","","-0.03","3","82","CLR:00","","24.58","18.64","28","000","41","0","","","","","","","","","","","","","","","","","","","","","","","","","","","","","","","","","","","","","","","","","","","","","","","","","","","","","","","","","","","","","","","","","","","","","","","","","","","","","","","","","","","","","","","","","","","SYN092AAXX  07064 68558 32980 00000 11010 21038 38324 48651 53010 333 21015 9//// 555 10155 91036;","","","","","","","","","",""
"68558099999","2005-07-07T20:00:00","-30.9333333","27.6","1819.0","BARKLY EAST, SF","FM-12","4","","22","46","","","-0.02","3","38","CLR:00","","24.56","18.64","36","000","40","0","","","","","","","","","","","","","","","","","","","","","","","","","","","","","","","","","","","","","","","","","","","","","","","","","","","","","","","","","","","","","","","","","","","","","","","","","","","","","","","","","","","","","","","","","","","SYN092AAXX  07184 68558 32980 00000 10080 21057 38318 48640 53008 333 10145 2//// 9//// 555 91035;","","","","","","","","","",""
"68558099999","2005-07-08T08:00:00","-30.9333333","27.6","1819.0","BARKLY EAST, SF","FM-12","4","","26","31","","","-0.02","3","82","","","24.60","18.64","29","000","43","0","","","","","","","","","","","","","","","","","","","","","","","","","","","","","","","","","","","","","","","","","","","","","","","","","","","","","","","","","","","","","","","","","","","","","","","","","","","","","","","","","","","","","","","","","","","SYN098AAXX  08064 68558 32980 20000 11005 21033 38331 48658 53008 81101 333 21025 9//// 555 10145 91037;","","","","","","","","","",""
"68558099999","2005-07-08T14:00:00","-30.9333333","27.6","1819.0","BARKLY EAST, SF","FM-12","4","","37","59","","","+0.05","8","45","CLR:00","","24.57","18.64","48","000","40","0","","","","","","","","","","","","","","","","","","","","","","","","","","","","","","","","","","","","","","","","","","","","","","","","","","","","","","","","","","","","","","","","","","","","","","","","","","","","","","","","","","","","","","","","","","","SYN092AAXX  08124 68558 32980 00000 10148 20030 38320 48638 58016 333 1//// 21015 9//// 555 91035;","","","","","","","","","",""
"68558099999","2005-07-08T20:00:00","-30.9333333","27.6","1819.0","BARKLY EAST, SF","FM-12","4","","37","48","","","-0.03","3","66","CLR:00","","24.48","18.64","43","000","37","0","","","","","","","","","","","","","","","","","","","","","","","","","","","","","","","","","","","","","","","","","","","","","","","","","","","","","","","","","","","","","","","","","","","","","","","","","","","","","","","","","","","","","","","","","","","SYN092AAXX  08184 68558 32980 00000 10088 20028 38290 48612 53010 333 10150 2//// 9//// 555 91032;","","","","","","","","","",""
"68558099999","2005-07-09T08:00:00","-30.9333333","27.6","1819.0","BARKLY EAST, SF","FM-12","4","","23","28","","","-0.02","3","81","CLR:00","","24.62","18.64","26","000","44","0","","","","","","","","","","","","","","","","","","","","","","","","","","","","","","","","","","","","","","","","","","","","","","","","","","","","","","","","","","","","","","","","","","","","","","","","","","","","","","","","","","","","","","","","","","","SYN092AAXX  09064 68558 32980 00000 11020 21049 38338 48665 53007 333 21030 9//// 555 10155 91038;","","","","","","","","","",""
"68558099999","2005-07-09T14:00:00","-30.9333333","27.6","1819.0","BARKLY EAST, SF","FM-12","4","","36","58","","","+0.05","8","43","CLR:00","","24.60","18.64","47","000","43","0","","","","","","","","","","","","","","","","","","","","","","","","","","","","","","","","","","","","","","","","","","","","","","","","","","","","","","","","","","","","","","","","","","","","","","","","","","","","","","","","","","","","","","","","","","","SYN092AAXX  09124 68558 32980 00000 10145 20021 38330 48648 58017 333 1//// 21025 9//// 555 91037;","","","","","","","","","",""
"68558099999","2005-07-10T14:00:00","-30.9333333","27.6","1819.0","BARKLY EAST, SF","FM-12","4","","35","61","","","+0.06","8","37","CLR:00","","24.55","18.64","48","000","40","0","","","","","","","","","","","","","","","","","","","","","","","","","","","","","","","","","","","","","","","","","","","","","","","","","","","","","","","","","","","","","","","","","","","","","","","","","","","","","","","","","","","","","","","","","","","SYN092AAXX  10124 68558 32980 00000 10160 20014 38313 48630 58022 333 1//// 20045 9//// 555 91035;","","","","","","","","","",""
"68558099999","2005-07-10T20:00:00","-30.9333333","27.6","1819.0","BARKLY EAST, SF","FM-12","4","","25","44","","","-0.02","3","48","CLR:00","","24.56","18.64","36","000","40","0","","","","","","","","","","","","","","","","","","","","","","","","","","","","","","","","","","","","","","","","","","","","","","","","","","","","","","","","","","","","","","","","","","","","","","","","","","","","","","","","","","","","","","","","","","","SYN092AAXX  10184 68558 32980 00000 10065 21037 38318 48641 53007 333 10170 2//// 9//// 555 91035;","","","","","","","","","",""
"68558099999","2005-07-11T08:00:00","-30.9333333","27.6","1819.0","BARKLY EAST, SF","FM-12","4","","15","27","","","-0.02","3","60","CLR:00","","24.57","18.64","23","000","40","0","","","","","","","","","","","","","","","","","","","","","","","","","","","","","","","","","","","","","","","","","","","","","","","","","","","","","","","","","","","","","","","","","","","","","","","","","","","","","","","","","","","","","","","","","","","SYN092AAXX  11064 68558 32980 00000 11025 21092 38320 48648 53008 333 21030 9//// 555 10170 91035;","","","","","","","","","",""
"68558099999","2005-07-11T14:00:00","-30.9333333","27.6","1819.0","BARKLY EAST, SF","FM-12","4","","32","61s","","","+0.06","8","34","CLR:00","","24.53","18.64","47","000","39","0","","","","","","","","","","","","","","","","","","","","","","","","","","","","","","","","","","","","","","","","","","","","","","","","","","","","","","","","","","","","","","","","","","","","","","","","","","","","","","","","","","","","","","","","","","","SYN092AAXX  11124 68558 32980 00000 10160 21001 38306 48623 58021 333 1//// 21030 9//// 555 91034;","","","","","","","","","",""
"68558099999","2005-07-11T20:00:00","-30.9333333","27.6","1819.0","BARKLY EAST, SF","FM-12","4","","24","43","","","-0.02","3","48","CLR:00","","24.55","18.64","35","000","39","0","","","","","","","","","","","","","","","","","","","","","","","","","","","","","","","","","","","","","","","","","","","","","","","","","","","","","","","","","","","","","","","","","","","","","","","","","","","","","","","","","","","","","","","","","","","SYN092AAXX  11184 68558 32980 00000 10060 21044 38312 48635 53006 333 10165 2//// 9//// 555 91034;","","","","","","","","","",""
"68558099999","2005-07-12T08:00:00","-30.9333333","27.6","1819.0","BARKLY EAST, SF","FM-12","4","","17","28","","","-0.01","3","61","CLR:00","","24.55","18.64","24","000","40","0","","","","","","","","","","","","","","","","","","","","","","","","","","","","","","","","","","","","","","","","","","","","","","","","","","","","","","","","","","","","","","","","","","","","","","","","","","","","","","","","","","","","","","","","","","","SYN092AAXX  12064 68558 32980 00000 11020 21085 38313 48641 53005 333 21025 9//// 555 10165 91035;","","","","","","","","","",""
"68558099999","2005-07-12T20:00:00","-30.9333333","27.6","1819.0","BARKLY EAST, SF","FM-12","4","","24","45","","","-0.02","3","43","CLR:00","","24.50","18.64","36","000","37","0","","","","","","","","","","","","","","","","","","","","","","","","","","","","","","","","","","","","","","","","","","","","","","","","","","","","","","","","","","","","","","","","","","","","","","","","","","","","","","","","","","","","","","","","","","","SYN092AAXX  12184 68558 32980 00000 10070 21047 38296 48619 53007 333 10185 2//// 9//// 555 91032;","","","","","","","","","",""
"68558099999","2005-07-13T08:00:00","-30.9333333","27.6","1819.0","BARKLY EAST, SF","FM-12","4","","19","30","","","-0.01","3","64","CLR:00","","24.45","18.64","26","000","36","0","","","","","","","","","","","","","","","","","","","","","","","","","","","","","","","","","","","","","","","","","","","","","","","","","","","","","","","","","","","","","","","","","","","","","","","","","","","","","","","","","","","","","","","","","","","SYN092AAXX  13064 68558 32980 00000 11010 21071 38281 48610 53003 333 21010 9//// 555 10165 91031;","","","","","","","","","",""
"68558099999","2005-07-13T14:00:00","-30.9333333","27.6","1819.0","BARKLY EAST, SF","FM-12","4","","34","63s","","","+0.07","8","33","CLR:00","","24.38","18.64","48","000","32","0","","","","","","","","","","","","","","","","","","","","","","","","","","","","","","","","","","","","","","","","","","","","","","","","","","","","","","","","","","","","","","","","","","","","","","","","","","","","","","","","","","","","","","","","","","","SYN092AAXX  13124 68558 32980 00000 10175 20011 38257 48572 58025 333 1//// 21010 9//// 555 91028;","","","","","","","","","",""
"68558099999","2005-07-13T20:00:00","-30.9333333","27.6","1819.0","BARKLY EAST, SF","FM-12","4","","27","43","","","-0.00","3","54","CLR:00","","24.36","18.64","36","000","31","0","","","","","","","","","","","","","","","","","","","","","","","","","","","","","","","","","","","","","","","","","","","","","","","","","","","","","","","","","","","","","","","","","","","","","","","","","","","","","","","","","","","","","","","","","","","SYN092AAXX  13184 68558 32980 00000 10060 21028 38249 48574 53001 333 10185 2//// 9//// 555 91027;","","","","","","","","","",""
"68558099999","2005-07-14T08:00:00","-30.9333333","27.6","1819.0","BARKLY EAST, SF","FM-12","4","","20","28","","","-0.00","3","71","CLR:00","","24.33","18.64","25","000","30","0","","","","","","","","","","","","","","","","","","","","","","","","","","","","","","","","","","","","","","","","","","","","","","","","","","","","","","","","","","","","","","","","","","","","","","","","","","","","","","","","","","","","","","","","","","","SYN092AAXX  14064 68558 32980 00000 11020 21067 38239 48571 53001 333 21025 9//// 555 10180 91026;","","","","","","","","","",""
"68558099999","2005-07-14T14:00:00","-30.9333333","27.6","1819.0","BARKLY EAST, SF","FM-12","4","","37","61s","","","+0.06","8","41","CLR:00","","24.28","18.64","49","320","28","13","","","","","","","","","","","","","","","","","","","","","","","","","","","","","","","","","","","","","","","","","","","","","","","","","","","","","","","","","","","","","","","","","","","","","","","","","","","","","","","","","","","","","","","","","","","SYN092AAXX  14124 68558 32980 03211 10160 20028 38222 48537 58020 333 1//// 21025 9//// 555 91024;","","","","","","","","","",""
"68558099999","2005-07-14T20:00:00","-30.9333333","27.6","1819.0","BARKLY EAST, SF","FM-12","4","","35","51","","","-0.10","3","55","","","24.28","18.64","43","000","28","0","","","","","","","","","","","","","","","","","","","","","","","","","","","","","","","","","","","","","","","","","","","","","","","","","","","","","","","","","","","","","","","","","","","","","","","","","","","","","","","","","","","","","","","","","","","SYN098AAXX  14184 68558 32980 10000 10105 20018 38222 48543 53035 81010 333 10165 2//// 9//// 555 91024;","","","","","","","","","",""
"68558099999","2005-07-15T08:00:00","-30.9333333","27.6","1819.0","BARKLY EAST, SF","FM-12","4","","31","34","","","-0.04","3","91","CLR:00","","24.37","18.64","33","000","31","0","","","","","","","","","","","","","","","","","","","","","","","","","","","","","","","","","","","","","","","","","","","","","","","","","","","","","","","","","","","","","","","","","","","","","","","","","","","","","","","","","","","","","","","","","","","SYN104AAXX  15064 68558 12980 00000 10010 21003 38252 48581 53014 69954 333 21005 9//// 555 10165 20005 91027;","","","","","","","","","",""
"68558099999","2005-07-15T20:00:00","-30.9333333","27.6","1819.0","BARKLY EAST, SF","FM-12","4","","32","43","","","-0.05","3","66","CLR:00","","24.43","18.64","38","140","34","7","","","","","","","","","","","","","","","","","","","","","","","","","","","","","","","","","","","","","","","","","","","","","","","","","","","","","","","","","","","","","","","","","","","","","","","","","","","","","","","","","","","","","","","","","","","SYN092AAXX  15184 68558 32980 01406 10060 20001 38273 48597 53017 333 10130 2//// 9//// 555 91030;","","","","","","","","","",""
"68558099999","2005-07-16T14:00:00","-30.9333333","27.6","1819.0","BARKLY EAST, SF","FM-12","4","","34","57","","","+0.06","8","42","CLR:00","","24.43","18.64","46","000","34","0","","","","","","","","","","","","","","","","","","","","","","","","","","","","","","","","","","","","","","","","","","","","","","","","","","","","","","","","","","","","","","","","","","","","","","","","","","","","","","","","","","","","","","","","","","","SYN092AAXX  16124 68558 32980 00000 10140 20013 38273 48591 58021 333 1//// 21025 9//// 555 91030;","","","","","","","","","",""
"68558099999","2005-07-16T20:00:00","-30.9333333","27.6","1819.0","BARKLY EAST, SF","FM-12","4","","31","42","","","-0.02","3","66","CLR:00","","24.45","18.64","37","000","36","0","","","","","","","","","","","","","","","","","","","","","","","","","","","","","","","","","","","","","","","","","","","","","","","","","","","","","","","","","","","","","","","","","","","","","","","","","","","","","","","","","","","","","","","","","","","SYN092AAXX  16184 68558 32980 00000 10055 21005 38281 48605 53008 333 10150 2//// 9//// 555 91031;","","","","","","","","","",""
"68558099999","2005-07-17T08:00:00","-30.9333333","27.6","1819.0","BARKLY EAST, SF","FM-12","4","","20","28","","","-0.00","3","71","CLR:00","","24.33","18.64","25","000","30","0","","","","","","","","","","","","","","","","","","","","","","","","","","","","","","","","","","","","","","","","","","","","","","","","","","","","","","","","","","","","","","","","","","","","","","","","","","","","","","","","","","","","","","","","","","","SYN092AAXX  17064 68558 32980 00000 11020 21067 38239 48571 53001 333 21025 9//// 555 10180 91026;","","","","","","","","","",""
"68558099999","2005-07-17T20:00:00","-30.9333333","27.6","1819.0","BARKLY EAST, SF","FM-12","4","","29","50","","","-0.03","3","45","","","24.33","18.64","40","000","30","0","","","","","","","","","","","","","","","","","","","","","","","","","","","","","","","","","","","","","","","","","","","","","","","","","","","","","","","","","","","","","","","","","","","","","","","","","","","","","","","","","","","","","","","","","","","SYN098AAXX  17184 68558 32980 40000 10100 21016 38240 48561 53011 82101 333 10165 2//// 9//// 555 91026;","","","","","","","","","",""
"68558099999","2005-07-18T08:00:00","-30.9333333","27.6","1819.0","BARKLY EAST, SF","FM-12","4","","24","36","","","-0.01","3","62","","","24.34","18.64","31","140","30","7","","","","","","","","","","","","","","","","","","","","","","","","","","","","","","","","","","","","","","","","","","","","","","","","","","","","","","","","","","","","","","","","","","","","","","","","","","","","","","","","","","","","","","","","","","","SYN098AAXX  18064 68558 32980 11406 10025 21042 38243 48571 53005 81101 333 21030 9//// 555 10165 91026;","","","","","","","","","",""
"68558099999","2005-07-18T14:00:00","-30.9333333","27.6","1819.0","BARKLY EAST, SF","FM-12","4","","35","63","","","+0.06","8","35","","","24.29","18.64","49","320","28","11","","","","","","","","","","","","","","","","","","","","","","","","","","","","","","","","","","","","","","","","","","","","","","","","","","","","","","","","","","","","","","","","","","","","","","","","","","","","","","","","","","","","","","","","","","","SYN098AAXX  18124 68558 32980 53210 10170 20015 38224 48538 58020 82101 333 1//// 20028 9//// 555 91024;","","","","","","","","","",""
"68558099999","2005-07-18T20:00:00","-30.9333333","27.6","1819.0","BARKLY EAST, SF","FM-12","4","","32","54","","","-0.01","3","44","CLR:00","","24.27","18.64","43","050","26","7","","","","","","","","","","","","","","","","","","","","","","","","","","","","","","","","","","","","","","","","","","","","","","","","","","","","","","","","","","","","","","","","","","","","","","","","","","","","","","","","","","","","","","","","","","","SYN092AAXX  18184 68558 32980 00506 10120 21001 38220 48539 53002 333 10180 2//// 9//// 555 91023;","","","","","","","","","",""
"68558099999","2005-07-19T08:00:00","-30.9333333","27.6","1819.0","BARKLY EAST, SF","FM-12","4","","32","50","","","-0.02","3","50","CLR:00","","24.24","18.64","41","320","25","22","","","","","","","","","","","","","","","","","","","","","","","","","","","","","","","","","","","","","","","","","","","","","","","","","","","","","","","","","","","","","","","","","","","","","","","","","","","","","","","","","","","","","","","","","","","SYN092AAXX  19064 68558 32980 03219 10100 21001 38208 48529 53007 333 20090 9//// 555 10180 91022;","","","","","","","","","",""
"68558099999","2005-07-19T14:00:00","-30.9333333","27.6","1819.0","BARKLY EAST, SF","FM-12","4","","40","63","","","+0.04","8","43","","","24.21","18.64","51","320","24","22","","","","","","","","","","","","","","","","","","","","","","","","","","","","","","","","","","","","","","","","","","","","","","","","","","","","","","","","","","","","","","","","","","","","","","","","","","","","","","","","","","","","","","","","","","","SYN098AAXX  19124 68558 32980 23219 10170 20044 38200 48514 58012 81101 333 1//// 20070 9//// 555 91021;","","","","","","","","","",""
"68558099999","2005-07-19T20:00:00","-30.9333333","27.6","1819.0","BARKLY EAST, SF","FM-12","4","","34","54","","","-0.01","3","48","","","24.20","18.64","44","360","23","11","","","","","","","","","","","","","","","","","","","","","","","","","","","","","","","","","","","","","","","","","","","","","","","","","","","","","","","","","","","","","","","","","","","","","","","","","","","","","","","","","","","","","","","","","","","SYN098AAXX  19184 68558 32980 43610 10120 20013 38195 48514 53002 82101 333 10180 2//// 9//// 555 91020;","","","","","","","","","",""
"68558099999","2005-07-20T08:00:00","-30.9333333","27.6","1819.0","BARKLY EAST, SF","FM-12","4","","20","45","","","+0.02","8","38","","","24.17","18.64","35","320","22","11","","","","","","","","","","","","","","","","","","","","","","","","","","","","","","","","","","","","","","","","","","","","","","","","","","","","","","","","","","","","","","","","","","","","","","","","","","","","","","","","","","","","","","","","","","","SYN098AAXX  20064 68558 32980 53210 10070 21066 38184 48508 58007 82101 333 20040 9//// 555 10180 91019;","","","","","","","","","",""
"68558099999","2005-07-20T14:00:00","-30.9333333","27.6","1819.0","BARKLY EAST, SF","FM-12","4","","33","49","","","+0.01","8","54","","","24.19","18.64","41","320","23","17","","","","","","","","","","","","","","","","","","","","","","","","","","","","","","","","","","","","","","","","","","","","","","","","","","","","","","","","","","","","","","","","","","","","","","","","","","","","","","","","","","","","","","","","","","","SYN098AAXX  20124 68558 32980 73215 10095 20006 38191 48513 58003 83222 333 1//// 20070 9//// 555 91020;","","","","","","","","","",""
"68558099999","2005-07-20T20:00:00","-30.9333333","27.6","1819.0","BARKLY EAST, SF","FM-12","4","","40","44","","","-0.03","3","86","","","24.20","12.43","42","320","24","7","","","","","","","","","","","","","","","","","","","","","","","","","","","","","","","","","","","","","","","","","","","","","","","","","","","","","","","","","","","","","","","","","","","","","","","","","","","","","","","","","","","","","","","","","","","SYN098AAXX  20184 68558 32770 53206 10065 20043 38196 48521 53011 82221 333 10120 2//// 9//// 555 91021;","","","","","","","","","",""
"68558099999","2005-07-21T08:00:00","-30.9333333","27.6","1819.0","BARKLY EAST, SF","FM-12","4","","32","35","","","-0.01","3","91","","","24.28","18.64","34","000","28","0","","","","","","","","","","","","","","","","","","","","","","","","","","","","","","","","","","","","","","","","","","","","","","","","","","","","","","","","","","","","","","","","","","","","","","","","","","","","","","","","","","","","","","","","","","","SYN098AAXX  21064 68558 32980 40000 10015 20001 38221 48550 53005 82101 333 20015 9//// 555 10120 91024;","","","","","","","","","",""
"68558099999","2005-07-21T14:00:00","-30.9333333","27.6","1819.0","BARKLY EAST, SF","FM-12","4","","36","56","","","-0.01","3","46","CLR:00","","24.28","18.64","46","320","28","17","","","","","","","","","","","","","","","","","","","","","","","","","","","","","","","","","","","","","","","","","","","","","","","","","","","","","","","","","","","","","","","","","","","","","","","","","","","","","","","","","","","","","","","","","","","SYN092AAXX  21124 68558 32980 03215 10135 20021 38221 48539 53005 333 1//// 20010 9//// 555 91024;","","","","","","","","","",""
"68558099999","2005-07-21T20:00:00","-30.9333333","27.6","1819.0","BARKLY EAST, SF","FM-12","4","","32","45","","","-0.05","3","61","CLR:00","","24.30","18.64","39","320","29","5","","","","","","","","","","","","","","","","","","","","","","","","","","","","","","","","","","","","","","","","","","","","","","","","","","","","","","","","","","","","","","","","","","","","","","","","","","","","","","","","","","","","","","","","","","","SYN092AAXX  21184 68558 32980 03204 10070 20000 38230 48554 53016 333 10155 2//// 9//// 555 91025;","","","","","","","","","",""
"68558099999","2005-07-22T14:00:00","-30.9333333","27.6","1819.0","BARKLY EAST, SF","FM-12","4","","35","56","","","+0.04","8","45","CLR:00","","24.38","18.64","46","000","32","0","","","","","","","","","","","","","","","","","","","","","","","","","","","","","","","","","","","","","","","","","","","","","","","","","","","","","","","","","","","","","","","","","","","","","","","","","","","","","","","","","","","","","","","","","","","SYN092AAXX  22124 68558 32980 00000 10135 20018 38257 48575 58015 333 1//// 20000 9//// 555 91028;","","","","","","","","","",""
"68558099999","2005-07-22T20:00:00","-30.9333333","27.6","1819.0","BARKLY EAST, SF","FM-12","4","","31","47","","","-0.03","3","53","CLR:00","","24.41","18.64","40","000","33","0","","","","","","","","","","","","","","","","","","","","","","","","","","","","","","","","","","","","","","","","","","","","","","","","","","","","","","","","","","","","","","","","","","","","","","","","","","","","","","","","","","","","","","","","","","","SYN092AAXX  22184 68558 32980 00000 10085 21007 38265 48587 53010 333 10155 2//// 9//// 555 91029;","","","","","","","","","",""
"68558099999","2005-07-23T08:00:00","-30.9333333","27.6","1819.0","BARKLY EAST, SF","FM-12","4","","25","39","","","-0.04","3","57","CLR:00","","24.45","18.64","33","000","36","0","","","","","","","","","","","","","","","","","","","","","","","","","","","","","","","","","","","","","","","","","","","","","","","","","","","","","","","","","","","","","","","","","","","","","","","","","","","","","","","","","","","","","","","","","","","SYN092AAXX  23064 68558 32980 00000 10040 21039 38281 48606 53013 333 20030 9//// 555 10155 91031;","","","","","","","","","",""
"68558099999","2005-07-24T08:00:00","-30.9333333","27.6","1819.0","BARKLY EAST, SF","FM-12","4","","32","50","","","-0.02","3","50","CLR:00","","24.24","18.64","41","320","25","22","","","","","","","","","","","","","","","","","","","","","","","","","","","","","","","","","","","","","","","","","","","","","","","","","","","","","","","","","","","","","","","","","","","","","","","","","","","","","","","","","","","","","","","","","","","SYN092AAXX  24064 68558 32980 03219 10100 21001 38208 48529 53007 333 20090 9//// 555 10180 91022;","","","","","","","","","",""
"68558099999","2005-07-24T14:00:00","-30.9333333","27.6","1819.0","BARKLY EAST, SF","FM-12","4","","29","69","","","+0.05","8","22","CLR:00","","24.43","18.64","49","320","34","11","","","","","","","","","","","","","","","","","","","","","","","","","","","","","","","","","","","","","","","","","","","","","","","","","","","","","","","","","","","","","","","","","","","","","","","","","","","","","","","","","","","","","","","","","","","SYN092AAXX  24124 68558 32980 03210 10205 21017 38274 48587 58016 333 1//// 20015 9//// 555 91030;","","","","","","","","","",""
"68558099999","2005-07-24T20:00:00","-30.9333333","27.6","1819.0","BARKLY EAST, SF","FM-12","4","","25","54","","","-0.02","3","33","CLR:00","","24.45","18.64","41","000","36","0","","","","","","","","","","","","","","","","","","","","","","","","","","","","","","","","","","","","","","","","","","","","","","","","","","","","","","","","","","","","","","","","","","","","","","","","","","","","","","","","","","","","","","","","","","","SYN092AAXX  24184 68558 32980 00000 10120 21037 38281 48600 53008 333 10205 2//// 9//// 555 91031;","","","","","","","","","",""
"68558099999","2005-07-25T08:00:00","-30.9333333","27.6","1819.0","BARKLY EAST, SF","FM-12","4","","27","56","","","-0.01","3","33","CLR:00","","24.42","18.64","43","360","33","11","","","","","","","","","","","","","","","","","","","","","","","","","","","","","","","","","","","","","","","","","","","","","","","","","","","","","","","","","","","","","","","","","","","","","","","","","","","","","","","","","","","","","","","","","","","SYN092AAXX  25064 68558 32980 03610 10135 21027 38269 48587 53005 333 20055 9//// 555 10205 91029;","","","","","","","","","",""
"68558099999","2005-07-25T20:00:00","-30.9333333","27.6","1819.0","BARKLY EAST, SF","FM-12","4","","27","60","","","-0.02","3","28","CLR:00","","24.36","18.64","44","320","31","15","","","","","","","","","","","","","","","","","","","","","","","","","","","","","","","","","","","","","","","","","","","","","","","","","","","","","","","","","","","","","","","","","","","","","","","","","","","","","","","","","","","","","","","","","","","SYN092AAXX  25184 68558 32980 03213 10155 21028 38249 48565 53006 333 10215 2//// 9//// 555 91027;","","","","","","","","","",""
"68558099999","2005-07-26T08:00:00","-30.9333333","27.6","1819.0","BARKLY EAST, SF","FM-12","4","","25","47","","","+0.00","8","42","CLR:00","","24.31","18.64","37","000","29","0","","","","","","","","","","","","","","","","","","","","","","","","","","","","","","","","","","","","","","","","","","","","","","","","","","","","","","","","","","","","","","","","","","","","","","","","","","","","","","","","","","","","","","","","","","","SYN092AAXX  26064 68558 32980 00000 10085 21039 38234 48557 58001 333 20075 9//// 555 10215 91025;","","","","","","","","","",""
"68558099999","2005-07-26T14:00:00","-30.9333333","27.6","1819.0","BARKLY EAST, SF","FM-12","4","","31","63","","","-0.05","3","30","CLR:00","","24.29","18.64","47","320","28","22","","","","","","","","","","","","","","","","","","","","","","","","","","","","","","","","","","","","","","","","","","","","","","","","","","","","","","","","","","","","","","","","","","","","","","","","","","","","","","","","","","","","","","","","","","","SYN092AAXX  26124 68558 32980 03219 10175 21005 38225 48539 53017 333 1//// 20080 9//// 555 91024;","","","","","","","","","",""
"68558099999","2005-07-26T20:00:00","-30.9333333","27.6","1819.0","BARKLY EAST, SF","FM-12","4","","22","54","","","-0.01","3","29","CLR:00","","24.29","18.64","40","320","28","11","","","","","","","","","","","","","","","","","","","","","","","","","","","","","","","","","","","","","","","","","","","","","","","","","","","","","","","","","","","","","","","","","","","","","","","","","","","","","","","","","","","","","","","","","","","SYN092AAXX  26184 68558 32980 03210 10120 21054 38224 48543 53005 333 10185 2//// 9//// 555 91024;","","","","","","","","","",""
"68558099999","2005-07-27T08:00:00","-30.9333333","27.6","1819.0","BARKLY EAST, SF","FM-12","4","","22","27","","","-0.05","3","80","CLR:00","","24.38","18.64","25","000","32","0","","","","","","","","","","","","","","","","","","","","","","","","","","","","","","","","","","","","","","","","","","","","","","","","","","","","","","","","","","","","","","","","","","","","","","","","","","","","","","","","","","","","","","","","","","","SYN092AAXX  27064 68558 32980 00000 11025 21056 38256 48588 53017 333 21030 9//// 555 10185 91028;","","","","","","","","","",""
"68558099999","2005-07-27T20:00:00","-30.9333333","27.6","1819.0","BARKLY EAST, SF","FM-12","4","","24","41","","","-0.04","3","52","CLR:00","","24.40","18.64","34","000","33","0","","","","","","","","","","","","","","","","","","","","","","","","","","","","","","","","","","","","","","","","","","","","","","","","","","","","","","","","","","","","","","","","","","","","","","","","","","","","","","","","","","","","","","","","","","","SYN092AAXX  27184 68558 32980 00000 10050 21042 38264 48589 53012 333 10150 2//// 9//// 555 91029;","","","","","","","","","",""
"68558099999","2005-07-29T20:00:00","-30.9333333","27.6","1819.0","BARKLY EAST, SF","FM-12","4","","29","55","","","-0.01","3","37","CLR:00","","24.38","18.64","43","360","32","7","","","","","","","","","","","","","","","","","","","","","","","","","","","","","","","","","","","","","","","","","","","","","","","","","","","","","","","","","","","","","","","","","","","","","","","","","","","","","","","","","","","","","","","","","","","SYN092AAXX  29184 68558 32980 03606 10130 21016 38256 48574 53005 333 10180 2//// 9//// 555 91028;","","","","","","","","","",""
"68558099999","2005-07-30T08:00:00","-30.9333333","27.6","1819.0","BARKLY EAST, SF","FM-12","4","","29","50","","","-0.01","3","45","CLR:00","","24.37","18.64","40","050","31","7","","","","","","","","","","","","","","","","","","","","","","","","","","","","","","","","","","","","","","","","","","","","","","","","","","","","","","","","","","","","","","","","","","","","","","","","","","","","","","","","","","","","","","","","","","","SYN092AAXX  30064 68558 32980 00506 10100 21016 38252 48573 53003 333 20060 9//// 555 10180 91027;","","","","","","","","","",""
"68558099999","2005-07-31T08:00:00","-30.9333333","27.6","1819.0","BARKLY EAST, SF","FM-12","4","","25","47","","","-0.01","3","42","","","24.34","18.64","37","000","30","0","","","","","","","","","","","","","","","","","","","","","","","","","","","","","","","","","","","","","","","","","","","","","","","","","","","","","","","","","","","","","","","","","","","","","","","","","","","","","","","","","","","","","","","","","","","SYN098AAXX  31064 68558 32980 70000 10085 21039 38244 48566 53005 81101 333 20070 9//// 555 10180 91026;","","","","","","","","","",""
"68558099999","2005-07-31T20:00:00","-30.9333333","27.6","1819.0","BARKLY EAST, SF","FM-12","4","","23","46","","","-0.01","3","40","CLR:00","","24.37","18.64","36","000","31","0","","","","","","","","","","","","","","","","","","","","","","","","","","","","","","","","","","","","","","","","","","","","","","","","","","","","","","","","","","","","","","","","","","","","","","","","","","","","","","","","","","","","","","","","","","","SYN092AAXX  31184 68558 32980 00000 10080 21050 38251 48574 53005 333 10185 2//// 9//// 555 91027;","","","","","","","","","",""
"68558099999","2005-08-01T08:00:00","-30.9333333","27.6","1819.0","BARKLY EAST, SF","FM-12","4","","26","52","","","-0.02","3","37","","","24.34","18.64","40","050","30","11","","","","","","","","","","","","","","","","","","","","","","","","","","","","","","","","","","","","","","","","","","","","","","","","","","","","","","","","","","","","","","","","","","","","","","","","","","","","","","","","","","","","","","","","","","","SYN098AAXX  01064 68558 32980 40510 10110 21034 38244 48564 53008 82101 333 20115 9//// 555 10185 91026;","","","","","","","","","",""
"68558099999","2005-08-01T14:00:00","-30.9333333","27.6","1819.0","BARKLY EAST, SF","FM-12","4","","33","64","","","+0.08","8","30","CLR:00","","24.27","18.64","48","320","26","22","","","","","","","","","","","","","","","","","","","","","","","","","","","","","","","","","","","","","","","","","","","","","","","","","","","","","","","","","","","","","","","","","","","","","","","","","","","","","","","","","","","","","","","","","","","SYN092AAXX  01124 68558 32980 03219 10180 20003 38220 48533 58027 333 1//// 20090 9//// 555 91023;","","","","","","","","","",""
"68558099999","2005-08-01T20:00:00","-30.9333333","27.6","1819.0","BARKLY EAST, SF","FM-12","4","","24","54","","","-0.02","3","31","CLR:00","","24.27","18.64","41","320","26","17","","","","","","","","","","","","","","","","","","","","","","","","","","","","","","","","","","","","","","","","","","","","","","","","","","","","","","","","","","","","","","","","","","","","","","","","","","","","","","","","","","","","","","","","","","","SYN092AAXX  01184 68558 32980 03215 10125 21045 38219 48538 53007 333 10190 2//// 9//// 555 91023;","","","","","","","","","",""
"68558099999","2005-08-02T08:00:00","-30.9333333","27.6","1819.0","BARKLY EAST, SF","FM-12","4","","26","52","","","-0.01","3","37","","","24.22","18.64","40","360","24","19","","","","","","","","","","","","","","","","","","","","","","","","","","","","","","","","","","","","","","","","","","","","","","","","","","","","","","","","","","","","","","","","","","","","","","","","","","","","","","","","","","","","","","","","","","","SYN098AAXX  02064 68558 32980 33617 10110 21034 38203 48523 53002 83101 333 20110 9//// 555 10190 91021;","","","","","","","","","",""
"68558099999","2005-08-02T14:00:00","-30.9333333","27.6","1819.0","BARKLY EAST, SF","FM-12","4","","34","63","","","+0.06","8","33","","","24.16","18.64","48","320","22","22","","","","","","","","","","","","","","","","","","","","","","","","","","","","","","","","","","","","","","","","","","","","","","","","","","","","","","","","","","","","","","","","","","","","","","","","","","","","","","","","","","","","","","","","","","","SYN098AAXX  02124 68558 32980 43219 10175 20011 38181 48494 58022 83101 333 1//// 20110 9//// 555 91019;","","","","","","","","","",""
"68558099999","2005-08-02T20:00:00","-30.9333333","27.6","1819.0","BARKLY EAST, SF","FM-12","4","","24","56","","","-0.04","3","29","","","24.18","18.64","42","320","23","13","","","","","","","","","","","","","","","","","","","","","","","","","","","","","","","","","","","","","","","","","","","","","","","","","","","","","","","","","","","","","","","","","","","","","","","","","","","","","","","","","","","","","","","","","","","SYN098AAXX  02184 68558 32980 43211 10135 21045 38189 48506 53012 82101 333 10195 2//// 9//// 555 91020;","","","","","","","","","",""
"68558099999","2005-08-03T08:00:00","-30.9333333","27.6","1819.0","BARKLY EAST, SF","FM-12","4","","29","36","","","-0.06","3","76","","","24.32","18.64","33","320","29","7","","","","","","","","","","","","","","","","","","","","","","","","","","","","","","","","","","","","","","","","","","","","","","","","","","","","","","","","","","","","","","","","","","","","","","","","","","","","","","","","","","","","","","","","","","","SYN098AAXX  03064 68558 32980 13206 10020 21019 38236 48565 53020 81100 333 20010 9//// 555 10195 91025;","","","","","","","","","",""
"68558099999","2005-08-03T14:00:00","-30.9333333","27.6","1819.0","BARKLY EAST, SF","FM-12","4","","27","53","","","+0.01","8","38","CLR:00","","24.34","18.64","41","320","30","13","","","","","","","","","","","","","","","","","","","","","","","","","","","","","","","","","","","","","","","","","","","","","","","","","","","","","","","","","","","","","","","","","","","","","","","","","","","","","","","","","","","","","","","","","","","SYN092AAXX  03124 68558 32980 03211 10115 21026 38242 48562 58005 333 1//// 20020 9//// 555 91026;","","","","","","","","","",""
"68558099999","2005-08-03T20:00:00","-30.9333333","27.6","1819.0","BARKLY EAST, SF","FM-12","4","","22","39","","","-0.01","3","50","CLR:00","","24.37","18.64","32","140","31","7","","","","","","","","","","","","","","","","","","","","","","","","","","","","","","","","","","","","","","","","","","","","","","","","","","","","","","","","","","","","","","","","","","","","","","","","","","","","","","","","","","","","","","","","","","","SYN092AAXX  03184 68558 32980 01406 10040 21057 38253 48579 53005 333 10130 2//// 9//// 555 91027;","","","","","","","","","",""
"68558099999","2005-08-04T08:00:00","-30.9333333","27.6","1819.0","BARKLY EAST, SF","FM-12","4","","13","36","","","-0.01","3","38","CLR:00","","24.38","18.64","28","000","32","0","","","","","","","","","","","","","","","","","","","","","","","","","","","","","","","","","","","","","","","","","","","","","","","","","","","","","","","","","","","","","","","","","","","","","","","","","","","","","","","","","","","","","","","","","","","SYN092AAXX  04064 68558 32980 00000 10025 21104 38257 48584 53005 333 21005 9//// 555 10130 91028;","","","","","","","","","",""
"68558099999","2005-08-04T14:00:00","-30.9333333","27.6","1819.0","BARKLY EAST, SF","FM-12","4","","27","63","","","+0.05","8","25","CLR:00","","24.35","18.64","46","320","31","19","","","","","","","","","","","","","","","","","","","","","","","","","","","","","","","","","","","","","","","","","","","","","","","","","","","","","","","","","","","","","","","","","","","","","","","","","","","","","","","","","","","","","","","","","","","SYN092AAXX  04124 68558 32980 03217 10175 21026 38247 48561 58016 333 1//// 20025 9//// 555 91027;","","","","","","","","","",""
"68558099999","2005-08-04T20:00:00","-30.9333333","27.6","1819.0","BARKLY EAST, SF","FM-12","4","","26","55","","","-0.02","3","32","CLR:00","","24.34","18.64","42","050","30","11","","","","","","","","","","","","","","","","","","","","","","","","","","","","","","","","","","","","","","","","","","","","","","","","","","","","","","","","","","","","","","","","","","","","","","","","","","","","","","","","","","","","","","","","","","","SYN092AAXX  04184 68558 32980 00510 10130 21036 38241 48559 53007 333 10190 2//// 9//// 555 91026;","","","","","","","","","",""
"68558099999","2005-08-05T14:00:00","-30.9333333","27.6","1819.0","BARKLY EAST, SF","FM-12","4","","35","64","","","+0.05","8","33","CLR:00","","24.36","18.64","49","320","31","15","","","","","","","","","","","","","","","","","","","","","","","","","","","","","","","","","","","","","","","","","","","","","","","","","","","","","","","","","","","","","","","","","","","","","","","","","","","","","","","","","","","","","","","","","","","SYN092AAXX  05124 68558 32980 03213 10180 20016 38248 48562 58018 333 1//// 20080 9//// 555 91027;","","","","","","","","","",""
"68558099999","2005-08-05T20:00:00","-30.9333333","27.6","1819.0","BARKLY EAST, SF","FM-12","4","","33","60","","","-0.03","3","37","CLR:00","","24.38","18.64","47","140","32","13","","","","","","","","","","","","","","","","","","","","","","","","","","","","","","","","","","","","","","","","","","","","","","","","","","","","","","","","","","","","","","","","","","","","","","","","","","","","","","","","","","","","","","","","","","","SYN092AAXX  05184 68558 32980 01411 10155 20006 38255 48571 53010 333 10195 2//// 9//// 555 91028;","","","","","","","","","",""
"68558099999","2005-08-06T08:00:00","-30.9333333","27.6","1819.0","BARKLY EAST, SF","FM-12","4","","29","40","","","-0.02","3","64","CLR:00","","24.38","18.64","35","000","32","0","","","","","","","","","","","","","","","","","","","","","","","","","","","","","","","","","","","","","","","","","","","","","","","","","","","","","","","","","","","","","","","","","","","","","","","","","","","","","","","","","","","","","","","","","","","SYN092AAXX  06064 68558 32980 00000 10045 21017 38255 48581 53007 333 20040 9//// 555 10195 91028;","","","","","","","","","",""
"68558099999","2005-08-07T08:00:00","-30.9333333","27.6","1819.0","BARKLY EAST, SF","FM-12","4","","26","52","","","-0.01","3","37","","","24.23","18.64","40","000","25","0","","","","","","","","","","","","","","","","","","","","","","","","","","","","","","","","","","","","","","","","","","","","","","","","","","","","","","","","","","","","","","","","","","","","","","","","","","","","","","","","","","","","","","","","","","","SYN098AAXX  07064 68558 32980 30000 10110 21034 38205 48525 53003 81101 333 20110 9//// 555 10190 91022;","","","","","","","","","",""
"68558099999","2005-08-07T14:00:00","-30.9333333","27.6","1819.0","BARKLY EAST, SF","FM-12","4","","36","70","","","+0.04","8","29","","","","18.64","","320","36","13","","","","","","","","","","","","","","","","","","","","","","","","","","","","","","","","","","","","","","","","","","","","","","","","","","","","","","","","","","","","","","","","","","","","","","","","","","","","","","","","","","","","","","","","","","","SYN098AAXX  07124 68558 32980 33211 10210 20024 38287 48600 58015 81101 333 1//// 20110 9//// 555 91031;","","","","","","","","","",""
"68558099999","2005-08-07T20:00:00","-30.9333333","27.6","1819.0","BARKLY EAST, SF","FM-12","4","","33","62","","","-0.01","3","34","CLR:00","","24.27","18.64","47","050","26","11","","","","","","","","","","","","","","","","","","","","","","","","","","","","","","","","","","","","","","","","","","","","","","","","","","","","","","","","","","","","","","","","","","","","","","","","","","","","","","","","","","","","","","","","","","","SYN092AAXX  07184 68558 32980 00510 10165 20007 38220 48535 53003 333 10170 2//// 9//// 555 91023;","","","","","","","","","",""
"68558099999","2005-08-08T08:00:00","-30.9333333","27.6","1819.0","BARKLY EAST, SF","FM-12","4","","29","50","","","-0.01","3","45","CLR:00","","24.25","18.64","40","000","26","0","","","","","","","","","","","","","","","","","","","","","","","","","","","","","","","","","","","","","","","","","","","","","","","","","","","","","","","","","","","","","","","","","","","","","","","","","","","","","","","","","","","","","","","","","","","SYN092AAXX  08064 68558 32980 00000 10100 21016 38213 48534 53005 333 20085 9//// 555 10215 91023;","","","","","","","","","",""
"68558099999","2005-08-09T14:00:00","-30.9333333","27.6","1819.0","BARKLY EAST, SF","FM-12","4","","40","42","","","+0.03","8","92","","","24.29","6.21","41","140","28","11","","","","","","","","","","","","","","","","","","","","","","","","","","","","","","","","","","","","","","","","","","","","","","","","","","","","","","","","","","","","","","","","","","","","","","","","","","","","","","","","","","","","","","","","","","","SYN104AAXX  09124 68558 31360 81410 10055 20043 38224 48550 58010 72052 8562/ 333 1//// 20050 9//// 555 91024;","","","","","","","","","",""
"68558099999","2005-08-09T20:00:00","-30.9333333","27.6","1819.0","BARKLY EAST, SF","FM-12","4","","38","44","","","-0.05","3","79","","","24.33","6.21","41","140","30","11","","","","","","","","","","","","","","","","","","","","","","","","","","","","","","","","","","","","","","","","","","","","","","","","","","","","","","","","","","","","","","","","","","","","","","","","","","","","","","","","","","","","","","","","","","","SYN098AAXX  09184 68558 32360 81410 10065 20031 38239 48563 53016 8572/ 333 10095 2//// 9//// 555 91026;","","","","","","","","","",""
"68558099999","2005-08-10T08:00:00","-30.9333333","27.6","1819.0","BARKLY EAST, SF","FM-12","4","","36","45","","","","","73","","","24.33","6.21","41","140","30","11","","","","","","","","","","","","","","","","","","","","","","","","","","","","","","","","","","","","","","","","","","","","","","","","","","","","","","","","","","","","","","","","","","","","","","","","","","","","","","","","","","","","","","","","","","","SYN110AAXX  10064 68558 12360 81410 10070 20025 38238 48562 53000 60234 8572/ 333 20050 9//// 555 10095 20225 91026;","","","","","","","","","",""
"68558099999","2005-08-10T14:00:00","-30.9333333","27.6","1819.0","BARKLY EAST, SF","FM-12","4","","39","54","","","+0.04","8","58","","","24.29","18.64","46","360","28","7","","","","","","","","","","","","","","","","","","","","","","","","","","","","","","","","","","","","","","","","","","","","","","","","","","","","","","","","","","","","","","","","","","","","","","","","","","","","","","","","","","","","","","","","","","","SYN098AAXX  10124 68558 32980 73606 10120 20038 38227 48546 58015 83221 333 1//// 20050 9//// 555 91024;","","","","","","","","","",""
"68558099999","2005-08-11T08:00:00","-30.9333333","27.6","1819.0","BARKLY EAST, SF","FM-12","4","","36","45","","","-0.00","3","73","","","24.32","18.64","41","000","29","0","","","","","","","","","","","","","","","","","","","","","","","","","","","","","","","","","","","","","","","","","","","","","","","","","","","","","","","","","","","","","","","","","","","","","","","","","","","","","","","","","","","","","","","","","","","SYN098AAXX  11064 68558 32980 20000 10070 20025 38235 48559 53001 82200 333 20050 9//// 555 10130 91025;","","","","","","","","","",""
"68558099999","2005-08-11T14:00:00","-30.9333333","27.6","1819.0","BARKLY EAST, SF","FM-12","4","","35","54","","","+0.04","8","48","CLR:00","","24.29","18.64","45","230","28","11","","","","","","","","","","","","","","","","","","","","","","","","","","","","","","","","","","","","","","","","","","","","","","","","","","","","","","","","","","","","","","","","","","","","","","","","","","","","","","","","","","","","","","","","","","","SYN092AAXX  11124 68558 32980 02310 10125 20018 38226 48545 58015 333 1//// 20020 9//// 555 91024;","","","","","","","","","",""
"68558099999","2005-08-11T20:00:00","-30.9333333","27.6","1819.0","BARKLY EAST, SF","FM-12","4","","37","50","","","-0.02","3","60","CLR:00","","24.30","18.64","44","000","28","0","","","","","","","","","","","","","","","","","","","","","","","","","","","","","","","","","","","","","","","","","","","","","","","","","","","","","","","","","","","","","","","","","","","","","","","","","","","","","","","","","","","","","","","","","","","SYN092AAXX  11184 68558 32980 00000 10100 20026 38229 48550 53006 333 10145 2//// 9//// 555 91024;","","","","","","","","","",""
"68558099999","2005-08-12T14:00:00","-30.9333333","27.6","1819.0","BARKLY EAST, SF","FM-12","4","","37","61","","","+0.07","8","41","","","24.21","18.64","49","320","24","17","","","","","","","","","","","","","","","","","","","","","","","","","","","","","","","","","","","","","","","","","","","","","","","","","","","","","","","","","","","","","","","","","","","","","","","","","","","","","","","","","","","","","","","","","","","SYN098AAXX  12124 68558 32980 23215 10160 20028 38200 48515 58023 82200 333 1//// 20060 9//// 555 91021;","","","","","","","","","",""
"68558099999","2005-08-13T08:00:00","-30.9333333","27.6","1819.0","BARKLY EAST, SF","FM-12","4","","24","46","","","-0.04","3","41","CLR:00","","24.22","18.64","37","050","24","11","","","","","","","","","","","","","","","","","","","","","","","","","","","","","","","","","","","","","","","","","","","","","","","","","","","","","","","","","","","","","","","","","","","","","","","","","","","","","","","","","","","","","","","","","","","SYN092AAXX  13064 68558 32980 00510 10080 21047 38203 48526 53013 333 20065 9//// 555 10170 91021;","","","","","","","","","",""
"68558099999","2005-08-13T14:00:00","-30.9333333","27.6","1819.0","BARKLY EAST, SF","FM-12","4","","22","61","","","+0.03","8","22","CLR:00","","24.21","18.64","43","320","24","22","","","","","","","","","","","","","","","","","","","","","","","","","","","","","","","","","","","","","","","","","","","","","","","","","","","","","","","","","","","","","","","","","","","","","","","","","","","","","","","","","","","","","","","","","","","SYN092AAXX  13124 68558 32980 03219 10160 21056 38197 48512 58010 333 1//// 20080 9//// 555 91021;","","","","","","","","","",""
"68558099999","2005-08-13T20:00:00","-30.9333333","27.6","1819.0","BARKLY EAST, SF","FM-12","4","","22","55","","","-0.01","3","27","CLR:00","","24.21","18.64","40","050","24","7","","","","","","","","","","","","","","","","","","","","","","","","","","","","","","","","","","","","","","","","","","","","","","","","","","","","","","","","","","","","","","","","","","","","","","","","","","","","","","","","","","","","","","","","","","","SYN092AAXX  13184 68558 32980 00506 10130 21055 38197 48515 53004 333 10180 2//// 9//// 555 91021;","","","","","","","","","",""
"68558099999","2005-08-14T08:00:00","-30.9333333","27.6","1819.0","BARKLY EAST, SF","FM-12","4","","14","54","","","-0.03","3","20","CLR:00","","24.20","18.64","38","050","23","11","","","","","","","","","","","","","","","","","","","","","","","","","","","","","","","","","","","","","","","","","","","","","","","","","","","","","","","","","","","","","","","","","","","","","","","","","","","","","","","","","","","","","","","","","","","SYN092AAXX  14064 68558 32980 00510 10120 21102 38194 48513 53010 333 20050 9//// 555 10180 91020;","","","","","","","","","",""
"68558099999","2005-08-14T14:00:00","-30.9333333","27.6","1819.0","BARKLY EAST, SF","FM-12","4","","30","68","","","+0.07","8","24","CLR:00","","24.12","18.64","49","320","19","17","","","","","","","","","","","","","","","","","","","","","","","","","","","","","","","","","","","","","","","","","","","","","","","","","","","","","","","","","","","","","","","","","","","","","","","","","","","","","","","","","","","","","","","","","","","SYN092AAXX  14124 68558 32980 03215 10200 21010 38169 48478 58023 333 1//// 20020 9//// 555 91017;","","","","","","","","","",""
"68558099999","2005-08-14T20:00:00","-30.9333333","27.6","1819.0","BARKLY EAST, SF","FM-12","4","","","65","","","-0.01","3","","","","24.10","18.64","","320","","22","","","","","","","","","","","","","","","","","","","","","","","","","","","","","","","","","","","","","","","","","","","","","","","","","","","","","","","","","","","","","","","","","","","","","","","","","","","","","","","","","","","","","","","","","","","SYN098AAXX  14184 68558 32980 63219 10185 2//// 38160 48471 53002 83101 333 10220 2//// 9//// 555 91016;","","","","","","","","","",""
"68558099999","2005-08-15T08:00:00","-30.9333333","27.6","1819.0","BARKLY EAST, SF","FM-12","4","","16","46","","","-0.04","3","29","","","24.17","18.64","34","320","22","11","","","","","","","","","","","","","","","","","","","","","","","","","","","","","","","","","","","","","","","","","","","","","","","","","","","","","","","","","","","","","","","","","","","","","","","","","","","","","","","","","","","","","","","","","","","SYN098AAXX  15064 68558 32980 43210 10080 21089 38184 48507 53015 84200 333 20070 9//// 555 10220 91019;","","","","","","","","","",""
"68558099999","2005-08-15T14:00:00","-30.9333333","27.6","1819.0","BARKLY EAST, SF","FM-12","4","","47s","54","","","+0.01","8","78","CLR:00","","24.19","18.64","50","320","23","19","","","","","","","","","","","","","","","","","","","","","","","","","","","","","","","","","","","","","","","","","","","","","","","","","","","","","","","","","","","","","","","","","","","","","","","","","","","","","","","","","","","","","","","","","","","SYN092AAXX  15124 68558 32980 03217 10120 20083 38193 48512 58003 333 1//// 20075 9//// 555 91020;","","","","","","","","","",""
"68558099999","2005-08-15T20:00:00","-30.9333333","27.6","1819.0","BARKLY EAST, SF","FM-12","4","","18","44","","","-0.07","3","36","CLR:00","","24.26","18.64","34","000","26","0","","","","","","","","","","","","","","","","","","","","","","","","","","","","","","","","","","","","","","","","","","","","","","","","","","","","","","","","","","","","","","","","","","","","","","","","","","","","","","","","","","","","","","","","","","","SYN092AAXX  15184 68558 32980 00000 10065 21075 38216 48541 53023 333 10140 2//// 9//// 555 91023;","","","","","","","","","",""
"68558099999","2005-08-16T08:00:00","-30.9333333","27.6","1819.0","BARKLY EAST, SF","FM-12","4","","18","24","","","-0.02","3","77","CLR:00","","24.32","18.64","22","000","29","0","","","","","","","","","","","","","","","","","","","","","","","","","","","","","","","","","","","","","","","","","","","","","","","","","","","","","","","","","","","","","","","","","","","","","","","","","","","","","","","","","","","","","","","","","","","SYN092AAXX  16064 68558 32980 00000 11045 21079 38237 48571 53007 333 21050 9//// 555 10140 91025;","","","","","","","","","",""
"68558099999","2005-08-16T20:00:00","-30.9333333","27.6","1819.0","BARKLY EAST, SF","FM-12","4","","21","47","","","+0.03","8","36","CLR:00","","24.17","18.64","36","000","22","0","","","","","","","","","","","","","","","","","","","","","","","","","","","","","","","","","","","","","","","","","","","","","","","","","","","","","","","","","","","","","","","","","","","","","","","","","","","","","","","","","","","","","","","","","","","SYN092AAXX  16184 68558 32980 00000 10085 21060 38184 48507 58011 333 10155 2//// 9//// 555 91019;","","","","","","","","","",""
"68558099999","2005-08-17T08:00:00","-30.9333333","27.6","1819.0","BARKLY EAST, SF","FM-12","4","","38","45","","","-0.03","3","74","","","24.11","18.64","42","320","19","7","","","","","","","","","","","","","","","","","","","","","","","","","","","","","","","","","","","","","","","","","","","","","","","","","","","","","","","","","","","","","","","","","","","","","","","","","","","","","","","","","","","","","","","","","","","SYN098AAXX  17064 68558 32980 73206 10075 20031 38163 48487 53010 83222 333 20075 9//// 555 10155 91017;","","","","","","","","","",""
"68558099999","2005-08-17T20:00:00","-30.9333333","27.6","1819.0","BARKLY EAST, SF","FM-12","4","","20","45","","","-0.04","3","38","CLR:00","","24.11","18.64","35","000","19","0","","","","","","","","","","","","","","","","","","","","","","","","","","","","","","","","","","","","","","","","","","","","","","","","","","","","","","","","","","","","","","","","","","","","","","","","","","","","","","","","","","","","","","","","","","","SYN092AAXX  17184 68558 32980 00000 10070 21066 38165 48490 53013 333 10150 2//// 9//// 555 91017;","","","","","","","","","",""
"68558099999","2005-08-18T08:00:00","-30.9333333","27.6","1819.0","BARKLY EAST, SF","FM-12","4","","25","35","","","-0.08","3","68","","","24.21","18.64","31","320","24","7","","","","","","","","","","","","","","","","","","","","","","","","","","","","","","","","","","","","","","","","","","","","","","","","","","","","","","","","","","","","","","","","","","","","","","","","","","","","","","","","","","","","","","","","","","","SYN098AAXX  18064 68558 32980 23206 10015 21039 38199 48529 53027 81101 333 20020 9//// 555 10150 91021;","","","","","","","","","",""
"68558099999","2005-08-18T14:00:00","-30.9333333","27.6","1819.0","BARKLY EAST, SF","FM-12","4","","21","49","","","+0.01","8","34","CLR:00","","24.24","18.64","37","320","25","7","","","","","","","","","","","","","","","","","","","","","","","","","","","","","","","","","","","","","","","","","","","","","","","","","","","","","","","","","","","","","","","","","","","","","","","","","","","","","","","","","","","","","","","","","","","SYN092AAXX  18124 68558 32980 03206 10095 21059 38208 48530 58005 333 1//// 20095 9//// 555 91022;","","","","","","","","","",""
"68558099999","2005-08-18T20:00:00","-30.9333333","27.6","1819.0","BARKLY EAST, SF","FM-12","4","","24","45","","","-0.04","3","43","CLR:00","","24.27","18.64","36","250","26","7","","","","","","","","","","","","","","","","","","","","","","","","","","","","","","","","","","","","","","","","","","","","","","","","","","","","","","","","","","","","","","","","","","","","","","","","","","","","","","","","","","","","","","","","","","","SYN092AAXX  18184 68558 32980 02506 10070 21047 38220 48544 53012 333 10115 2//// 9//// 555 91023;","","","","","","","","","",""
"68558099999","2005-08-19T20:00:00","-30.9333333","27.6","1819.0","BARKLY EAST, SF","FM-12","4","","19","54","","","-0.03","3","25","CLR:00","","24.21","18.64","39","320","24","9","","","","","","","","","","","","","","","","","","","","","","","","","","","","","","","","","","","","","","","","","","","","","","","","","","","","","","","","","","","","","","","","","","","","","","","","","","","","","","","","","","","","","","","","","","","SYN092AAXX  19184 68558 32980 03208 10120 21073 38198 48517 53010 333 10170 2//// 9//// 555 91021;","","","","","","","","","",""
"68558099999","2005-08-20T14:00:00","-30.9333333","27.6","1819.0","BARKLY EAST, SF","FM-12","4","","15","63","","","+0.01","8","15","CLR:00","","24.33","18.64","42","320","30","5","","","","","","","","","","","","","","","","","","","","","","","","","","","","","","","","","","","","","","","","","","","","","","","","","","","","","","","","","","","","","","","","","","","","","","","","","","","","","","","","","","","","","","","","","","","SYN092AAXX  20124 68558 32980 03204 10175 21093 38240 48554 58003 333 1//// 20175 9//// 555 91026;","","","","","","","","","",""
"68558099999","2005-08-21T08:00:00","-30.9333333","27.6","1819.0","BARKLY EAST, SF","FM-12","4","","27","45","","","-0.03","3","50","","","24.36","18.64","37","000","31","0","","","","","","","","","","","","","","","","","","","","","","","","","","","","","","","","","","","","","","","","","","","","","","","","","","","","","","","","","","","","","","","","","","","","","","","","","","","","","","","","","","","","","","","","","","","SYN098AAXX  21064 68558 32980 70000 10070 21029 38250 48574 53011 83202 333 20070 9//// 555 10190 91027;","","","","","","","","","",""
"68558099999","2005-08-21T14:00:00","-30.9333333","27.6","1819.0","BARKLY EAST, SF","FM-12","4","","42","56","","","+0.06","8","60","","","24.33","18.64","49","000","30","0","","","","","","","","","","","","","","","","","","","","","","","","","","","","","","","","","","","","","","","","","","","","","","","","","","","","","","","","","","","","","","","","","","","","","","","","","","","","","","","","","","","","","","","","","","","SYN098AAXX  21124 68558 32980 70000 10135 20057 38239 48557 58020 83202 333 1//// 20135 9//// 555 91026;","","","","","","","","","",""
"68558099999","2005-08-21T20:00:00","-30.9333333","27.6","1819.0","BARKLY EAST, SF","FM-12","4","","41","50","","","+0.00","8","71","","","24.29","12.43","45","000","28","0","","","","","","","","","","","","","","","","","","","","","","","","","","","","","","","","","","","","","","","","","","","","","","","","","","","","","","","","","","","","","","","","","","","","","","","","","","","","","","","","","","","","","","","","","","","SYN098AAXX  21184 68558 32770 80000 10100 20050 38226 48547 58001 83222 333 10160 2//// 9//// 555 91024;","","","","","","","","","",""
"68558099999","2005-08-22T08:00:00","-30.9333333","27.6","1819.0","BARKLY EAST, SF","FM-12","4","","36","62","","","-0.04","3","38","","","24.23","12.43","49","320","25","17","","","","","","","","","","","","","","","","","","","","","","","","","","","","","","","","","","","","","","","","","","","","","","","","","","","","","","","","","","","","","","","","","","","","","","","","","","","","","","","","","","","","","","","","","","","SYN098AAXX  22064 68558 32770 83215 10165 20022 38206 48520 53013 83222 333 20170 9//// 555 10165 91022;","","","","","","","","","",""
"68558099999","2005-08-22T14:00:00","-30.9333333","27.6","1819.0","BARKLY EAST, SF","FM-12","4","","41","60","","","+0.05","8","49","","","24.19","12.43","50","360","23","11","","","","","","","","","","","","","","","","","","","","","","","","","","","","","","","","","","","","","","","","","","","","","","","","","","","","","","","","","","","","","","","","","","","","","","","","","","","","","","","","","","","","","","","","","","","SYN098AAXX  22124 68558 32770 83610 10155 20049 38191 48506 58017 83222 333 1//// 20160 9//// 555 91020;","","","","","","","","","",""
"68558099999","2005-08-22T20:00:00","-30.9333333","27.6","1819.0","BARKLY EAST, SF","FM-12","4","","44","53","","","-0.01","3","72","","","24.16","6.21","48","320","22","15","","","","","","","","","","","","","","","","","","","","","","","","","","","","","","","","","","","","","","","","","","","","","","","","","","","","","","","","","","","","","","","","","","","","","","","","","","","","","","","","","","","","","","","","","","","SYN098AAXX  22184 68558 32660 83213 10115 20066 38180 48500 53002 82322 333 10175 2//// 9//// 555 91019;","","","","","","","","","",""
"68558099999","2005-08-23T08:00:00","-30.9333333","27.6","1819.0","BARKLY EAST, SF","FM-12","4","","30","39","","","-0.04","3","71","","","24.25","18.64","35","320","26","7","","","","","","","","","","","","","","","","","","","","","","","","","","","","","","","","","","","","","","","","","","","","","","","","","","","","","","","","","","","","","","","","","","","","","","","","","","","","","","","","","","","","","","","","","","","SYN110AAXX  23064 68558 12980 13206 10040 21009 38213 48540 53012 60024 81100 333 20035 9//// 555 10175 20015 91023;","","","","","","","","","",""
"68558099999","2005-08-24T08:00:00","-30.9333333","27.6","1819.0","BARKLY EAST, SF","FM-12","4","","30","39","","","-0.00","3","71","CLR:00","","24.26","18.64","35","000","26","0","","","","","","","","","","","","","","","","","","","","","","","","","","","","","","","","","","","","","","","","","","","","","","","","","","","","","","","","","","","","","","","","","","","","","","","","","","","","","","","","","","","","","","","","","","","SYN092AAXX  24064 68558 32980 00000 10040 21009 38217 48544 53001 333 20035 9//// 555 10175 91023;","","","","","","","","","",""
"68558099999","2005-08-24T14:00:00","-30.9333333","27.6","1819.0","BARKLY EAST, SF","FM-12","4","","21","63","","","+0.05","8","19","","","24.21","18.64","44","320","24","15","","","","","","","","","","","","","","","","","","","","","","","","","","","","","","","","","","","","","","","","","","","","","","","","","","","","","","","","","","","","","","","","","","","","","","","","","","","","","","","","","","","","","","","","","","","SYN098AAXX  24124 68558 32980 43213 10175 21062 38198 48511 58017 83201 333 1//// 21005 9//// 555 91021;","","","","","","","","","",""
"68558099999","2005-08-24T20:00:00","-30.9333333","27.6","1819.0","BARKLY EAST, SF","FM-12","4","","20","54","","","-0.01","3","26","","","24.22","18.64","39","320","24","7","","","","","","","","","","","","","","","","","","","","","","","","","","","","","","","","","","","","","","","","","","","","","","","","","","","","","","","","","","","","","","","","","","","","","","","","","","","","","","","","","","","","","","","","","","","SYN098AAXX  24184 68558 32980 53206 10125 21064 38203 48522 53003 82101 333 10190 2//// 9//// 555 91021;","","","","","","","","","",""
"68558099999","2005-08-25T08:00:00","-30.9333333","27.6","1819.0","BARKLY EAST, SF","FM-12","4","","19","33","","","-0.01","3","58","CLR:00","","24.28","18.64","28","000","28","0","","","","","","","","","","","","","","","","","","","","","","","","","","","","","","","","","","","","","","","","","","","","","","","","","","","","","","","","","","","","","","","","","","","","","","","","","","","","","","","","","","","","","","","","","","","SYN092AAXX  25064 68558 32980 00000 10005 21070 38221 48551 53005 333 21005 9//// 555 10190 91024;","","","","","","","","","",""
"68558099999","2005-08-25T14:00:00","-30.9333333","27.6","1819.0","BARKLY EAST, SF","FM-12","4","","15","65s","","","+0.06","8","14","CLR:00","","24.20","18.64","43","000","23","0","","","","","","","","","","","","","","","","","","","","","","","","","","","","","","","","","","","","","","","","","","","","","","","","","","","","","","","","","","","","","","","","","","","","","","","","","","","","","","","","","","","","","","","","","","","SYN092AAXX  25124 68558 32980 00000 10185 21094 38194 48506 58021 333 1//// 20000 9//// 555 91020;","","","","","","","","","",""
"68558099999","2005-08-25T20:00:00","-30.9333333","27.6","1819.0","BARKLY EAST, SF","FM-12","4","","13","57","","","+0.03","8","17","CLR:00","","24.16","18.64","39","050","22","7","","","","","","","","","","","","","","","","","","","","","","","","","","","","","","","","","","","","","","","","","","","","","","","","","","","","","","","","","","","","","","","","","","","","","","","","","","","","","","","","","","","","","","","","","","","SYN092AAXX  25184 68558 32980 00506 10140 21106 38183 48500 58009 333 10195 2//// 9//// 555 91019;","","","","","","","","","",""
"68558099999","2005-08-26T08:00:00","-30.9333333","27.6","1819.0","BARKLY EAST, SF","FM-12","4","","18","47","","","+0.01","8","31","CLR:00","","24.10","18.64","35","050","18","7","","","","","","","","","","","","","","","","","","","","","","","","","","","","","","","","","","","","","","","","","","","","","","","","","","","","","","","","","","","","","","","","","","","","","","","","","","","","","","","","","","","","","","","","","","","SYN092AAXX  26064 68558 32980 00506 10085 21080 38161 48484 58003 333 20000 9//// 555 10195 91016;","","","","","","","","","",""
"68558099999","2005-08-26T14:00:00","-30.9333333","27.6","1819.0","BARKLY EAST, SF","FM-12","4","","10","65","","","+0.08","8","11","CLR:00","","24.04","18.64","42","320","","26","","","","","","","","","","","","","","","","","","","","","","","","","","","","","","","","","","","","","","","","","","","","","","","","","","","","","","","","","","","","","","","","","","","","","","","","","","","","","","","","","","","","","","","","","","","SYN092AAXX  26124 68558 32980 03223 10185 21124 38141 48451 58026 333 1//// 20060 9//// 555 91014;","","","","","","","","","",""
"68558099999","2005-08-26T20:00:00","-30.9333333","27.6","1819.0","BARKLY EAST, SF","FM-12","4","","11","56","","","-0.04","3","16","","","24.07","18.64","38","320","17","15","","","","","","","","","","","","","","","","","","","","","","","","","","","","","","","","","","","","","","","","","","","","","","","","","","","","","","","","","","","","","","","","","","","","","","","","","","","","","","","","","","","","","","","","","","","SYN098AAXX  26184 68558 32980 23213 10135 21118 38150 48467 53013 81101 333 10200 2//// 9//// 555 91015;","","","","","","","","","",""
"68558099999","2005-08-27T08:00:00","-30.9333333","27.6","1819.0","BARKLY EAST, SF","FM-12","4","","29","34","","","-0.02","3","84","CLR:00","","24.25","18.64","32","000","26","0","","","","","","","","","","","","","","","","","","","","","","","","","","","","","","","","","","","","","","","","","","","","","","","","","","","","","","","","","","","","","","","","","","","","","","","","","","","","","","","","","","","","","","","","","","","SYN092AAXX  27064 68558 32980 00000 10010 21015 38213 48543 53007 333 21005 9//// 555 10195 91023;","","","","","","","","","",""
"68558099999","2005-08-27T14:00:00","-30.9333333","27.6","1819.0","BARKLY EAST, SF","FM-12","4","","8","52","","","-0.01","3","17","CLR:00","","24.28","18.64","35","320","28","19","","","","","","","","","","","","","","","","","","","","","","","","","","","","","","","","","","","","","","","","","","","","","","","","","","","","","","","","","","","","","","","","","","","","","","","","","","","","","","","","","","","","","","","","","","","SYN092AAXX  27124 68558 32980 03217 10110 21131 38221 48541 53002 333 1//// 20010 9//// 555 91024;","","","","","","","","","",""
"68558099999","2005-08-27T15:00:00","-30.9333333","27.6","1819.0","BARKLY EAST, SF","FM-12","4","","8","52","","","-0.01","3","17","CLR:00","","24.28","18.64","35","320","28","19","","","","","","","","","","","","","","","","","","","","","","","","","","","","","","","","","","","","","","","","","","","","","","","","","","","","","","","","","","","","","","","","","","","","","","","","","","","","","","","","","","","","","","","","","","","SYN092AAXX  27133 68558 32980 03217 10110 21131 38221 48541 53002 333 1//// 20010 9//// 555 91024;","","","","","","","","","",""
"68558099999","2005-08-28T08:00:00","-30.9333333","27.6","1819.0","BARKLY EAST, SF","FM-12","4","","29","34","","","-0.05","3","84","CLR:00","","24.25","18.64","32","000","25","0","","","","","","","","","","","","","","","","","","","","","","","","","","","","","","","","","","","","","","","","","","","","","","","","","","","","","","","","","","","","","","","","","","","","","","","","","","","","","","","","","","","","","","","","","","","SYN092AAXX  28064 68558 32980 00000 10010 21015 38211 48541 53018 333 21004 9//// 555 10130 91022;","","","","","","","","","",""
"68558099999","2005-08-28T20:00:00","-30.9333333","27.6","1819.0","BARKLY EAST, SF","FM-12","4","","28","54","","","-0.02","3","36","","","24.31","18.64","42","000","29","0","","","","","","","","","","","","","","","","","","","","","","","","","","","","","","","","","","","","","","","","","","","","","","","","","","","","","","","","","","","","","","","","","","","","","","","","","","","","","","","","","","","","","","","","","","","SYN098AAXX  28184 68558 32980 20000 10125 21024 38231 48550 53006 81101 333 10185 2//// 9//// 555 91025;","","","","","","","","","",""
"68558099999","2005-08-29T08:00:00","-30.9333333","27.6","1819.0","BARKLY EAST, SF","FM-12","4","","45","55","","","-0.03","3","68","","","24.32","18.64","50","050","29","13","","","","","","","","","","","","","","","","","","","","","","","","","","","","","","","","","","","","","","","","","","","","","","","","","","","","","","","","","","","","","","","","","","","","","","","","","","","","","","","","","","","","","","","","","","","SYN098AAXX  29064 68558 32980 60511 10130 20072 38235 48553 53010 82101 333 20060 9//// 555 10180 91025;","","","","","","","","","",""
"68558099999","2005-08-29T14:00:00","-30.9333333","27.6","1819.0","BARKLY EAST, SF","FM-12","4","","44","69","","","+0.04","8","41","","","24.32","18.64","55","320","29","13","","","","","","","","","","","","","","","","","","","","","","","","","","","","","","","","","","","","","","","","","","","","","","","","","","","","","","","","","","","","","","","","","","","","","","","","","","","","","","","","","","","","","","","","","","","SYN098AAXX  29124 68558 32980 63211 10205 20069 38236 48547 58012 82101 333 1//// 20125 9//// 555 91025;","","","","","","","","","",""
"68558099999","2005-08-29T20:00:00","-30.9333333","27.6","1819.0","BARKLY EAST, SF","FM-12","4","","47","64","","","+0.02","8","53","CLR:00","","24.32","18.64","54","050","29","11","","","","","","","","","","","","","","","","","","","","","","","","","","","","","","","","","","","","","","","","","","","","","","","","","","","","","","","","","","","","","","","","","","","","","","","","","","","","","","","","","","","","","","","","","","","SYN092AAXX  29184 68558 32980 00510 10180 20081 38236 48550 58006 333 10215 2//// 9//// 555 91025;","","","","","","","","","",""
"68558099999","2005-08-30T08:00:00","-30.9333333","27.6","1819.0","BARKLY EAST, SF","FM-12","4","","49","59","","","-0.04","3","70","","","24.33","12.43","53","050","30","17","","","","","","","","","","","","","","","","","","","","","","","","","","","","","","","","","","","","","","","","","","","","","","","","","","","","","","","","","","","","","","","","","","","","","","","","","","","","","","","","","","","","","","","","","","","SYN098AAXX  30064 68558 32770 60515 10150 20096 38240 48557 53012 82122 333 20125 9//// 555 10215 91026;","","","","","","","","","",""
"68558099999","2005-08-30T14:00:00","-30.9333333","27.6","1819.0","BARKLY EAST, SF","FM-12","4","","45","71","","","+0.05","8","39","","","24.31","18.64","56","360","29","17","","","","","","","","","","","","","","","","","","","","","","","","","","","","","","","","","","","","","","","","","","","","","","","","","","","","","","","","","","","","","","","","","","","","","","","","","","","","","","","","","","","","","","","","","","","SYN098AAXX  30124 68558 32980 63615 10215 20071 38232 48542 58017 82101 333 1//// 20150 9//// 555 91025;","","","","","","","","","",""
"68558099999","2005-08-30T20:00:00","-30.9333333","27.6","1819.0","BARKLY EAST, SF","FM-12","4","","44","64","","","-0.04","3","48","","","24.33","18.64","53","050","30","15","","","","","","","","","","","","","","","","","","","","","","","","","","","","","","","","","","","","","","","","","","","","","","","","","","","","","","","","","","","","","","","","","","","","","","","","","","","","","","","","","","","","","","","","","","","SYN098AAXX  30184 68558 32980 60513 10180 20069 38239 48553 53012 81101 333 10225 2//// 9//// 555 91026;","","","","","","","","","",""
"68558099999","2005-08-31T08:00:00","-30.9333333","27.6","1819.0","BARKLY EAST, SF","FM-12","4","","45","55","","","-0.03","3","68","","","24.32","18.64","50","050","29","13","","","","","","","","","","","","","","","","","","","","","","","","","","","","","","","","","","","","","","","","","","","","","","","","","","","","","","","","","","","","","","","","","","","","","","","","","","","","","","","","","","","","","","","","","","","SYN098AAXX  31064 68558 32980 60511 10130 20072 38235 48553 53010 82101 333 20060 9//// 555 10180 91025;","","","","","","","","","",""
"68558099999","2005-08-31T14:00:00","-30.9333333","27.6","1819.0","BARKLY EAST, SF","FM-12","4","","37","72","","","+0.09","8","28","","","24.19","18.64","53","360","23","17","","","","","","","","","","","","","","","","","","","","","","","","","","","","","","","","","","","","","","","","","","","","","","","","","","","","","","","","","","","","","","","","","","","","","","","","","","","","","","","","","","","","","","","","","","","SYN098AAXX  31124 68558 32980 43615 10220 20028 38191 48499 58031 82202 333 1//// 20160 9//// 555 91020;","","","","","","","","","",""
"68558099999","2005-08-31T20:00:00","-30.9333333","27.6","1819.0","BARKLY EAST, SF","FM-12","4","","30","66","","","+0.03","8","25","","","24.12","12.43","48","320","19","11","","","","","","","","","","","","","","","","","","","","","","","","","","","","","","","","","","","","","","","","","","","","","","","","","","","","","","","","","","","","","","","","","","","","","","","","","","","","","","","","","","","","","","","","","","","SYN098AAXX  31184 68558 32770 83210 10190 21013 38167 48478 58010 83322 333 10235 2//// 9//// 555 91017;","","","","","","","","","",""
"68558099999","2005-09-01T08:00:00","-30.9333333","27.6","1819.0","BARKLY EAST, SF","FM-12","4","","35","41","","","-0.01","3","78","","","24.16","12.43","38","050","22","17","","","","","","","","","","","","","","","","","","","","","","","","","","","","","","","","","","","","","","","","","","","","","","","","","","","","","","","","","","","","","","","","","","","","","","","","","","","","","","","","","","","","","","","","","","","SYN110AAXX  01064 68558 12770 80515 10050 20014 38181 48508 53003 60014 83222 333 20040 9//// 555 10235 20010 91019;","","","","","","","","","",""
"68558099999","2005-09-01T14:00:00","-30.9333333","27.6","1819.0","BARKLY EAST, SF","FM-12","4","","40","44","","","-0.00","3","86","","","24.21","12.43","42","000","24","0","","","","","","","","","","","","","","","","","","","","","","","","","","","","","","","","","","","","","","","","","","","","","","","","","","","","","","","","","","","","","","","","","","","","","","","","","","","","","","","","","","","","","","","","","","","SYN098AAXX  01124 68558 32770 80000 10065 20043 38200 48525 53001 84222 333 1//// 20045 9//// 555 91021;","","","","","","","","","",""
"68558099999","2005-09-02T20:00:00","-30.9333333","27.6","1819.0","BARKLY EAST, SF","FM-12","4","","35","54","","","-0.03","3","48","CLR:00","","24.31","18.64","45","000","29","0","","","","","","","","","","","","","","","","","","","","","","","","","","","","","","","","","","","","","","","","","","","","","","","","","","","","","","","","","","","","","","","","","","","","","","","","","","","","","","","","","","","","","","","","","","","SYN092AAXX  02184 68558 32980 00000 10125 20018 38231 48550 53011 333 10175 2//// 9//// 555 91025;","","","","","","","","","",""
"68558099999","2005-09-03T08:00:00","-30.9333333","27.6","1819.0","BARKLY EAST, SF","FM-12","4","","33","42","","","-0.01","3","72","CLR:00","","24.29","18.64","38","000","28","0","","","","","","","","","","","","","","","","","","","","","","","","","","","","","","","","","","","","","","","","","","","","","","","","","","","","","","","","","","","","","","","","","","","","","","","","","","","","","","","","","","","","","","","","","","","SYN092AAXX  03064 68558 32980 00000 10055 20008 38224 48550 53002 333 20020 9//// 555 10175 91024;","","","","","","","","","",""
"68558099999","2005-09-03T14:00:00","-30.9333333","27.6","1819.0","BARKLY EAST, SF","FM-12","4","","27","68","","","+0.06","8","21","CLR:00","","24.23","18.64","48","320","24","15","","","","","","","","","","","","","","","","","","","","","","","","","","","","","","","","","","","","","","","","","","","","","","","","","","","","","","","","","","","","","","","","","","","","","","","","","","","","","","","","","","","","","","","","","","","SYN092AAXX  03124 68558 32980 03213 10200 21028 38204 48515 58020 333 1//// 20055 9//// 555 91021;","","","","","","","","","",""
"68558099999","2005-09-03T20:00:00","-30.9333333","27.6","1819.0","BARKLY EAST, SF","FM-12","4","","22","61","","","+0.00","8","22","CLR:00","","24.19","18.64","43","050","23","5","","","","","","","","","","","","","","","","","","","","","","","","","","","","","","","","","","","","","","","","","","","","","","","","","","","","","","","","","","","","","","","","","","","","","","","","","","","","","","","","","","","","","","","","","","","SYN092AAXX  03184 68558 32980 00504 10160 21056 38192 48507 58001 333 10215 2//// 9//// 555 91020;","","","","","","","","","",""
"68558099999","2005-09-04T08:00:00","-30.9333333","27.6","1819.0","BARKLY EAST, SF","FM-12","4","","20","60","","","-0.01","3","21","CLR:00","","24.10","18.64","42","050","18","13","","","","","","","","","","","","","","","","","","","","","","","","","","","","","","","","","","","","","","","","","","","","","","","","","","","","","","","","","","","","","","","","","","","","","","","","","","","","","","","","","","","","","","","","","","","SYN092AAXX  04064 68558 32980 00511 10155 21066 38160 48474 53005 333 20050 9//// 555 10215 91016;","","","","","","","","","",""
"68558099999","2005-09-05T14:00:00","-30.9333333","27.6","1819.0","BARKLY EAST, SF","FM-12","4","","24","63","","","+0.02","8","22","","","24.12","18.64","45","320","19","15","","","","","","","","","","","","","","","","","","","","","","","","","","","","","","","","","","","","","","","","","","","","","","","","","","","","","","","","","","","","","","","","","","","","","","","","","","","","","","","","","","","","","","","","","","","SYN098AAXX  05124 68558 42980 23213 10175 21043 38169 48481 58008 82100 333 1//// 20075 9//// 555 91017;","","","","","","","","","",""
"68558099999","2005-09-06T08:00:00","-30.9333333","27.6","1819.0","BARKLY EAST, SF","FM-12","4","","26","36","","","-0.04","3","68","CLR:00","","24.28","18.64","32","000","28","0","","","","","","","","","","","","","","","","","","","","","","","","","","","","","","","","","","","","","","","","","","","","","","","","","","","","","","","","","","","","","","","","","","","","","","","","","","","","","","","","","","","","","","","","","","","SYN092AAXX  06064 68558 32980 00000 10020 21034 38223 48552 53015 333 21020 9//// 555 10225 91024;","","","","","","","","","",""
"68558099999","2005-09-06T14:00:00","-30.9333333","27.6","1819.0","BARKLY EAST, SF","FM-12","4","","15","62","","","+0.03","8","16","CLR:00","","24.29","18.64","42","230","28","11","","","","","","","","","","","","","","","","","","","","","","","","","","","","","","","","","","","","","","","","","","","","","","","","","","","","","","","","","","","","","","","","","","","","","","","","","","","","","","","","","","","","","","","","","","","SYN092AAXX  06124 68558 32980 02310 10165 21093 38227 48542 58011 333 1//// 20015 9//// 555 91024;","","","","","","","","","",""
"68558099999","2005-09-06T20:00:00","-30.9333333","27.6","1819.0","BARKLY EAST, SF","FM-12","4","","36","40","","","-0.04","3","85","CLR:00","","24.35","18.64","38","180","30","11","","","","","","","","","","","","","","","","","","","","","","","","","","","","","","","","","","","","","","","","","","","","","","","","","","","","","","","","","","","","","","","","","","","","","","","","","","","","","","","","","","","","","","","","","","","SYN092AAXX  06184 68558 32980 01810 10045 20022 38245 48571 53012 333 10175 2//// 9//// 555 91026;","","","","","","","","","",""
"68558099999","2005-09-07T08:00:00","-30.9333333","27.6","1819.0","BARKLY EAST, SF","FM-12","4","","41","55","","","","","59","","","24.33","18.64","48","050","30","22","","","","","","","","","","","","","","","","","","","","","","","","","","","","","","","","","","","","","","","","","","","","","","","","","","","","","","","","","","","","","","","","","","","","","","","","","","","","","","","","","","","","","","","","","","","SYN098AAXX  07064 68558 32980 80519 10130 20052 38238 48556 53000 83201 333 20010 9//// 555 10175 91026;","","","","","","","","","",""
"68558099999","2005-09-07T14:00:00","-30.9333333","27.6","1819.0","BARKLY EAST, SF","FM-12","4","","51","53","","","+0.06","8","94","","","24.29","12.43","52","360","28","22","","","","","","","","","","","","","","","","","","","","","","","","","","","","","","","","","","","","","","","","","","","","","","","","","","","","","","","","","","","","","","","","","","","","","","","","","","","","","","","","","","","","","","","","","","","SYN098AAXX  07124 68558 32770 83619 10115 20105 38224 48544 58020 84222 333 1//// 20120 9//// 555 91024;","","","","","","","","","",""
"68558099999","2005-09-07T20:00:00","-30.9333333","27.6","1819.0","BARKLY EAST, SF","FM-12","4","","42","53","","","-0.02","3","67","","","24.31","18.64","47","320","29","7","","","","","","","","","","","","","","","","","","","","","","","","","","","","","","","","","","","","","","","","","","","","","","","","","","","","","","","","","","","","","","","","","","","","","","","","","","","","","","","","","","","","","","","","","","","SYN098AAXX  07184 68558 32980 13206 10115 20056 38234 48554 53006 81100 333 10185 2//// 9//// 555 91025;","","","","","","","","","",""
"68558099999","2005-09-08T08:00:00","-30.9333333","27.6","1819.0","BARKLY EAST, SF","FM-12","4","","28","35","","","-0.02","3","76","CLR:00","","24.43","18.64","32","000","34","0","","","","","","","","","","","","","","","","","","","","","","","","","","","","","","","","","","","","","","","","","","","","","","","","","","","","","","","","","","","","","","","","","","","","","","","","","","","","","","","","","","","","","","","","","","","SYN092AAXX  08064 68558 32980 00000 10015 21024 38273 48601 53007 333 20020 9//// 555 10185 91030;","","","","","","","","","",""
"68558099999","2005-09-08T14:00:00","-30.9333333","27.6","1819.0","BARKLY EAST, SF","FM-12","4","","27","66","","","+0.04","8","22","CLR:00","","24.40","18.64","47","000","33","0","","","","","","","","","","","","","","","","","","","","","","","","","","","","","","","","","","","","","","","","","","","","","","","","","","","","","","","","","","","","","","","","","","","","","","","","","","","","","","","","","","","","","","","","","","","SYN092AAXX  08124 68558 32980 00000 10190 21030 38264 48578 58013 333 1//// 20015 9//// 555 91029;","","","","","","","","","",""
"68558099999","2005-09-08T20:00:00","-30.9333333","27.6","1819.0","BARKLY EAST, SF","FM-12","4","","30","54","","","-0.04","3","40","CLR:00","","24.43","18.64","43","000","34","0","","","","","","","","","","","","","","","","","","","","","","","","","","","","","","","","","","","","","","","","","","","","","","","","","","","","","","","","","","","","","","","","","","","","","","","","","","","","","","","","","","","","","","","","","","","SYN092AAXX  08184 68558 32980 00000 10125 21010 38272 48591 53012 333 10200 2//// 9//// 555 91030;","","","","","","","","","",""
"68558099999","2005-09-09T08:00:00","-30.9333333","27.6","1819.0","BARKLY EAST, SF","FM-12","4","","33","44","","","-0.02","3","66","CLR:00","","24.47","18.64","39","000","36","0","","","","","","","","","","","","","","","","","","","","","","","","","","","","","","","","","","","","","","","","","","","","","","","","","","","","","","","","","","","","","","","","","","","","","","","","","","","","","","","","","","","","","","","","","","","SYN092AAXX  09064 68558 32980 00000 10065 20006 38286 48610 53007 333 20015 9//// 555 10200 91031;","","","","","","","","","",""
"68558099999","2005-09-09T14:00:00","-30.9333333","27.6","1819.0","BARKLY EAST, SF","FM-12","4","","28","73","","","+0.05","8","18","CLR:00","","24.43","18.64","50","320","34","11","","","","","","","","","","","","","","","","","","","","","","","","","","","","","","","","","","","","","","","","","","","","","","","","","","","","","","","","","","","","","","","","","","","","","","","","","","","","","","","","","","","","","","","","","","","SYN092AAXX  09124 68558 32980 03210 10230 21023 38273 48584 58016 333 1//// 20065 9//// 555 91030;","","","","","","","","","",""
"68558099999","2005-09-09T20:00:00","-30.9333333","27.6","1819.0","BARKLY EAST, SF","FM-12","4","","26","64","","","-0.02","3","23","","","24.43","18.64","46","320","34","7","","","","","","","","","","","","","","","","","","","","","","","","","","","","","","","","","","","","","","","","","","","","","","","","","","","","","","","","","","","","","","","","","","","","","","","","","","","","","","","","","","","","","","","","","","","SYN098AAXX  09184 68558 32280 13206 10180 21033 38273 48588 53006 81100 333 10240 2//// 9//// 555 91030;","","","","","","","","","",""
"68558099999","2005-09-10T08:00:00","-30.9333333","27.6","1819.0","BARKLY EAST, SF","FM-12","4","","34","52","","","-0.04","3","52","CLR:00","","24.45","18.64","43","000","36","0","","","","","","","","","","","","","","","","","","","","","","","","","","","","","","","","","","","","","","","","","","","","","","","","","","","","","","","","","","","","","","","","","","","","","","","","","","","","","","","","","","","","","","","","","","","SYN092AAXX  10064 68558 32980 00000 10110 20013 38281 48601 53013 333 20060 9//// 555 10240 91031;","","","","","","","","","",""
"68558099999","2005-09-10T14:00:00","-30.9333333","27.6","1819.0","BARKLY EAST, SF","FM-12","4","","33","79","","","+0.04","8","19","CLR:00","","24.42","18.64","54","320","33","13","","","","","","","","","","","","","","","","","","","","","","","","","","","","","","","","","","","","","","","","","","","","","","","","","","","","","","","","","","","","","","","","","","","","","","","","","","","","","","","","","","","","","","","","","","","SYN092AAXX  10124 68558 32980 03211 10260 20008 38268 48576 58013 333 1//// 20110 9//// 555 91029;","","","","","","","","","",""
"68558099999","2005-09-10T20:00:00","-30.9333333","27.6","1819.0","BARKLY EAST, SF","FM-12","4","","39","68","","","-0.02","3","34","CLR:00","","24.40","18.64","52","000","33","0","","","","","","","","","","","","","","","","","","","","","","","","","","","","","","","","","","","","","","","","","","","","","","","","","","","","","","","","","","","","","","","","","","","","","","","","","","","","","","","","","","","","","","","","","","","SYN092AAXX  10184 68558 32980 00000 10200 20038 38264 48577 53006 333 10270 2//// 9//// 555 91029;","","","","","","","","","",""
"68558099999","2005-09-11T08:00:00","-30.9333333","27.6","1819.0","BARKLY EAST, SF","FM-12","4","","39","57","","","-0.02","3","52","CLR:00","","24.41","18.64","48","000","33","0","","","","","","","","","","","","","","","","","","","","","","","","","","","","","","","","","","","","","","","","","","","","","","","","","","","","","","","","","","","","","","","","","","","","","","","","","","","","","","","","","","","","","","","","","","","SYN092AAXX  11064 68558 32980 00000 10140 20041 38266 48584 53008 333 20095 9//// 555 10270 91029;","","","","","","","","","",""
"68558099999","2005-09-11T20:00:00","-30.9333333","27.6","1819.0","BARKLY EAST, SF","FM-12","4","","31","70","","","-0.03","3","23","CLR:00","","24.38","18.64","50","050","32","11","","","","","","","","","","","","","","","","","","","","","","","","","","","","","","","","","","","","","","","","","","","","","","","","","","","","","","","","","","","","","","","","","","","","","","","","","","","","","","","","","","","","","","","","","","","SYN092AAXX  11184 68558 32980 00510 10210 21007 38256 48568 53010 333 10265 2//// 9//// 555 91028;","","","","","","","","","",""
"68558099999","2005-09-12T08:00:00","-30.9333333","27.6","1819.0","BARKLY EAST, SF","FM-12","4","","34","57","","","-0.04","3","42","CLR:00","","24.42","18.64","46","000","33","0","","","","","","","","","","","","","","","","","","","","","","","","","","","","","","","","","","","","","","","","","","","","","","","","","","","","","","","","","","","","","","","","","","","","","","","","","","","","","","","","","","","","","","","","","","","SYN092AAXX  12064 68558 32980 00000 10140 20013 38271 48589 53013 333 20095 9//// 555 10265 91029;","","","","","","","","","",""
"68558099999","2005-09-12T14:00:00","-30.9333333","27.6","1819.0","BARKLY EAST, SF","FM-12","4","","23","80","","","+0.04","8","12","CLR:00","","24.37","18.64","52","320","31","11","","","","","","","","","","","","","","","","","","","","","","","","","","","","","","","","","","","","","","","","","","","","","","","","","","","","","","","","","","","","","","","","","","","","","","","","","","","","","","","","","","","","","","","","","","","SYN092AAXX  12124 68558 32980 03210 10265 21049 38253 48560 58015 333 1//// 20135 9//// 555 91027;","","","","","","","","","",""
"68558099999","2005-09-13T08:00:00","-30.9333333","27.6","1819.0","BARKLY EAST, SF","FM-12","4","","38","48","","","-0.02","3","69","CLR:00","","24.51","18.64","43","000","38","0","","","","","","","","","","","","","","","","","","","","","","","","","","","","","","","","","","","","","","","","","","","","","","","","","","","","","","","","","","","","","","","","","","","","","","","","","","","","","","","","","","","","","","","","","","","SYN092AAXX  13064 68558 32980 00000 10090 20036 38300 48622 53008 333 20065 9//// 555 10265 91033;","","","","","","","","","",""
"68558099999","2005-09-13T14:00:00","-30.9333333","27.6","1819.0","BARKLY EAST, SF","FM-12","4","","34","80s","","","+0.05","8","19","CLR:00","","24.46","18.64","55","230","36","13","","","","","","","","","","","","","","","","","","","","","","","","","","","","","","","","","","","","","","","","","","","","","","","","","","","","","","","","","","","","","","","","","","","","","","","","","","","","","","","","","","","","","","","","","","","SYN092AAXX  13124 68558 32980 02311 10265 20012 38282 48590 58016 333 1//// 20085 9//// 555 91031;","","","","","","","","","",""
"68558099999","2005-09-13T20:00:00","-30.9333333","27.6","1819.0","BARKLY EAST, SF","FM-12","4","","41","63","","","-0.04","3","44","CLR:00","","24.48","18.64","51","000","37","0","","","","","","","","","","","","","","","","","","","","","","","","","","","","","","","","","","","","","","","","","","","","","","","","","","","","","","","","","","","","","","","","","","","","","","","","","","","","","","","","","","","","","","","","","","","SYN092AAXX  13184 68558 32980 00000 10175 20052 38291 48606 53013 333 10270 2//// 9//// 555 91032;","","","","","","","","","",""
"68558099999","2005-09-15T08:00:00","-30.9333333","27.6","1819.0","BARKLY EAST, SF","FM-12","4","","37","63","","","-0.03","3","39","CLR:00","","24.40","18.64","49","320","33","17","","","","","","","","","","","","","","","","","","","","","","","","","","","","","","","","","","","","","","","","","","","","","","","","","","","","","","","","","","","","","","","","","","","","","","","","","","","","","","","","","","","","","","","","","","","SYN092AAXX  15064 68558 32980 03215 10170 20030 38263 48578 53011 333 20070 9//// 555 10270 91029;","","","","","","","","","",""
"68558099999","2005-09-15T14:00:00","-30.9333333","27.6","1819.0","BARKLY EAST, SF","FM-12","4","","32","75","","","+0.05","8","20","CLR:00","","24.35","18.64","52","320","30","17","","","","","","","","","","","","","","","","","","","","","","","","","","","","","","","","","","","","","","","","","","","","","","","","","","","","","","","","","","","","","","","","","","","","","","","","","","","","","","","","","","","","","","","","","","","SYN092AAXX  15124 68558 32980 03215 10240 21001 38245 48554 58016 333 1//// 20170 9//// 555 91026;","","","","","","","","","",""
"68558099999","2005-09-15T20:00:00","-30.9333333","27.6","1819.0","BARKLY EAST, SF","FM-12","4","","41","63","","","-0.02","3","44","CLR:00","","24.35","18.64","51","320","31","7","","","","","","","","","","","","","","","","","","","","","","","","","","","","","","","","","","","","","","","","","","","","","","","","","","","","","","","","","","","","","","","","","","","","","","","","","","","","","","","","","","","","","","","","","","","SYN092AAXX  15184 68558 32980 03206 10175 20052 38247 48562 53007 333 10250 2//// 9//// 555 91027;","","","","","","","","","",""
"68558099999","2005-09-15T21:00:00","-30.9333333","27.6","1819.0","BARKLY EAST, SF","FM-12","4","","","","","","","","","CLR:00","","","18.64","","320","31","7","","","","","","","","","","","","","","","","","","","","","","","","","","","","","","","","","","","","","","","","","","","","","","","","","","","","","","","","","","","","","","","","","","","","","","","","","","","","","","","","","","","","","","","","","","","SYN090AAXX  15194 68558 32980 032061175 20052 382 48562 53007 7 333 10250 2//// 9//// 555 91027;","","","","","","","","","",""
"68558099999","2005-09-16T14:00:00","-30.9333333","27.6","1819.0","BARKLY EAST, SF","FM-12","4","","48","77","","","+0.05","8","36","CLR:00","","24.32","18.64","60","320","29","19","","","","","","","","","","","","","","","","","","","","","","","","","","","","","","","","","","","","","","","","","","","","","","","","","","","","","","","","","","","","","","","","","","","","","","","","","","","","","","","","","","","","","","","","","","","SYN092AAXX  16124 68558 32980 03217 10250 20087 38235 48542 58018 333 1//// 20050 9//// 555 91025;","","","","","","","","","",""
"68558099999","2005-09-17T14:00:00","-30.9333333","27.6","1819.0","BARKLY EAST, SF","FM-12","4","","26","79","","","+0.02","8","14","CLR:00","","24.31","18.64","52","320","29","15","","","","","","","","","","","","","","","","","","","","","","","","","","","","","","","","","","","","","","","","","","","","","","","","","","","","","","","","","","","","","","","","","","","","","","","","","","","","","","","","","","","","","","","","","","","SYN092AAXX  17124 68558 32980 03213 10260 21032 38234 48540 58007 333 1//// 20180 9//// 555 91025;","","","","","","","","","",""
"68558099999","2005-09-18T08:00:00","-30.9333333","27.6","1819.0","BARKLY EAST, SF","FM-12","4","","34","54","","","-0.05","3","48","CLR:00","","24.41","18.64","44","000","33","0","","","","","","","","","","","","","","","","","","","","","","","","","","","","","","","","","","","","","","","","","","","","","","","","","","","","","","","","","","","","","","","","","","","","","","","","","","","","","","","","","","","","","","","","","","","SYN092AAXX  18064 68558 32980 00000 10120 20011 38267 48586 53016 333 20090 9//// 555 10270 91029;","","","","","","","","","",""
"68558099999","2005-09-18T20:00:00","-30.9333333","27.6","1819.0","BARKLY EAST, SF","FM-12","4","","27","68","","","-0.05","3","21","CLR:00","","24.41","18.64","48","000","33","0","","","","","","","","","","","","","","","","","","","","","","","","","","","","","","","","","","","","","","","","","","","","","","","","","","","","","","","","","","","","","","","","","","","","","","","","","","","","","","","","","","","","","","","","","","","SYN092AAXX  18184 68558 32980 00000 10200 21028 38267 48580 53016 333 10270 2//// 9//// 555 91029;","","","","","","","","","",""
"68558099999","2005-09-19T14:00:00","-30.9333333","27.6","1819.0","BARKLY EAST, SF","FM-12","4","","24","78","","","+0.05","8","13","","","24.31","18.64","51","320","29","17","","","","","","","","","","","","","","","","","","","","","","","","","","","","","","","","","","","","","","","","","","","","","","","","","","","","","","","","","","","","","","","","","","","","","","","","","","","","","","","","","","","","","","","","","","","SYN098AAXX  19124 68558 32980 13215 10255 21046 38234 48541 58016 81100 333 1//// 20085 9//// 555 91025;","","","","","","","","","",""
"68558099999","2005-09-19T20:00:00","-30.9333333","27.6","1819.0","BARKLY EAST, SF","FM-12","4","","42","54","","","+0.00","8","64","","","","18.64","","320","41","7","","","","","","","","","","","","","","","","","","","","","","","","","","","","","","","","","","","","","","","","","","","","","","","","","","","","","","","","","","","","","","","","","","","","","","","","","","","","","","","","","","","","","","","","","","","SYN098AAXX  19184 68558 32980 53206 10125 20057 38323 48642 58001 83101 333 1//// 2//// 9//// 555 91036;","","","","","","","","","",""
"68558099999","2005-09-20T14:00:00","-30.9333333","27.6","1819.0","BARKLY EAST, SF","FM-12","4","","12","78","","","+0.05","8","8","","","24.18","18.64","48","320","23","17","","","","","","","","","","","","","","","","","","","","","","","","","","","","","","","","","","","","","","","","","","","","","","","","","","","","","","","","","","","","","","","","","","","","","","","","","","","","","","","","","","","","","","","","","","","SYN098AAXX  20124 68558 32980 33215 10255 21109 38189 48493 58018 81101 333 1//// 20090 9//// 555 91020;","","","","","","","","","",""
"68558099999","2005-09-20T20:00:00","-30.9333333","27.6","1819.0","BARKLY EAST, SF","FM-12","4","","16","69","","","+0.01","8","13","","","24.13","18.64","45","320","21","7","","","","","","","","","","","","","","","","","","","","","","","","","","","","","","","","","","","","","","","","","","","","","","","","","","","","","","","","","","","","","","","","","","","","","","","","","","","","","","","","","","","","","","","","","","","SYN098AAXX  20184 68558 32980 43206 10205 21087 38173 48482 58002 82101 333 10275 2//// 9//// 555 91018;","","","","","","","","","",""
"68558099999","2005-09-21T08:00:00","-30.9333333","27.6","1819.0","BARKLY EAST, SF","FM-12","4","","15","62","","","-0.01","3","16","","","24.12","18.64","42","050","19","7","","","","","","","","","","","","","","","","","","","","","","","","","","","","","","","","","","","","","","","","","","","","","","","","","","","","","","","","","","","","","","","","","","","","","","","","","","","","","","","","","","","","","","","","","","","SYN098AAXX  21064 68558 32980 30506 10165 21093 38167 48480 53003 81101 333 20150 9//// 555 10275 91017;","","","","","","","","","",""
"68558099999","2005-09-21T20:00:00","-30.9333333","27.6","1819.0","BARKLY EAST, SF","FM-12","4","","45","51","","","-0.06","3","82","","","24.19","18.64","48","180","23","13","","","","","","","","","","","","","","","","","","","","","","","","","","","","","","","","","","","","","","","","","","","","","","","","","","","","","","","","","","","","","","","","","","","","","","","","","","","","","","","","","","","","","","","","","","","SYN098AAXX  21184 68558 32980 11811 10105 20075 38191 48512 53020 81100 333 10260 2//// 9//// 555 91020;","","","","","","","","","",""
"68558099999","2005-09-22T08:00:00","-30.9333333","27.6","1819.0","BARKLY EAST, SF","FM-12","4","","41","45","","","-0.04","3","86","","","24.24","18.64","43","000","25","0","","","","","","","","","","","","","","","","","","","","","","","","","","","","","","","","","","","","","","","","","","","","","","","","","","","","","","","","","","","","","","","","","","","","","","","","","","","","","","","","","","","","","","","","","","","SYN098AAXX  22064 68558 32980 30000 10070 20048 38207 48531 53014 82101 333 20040 9//// 555 10260 91022;","","","","","","","","","",""
"68558099999","2005-09-22T14:00:00","-30.9333333","27.6","1819.0","BARKLY EAST, SF","FM-12","4","","26","71","","","+0.01","8","18","","","24.23","18.64","49","320","25","22","","","","","","","","","","","","","","","","","","","","","","","","","","","","","","","","","","","","","","","","","","","","","","","","","","","","","","","","","","","","","","","","","","","","","","","","","","","","","","","","","","","","","","","","","","","SYN098AAXX  22124 68558 32980 23219 10215 21036 38205 48514 58003 81101 333 1//// 20065 9//// 555 91022;","","","","","","","","","",""
"68558099999","2005-09-23T08:00:00","-30.9333333","27.6","1819.0","BARKLY EAST, SF","FM-12","4","","32","50","","","-0.02","3","50","","","24.29","18.64","41","000","28","0","","","","","","","","","","","","","","","","","","","","","","","","","","","","","","","","","","","","","","","","","","","","","","","","","","","","","","","","","","","","","","","","","","","","","","","","","","","","","","","","","","","","","","","","","","","SYN098AAXX  23064 68558 32980 60000 10100 21001 38226 48547 53008 84201 333 20055 9//// 555 10100 91024;","","","","","","","","","",""
"68558099999","2005-09-23T20:00:00","-30.9333333","27.6","1819.0","BARKLY EAST, SF","FM-12","4","","34","63","","","-0.03","3","33","","","24.19","12.43","48","180","23","13","","","","","","","","","","","","","","","","","","","","","","","","","","","","","","","","","","","","","","","","","","","","","","","","","","","","","","","","","","","","","","","","","","","","","","","","","","","","","","","","","","","","","","","","","","","SYN098AAXX  23184 68558 32770 81811 10175 20011 38192 48505 53009 84222 333 10255 2//// 9//// 555 91020;","","","","","","","","","",""
"68558099999","2005-09-24T08:00:00","-30.9333333","27.6","1819.0","BARKLY EAST, SF","FM-12","4","","27","63","","","-0.02","3","25","","","24.15","18.64","46","050","22","11","","","","","","","","","","","","","","","","","","","","","","","","","","","","","","","","","","","","","","","","","","","","","","","","","","","","","","","","","","","","","","","","","","","","","","","","","","","","","","","","","","","","","","","","","","","SYN098AAXX  24064 68558 32980 50510 10175 21026 38179 48492 53006 83101 333 20095 9//// 555 10255 91019;","","","","","","","","","",""
"68558099999","2005-09-24T14:00:00","-30.9333333","27.6","1819.0","BARKLY EAST, SF","FM-12","4","","","84","","","+0.08","8","","","","24.07","18.64","","320","","33","","","","","","","","","","","","","","","","","","","","","","","","","","","","","","","","","","","","","","","","","","","","","","","","","","","","","","","","","","","","","","","","","","","","","","","","","","","","","","","","","","","","","","","","","","","SYN098AAXX  24124 68558 32980 43229 10290 21204 38150 48448 58027 82101 333 1//// 20150 9//// 555 91015;","","","","","","","","","",""
"68558099999","2005-09-25T08:00:00","-30.9333333","27.6","1819.0","BARKLY EAST, SF","FM-12","4","","10","65","","","-0.05","3","11","","","24.06","18.64","42","320","17","13","","","","","","","","","","","","","","","","","","","","","","","","","","","","","","","","","","","","","","","","","","","","","","","","","","","","","","","","","","","","","","","","","","","","","","","","","","","","","","","","","","","","","","","","","","","SYN098AAXX  25064 68558 32980 33211 10185 21124 38148 48458 53018 81101 333 20130 9//// 555 10255 91015;","","","","","","","","","",""
"68558099999","2005-09-25T14:00:00","-30.9333333","27.6","1819.0","BARKLY EAST, SF","FM-12","4","","29","69","","","+0.02","8","22","","","24.04","18.64","49","320","","19","","","","","","","","","","","","","","","","","","","","","","","","","","","","","","","","","","","","","","","","","","","","","","","","","","","","","","","","","","","","","","","","","","","","","","","","","","","","","","","","","","","","","","","","","","","SYN098AAXX  25124 68558 32980 43217 10205 21017 38142 48450 58006 82101 333 1//// 20155 9//// 555 91014;","","","","","","","","","",""
"68558099999","2005-09-25T20:00:00","-30.9333333","27.6","1819.0","BARKLY EAST, SF","FM-12","4","","24","56","","","-0.04","3","29","","","24.10","18.64","41","320","18","7","","","","","","","","","","","","","","","","","","","","","","","","","","","","","","","","","","","","","","","","","","","","","","","","","","","","","","","","","","","","","","","","","","","","","","","","","","","","","","","","","","","","","","","","","","","SYN098AAXX  25184 68558 32980 33206 10135 21045 38161 48478 53013 82101 333 10215 2//// 9//// 555 91016;","","","","","","","","","",""
"68558099999","2005-09-26T08:00:00","-30.9333333","27.6","1819.0","BARKLY EAST, SF","FM-12","4","","29","46","","","+0.01","8","52","","","24.08","18.64","38","000","18","0","","","","","","","","","","","","","","","","","","","","","","","","","","","","","","","","","","","","","","","","","","","","","","","","","","","","","","","","","","","","","","","","","","","","","","","","","","","","","","","","","","","","","","","","","","","SYN098AAXX  26064 68558 32980 60000 10080 21014 38155 48478 58002 84101 333 20065 9//// 555 10215 91016;","","","","","","","","","",""
"68558099999","2005-09-26T14:00:00","-30.9333333","27.6","1819.0","BARKLY EAST, SF","FM-12","4","","25","65","","","+0.05","8","21","","","24.01","18.64","46","320","","17","","","","","","","","","","","","","","","","","","","","","","","","","","","","","","","","","","","","","","","","","","","","","","","","","","","","","","","","","","","","","","","","","","","","","","","","","","","","","","","","","","","","","","","","","","","SYN098AAXX  26124 68558 32980 83215 10185 21041 38131 48441 58016 83101 333 1//// 20080 9//// 555 91013;","","","","","","","","","",""
"68558099999","2005-09-26T20:00:00","-30.9333333","27.6","1819.0","BARKLY EAST, SF","FM-12","4","","31","56","","","-0.02","3","38","","","24.02","18.64","44","000","15","0","","","","","","","","","","","","","","","","","","","","","","","","","","","","","","","","","","","","","","","","","","","","","","","","","","","","","","","","","","","","","","","","","","","","","","","","","","","","","","","","","","","","","","","","","","","SYN098AAXX  26184 68558 32980 80000 10135 21008 38133 48449 53007 83101 333 10190 2//// 9//// 555 91013;","","","","","","","","","",""
"68558099999","2005-09-27T08:00:00","-30.9333333","27.6","1819.0","BARKLY EAST, SF","FM-12","4","","20","46","","","-0.02","3","34","","","24.08","18.64","35","050","18","5","","","","","","","","","","","","","","","","","","","","","","","","","","","","","","","","","","","","","","","","","","","","","","","","","","","","","","","","","","","","","","","","","","","","","","","","","","","","","","","","","","","","","","","","","","","SYN098AAXX  27064 68558 32980 10504 10080 21069 38155 48478 53008 81101 333 20065 9//// 555 10190 91016;","","","","","","","","","",""
"68558099999","2005-09-27T20:00:00","-30.9333333","27.6","1819.0","BARKLY EAST, SF","FM-12","4","","13","45","","","-0.07","3","27","","","24.21","18.64","33","320","24","5","","","","","","","","","","","","","","","","","","","","","","","","","","","","","","","","","","","","","","","","","","","","","","","","","","","","","","","","","","","","","","","","","","","","","","","","","","","","","","","","","","","","","","","","","","","SYN098AAXX  27184 68558 32980 23204 10075 21103 38199 48523 53023 82100 333 10150 2//// 9//// 555 91021;","","","","","","","","","",""
"68558099999","2005-09-28T08:00:00","-30.9333333","27.6","1819.0","BARKLY EAST, SF","FM-12","4","","30","36","","","-0.08","3","77","","","24.37","18.64","33","140","31","7","","","","","","","","","","","","","","","","","","","","","","","","","","","","","","","","","","","","","","","","","","","","","","","","","","","","","","","","","","","","","","","","","","","","","","","","","","","","","","","","","","","","","","","","","","","SYN098AAXX  28064 68558 32980 41406 10025 21012 38254 48582 53026 83201 333 20000 9//// 555 10150 91027;","","","","","","","","","",""
"68558099999","2005-09-28T20:00:00","-30.9333333","27.6","1819.0","BARKLY EAST, SF","FM-12","4","","26","42","","","-0.06","3","53","CLR:00","","24.44","18.64","35","140","34","7","","","","","","","","","","","","","","","","","","","","","","","","","","","","","","","","","","","","","","","","","","","","","","","","","","","","","","","","","","","","","","","","","","","","","","","","","","","","","","","","","","","","","","","","","","","SYN092AAXX  28184 68558 32980 01406 10055 21035 38276 48600 53022 333 10130 2//// 9//// 555 91030;","","","","","","","","","",""
"68558099999","2005-09-29T08:00:00","-30.9333333","27.6","1819.0","BARKLY EAST, SF","FM-12","4","","29","42","","","-0.03","3","60","CLR:00","","24.46","18.64","36","000","36","0","","","","","","","","","","","","","","","","","","","","","","","","","","","","","","","","","","","","","","","","","","","","","","","","","","","","","","","","","","","","","","","","","","","","","","","","","","","","","","","","","","","","","","","","","","","SYN092AAXX  29064 68558 32980 00000 10055 21018 38283 48607 53010 333 21005 9//// 555 10130 91031;","","","","","","","","","",""
"68558099999","2005-09-29T14:00:00","-30.9333333","27.6","1819.0","BARKLY EAST, SF","FM-12","4","","23","66","","","+0.04","8","19","CLR:00","","24.40","18.64","46","000","32","0","","","","","","","","","","","","","","","","","","","","","","","","","","","","","","","","","","","","","","","","","","","","","","","","","","","","","","","","","","","","","","","","","","","","","","","","","","","","","","","","","","","","","","","","","","","SYN092AAXX  29124 68558 32980 00000 10190 21050 38262 48576 58015 333 1//// 20055 9//// 555 91028;","","","","","","","","","",""
"68558099999","2005-09-29T20:00:00","-30.9333333","27.6","1819.0","BARKLY EAST, SF","FM-12","4","","26","48","","","-0.02","3","43","CLR:00","","24.38","18.64","38","000","32","0","","","","","","","","","","","","","","","","","","","","","","","","","","","","","","","","","","","","","","","","","","","","","","","","","","","","","","","","","","","","","","","","","","","","","","","","","","","","","","","","","","","","","","","","","","","SYN092AAXX  29184 68558 32980 00000 10090 21031 38257 48579 53007 333 10200 2//// 9//// 555 91028;","","","","","","","","","",""
"68558099999","2005-09-30T08:00:00","-30.9333333","27.6","1819.0","BARKLY EAST, SF","FM-12","4","","31","45","","","-0.01","3","57","","","24.34","18.64","39","000","30","0","","","","","","","","","","","","","","","","","","","","","","","","","","","","","","","","","","","","","","","","","","","","","","","","","","","","","","","","","","","","","","","","","","","","","","","","","","","","","","","","","","","","","","","","","","","SYN098AAXX  30064 68558 32980 10000 10075 21006 38241 48564 53003 81100 333 20005 9//// 555 10200 91026;","","","","","","","","","",""
"68558099999","2005-09-30T14:00:00","-30.9333333","27.6","1819.0","BARKLY EAST, SF","FM-12","4","","28","67","","","+0.07","8","23","","","24.24","18.64","48","320","25","7","","","","","","","","","","","","","","","","","","","","","","","","","","","","","","","","","","","","","","","","","","","","","","","","","","","","","","","","","","","","","","","","","","","","","","","","","","","","","","","","","","","","","","","","","","","SYN098AAXX  30124 68558 42980 53206 10195 21020 38208 48519 58024 83101 333 1//// 20070 9//// 555 91022;","","","","","","","","","",""
"68558099999","2005-10-01T08:00:00","-30.9333333","27.6","1819.0","BARKLY EAST, SF","FM-12","4","","31","51","","","-0.03","3","46","CLR:00","","24.24","18.64","42","000","25","0","","","","","","","","","","","","","","","","","","","","","","","","","","","","","","","","","","","","","","","","","","","","","","","","","","","","","","","","","","","","","","","","","","","","","","","","","","","","","","","","","","","","","","","","","","","SYN092AAXX  01064 68558 32980 00000 10105 21008 38207 48528 53009 333 20055 9//// 555 10215 91022;","","","","","","","","","",""
"68558099999","2005-10-01T14:00:00","-30.9333333","27.6","1819.0","BARKLY EAST, SF","FM-12","4","","22","74","","","+0.05","8","14","CLR:00","","24.16","18.64","49","320","22","17","","","","","","","","","","","","","","","","","","","","","","","","","","","","","","","","","","","","","","","","","","","","","","","","","","","","","","","","","","","","","","","","","","","","","","","","","","","","","","","","","","","","","","","","","","","SYN092AAXX  01124 68558 32980 03215 10235 21053 38181 48487 58018 333 1//// 20105 9//// 555 91019;","","","","","","","","","",""
"68558099999","2005-10-01T20:00:00","-30.9333333","27.6","1819.0","BARKLY EAST, SF","FM-12","4","","26","48","","","-0.02","3","43","CLR:00","","24.38","18.64","38","000","32","0","","","","","","","","","","","","","","","","","","","","","","","","","","","","","","","","","","","","","","","","","","","","","","","","","","","","","","","","","","","","","","","","","","","","","","","","","","","","","","","","","","","","","","","","","","","SYN092AAXX  01184 68558 32980 00000 10090 21031 38257 48579 53007 333 10235 2//// 9//// 555 91028;","","","","","","","","","",""
"68558099999","2005-10-02T08:00:00","-30.9333333","27.6","1819.0","BARKLY EAST, SF","FM-12","4","","18","61","","","-0.05","3","19","","","24.16","18.64","42","320","22","7","","","","","","","","","","","","","","","","","","","","","","","","","","","","","","","","","","","","","","","","","","","","","","","","","","","","","","","","","","","","","","","","","","","","","","","","","","","","","","","","","","","","","","","","","","","SYN098AAXX  02064 68558 32980 13206 10160 21075 38181 48495 53018 81100 333 20105 9//// 555 10235 91019;","","","","","","","","","",""
"68558099999","2005-10-02T20:00:00","-30.9333333","27.6","1819.0","BARKLY EAST, SF","FM-12","4","","26","54","","","-0.04","3","34","CLR:00","","24.21","18.64","41","000","24","0","","","","","","","","","","","","","","","","","","","","","","","","","","","","","","","","","","","","","","","","","","","","","","","","","","","","","","","","","","","","","","","","","","","","","","","","","","","","","","","","","","","","","","","","","","","SYN092AAXX  02184 68558 32980 00000 10120 21033 38200 48519 53013 333 10215 2//// 9//// 555 91021;","","","","","","","","","",""
"68558099999","2005-10-03T08:00:00","-30.9333333","27.6","1819.0","BARKLY EAST, SF","FM-12","4","","24","53","","","-0.03","3","33","CLR:00","","24.22","18.64","40","000","24","0","","","","","","","","","","","","","","","","","","","","","","","","","","","","","","","","","","","","","","","","","","","","","","","","","","","","","","","","","","","","","","","","","","","","","","","","","","","","","","","","","","","","","","","","","","","SYN092AAXX  03064 68558 32980 00000 10115 21045 38202 48522 53010 333 20015 9//// 555 10215 91021;","","","","","","","","","",""
"68558099999","2005-10-03T14:00:00","-30.9333333","27.6","1819.0","BARKLY EAST, SF","FM-12","4","","10","75","","","+0.03","8","8","CLR:00","","24.16","18.64","47","320","22","17","","","","","","","","","","","","","","","","","","","","","","","","","","","","","","","","","","","","","","","","","","","","","","","","","","","","","","","","","","","","","","","","","","","","","","","","","","","","","","","","","","","","","","","","","","","SYN092AAXX  03124 68558 32980 03215 10240 21121 38182 48487 58010 333 1//// 20115 9//// 555 91019;","","","","","","","","","",""
"68558099999","2005-10-03T20:00:00","-30.9333333","27.6","1819.0","BARKLY EAST, SF","FM-12","4","","13","64","","","-0.04","3","13","CLR:00","","24.18","18.64","42","000","22","0","","","","","","","","","","","","","","","","","","","","","","","","","","","","","","","","","","","","","","","","","","","","","","","","","","","","","","","","","","","","","","","","","","","","","","","","","","","","","","","","","","","","","","","","","","","SYN092AAXX  03184 68558 32980 00000 10180 21107 38187 48499 53014 333 10255 2//// 9//// 555 91019;","","","","","","","","","",""
"68558099999","2005-10-04T08:00:00","-30.9333333","27.6","1819.0","BARKLY EAST, SF","FM-12","4","","21","53","","","+0.02","8","28","","","24.13","18.64","39","000","19","0","","","","","","","","","","","","","","","","","","","","","","","","","","","","","","","","","","","","","","","","","","","","","","","","","","","","","","","","","","","","","","","","","","","","","","","","","","","","","","","","","","","","","","","","","","","SYN098AAXX  04064 68558 32980 60000 10115 21063 38170 48489 58006 83101 333 20055 9//// 555 10255 91017;","","","","","","","","","",""
"68558099999","2005-10-04T14:00:00","-30.9333333","27.6","1819.0","BARKLY EAST, SF","FM-12","4","","13","70","","","+0.05","8","11","","","24.09","18.64","45","320","18","17","","","","","","","","","","","","","","","","","","","","","","","","","","","","","","","","","","","","","","","","","","","","","","","","","","","","","","","","","","","","","","","","","","","","","","","","","","","","","","","","","","","","","","","","","","","SYN098AAXX  04124 68558 32980 83215 10210 21104 38159 48467 58016 84121 333 1//// 20115 9//// 555 91016;","","","","","","","","","",""
"68558099999","2005-10-04T20:00:00","-30.9333333","27.6","1819.0","BARKLY EAST, SF","FM-12","4","","31","60","","","-0.00","3","34","","","24.15","18.64","46","000","21","0","","","","","","","","","","","","","","","","","","","","","","","","","","","","","","","","","","","","","","","","","","","","","","","","","","","","","","","","","","","","","","","","","","","","","","","","","","","","","","","","","","","","","","","","","","","SYN098AAXX  04184 68558 32980 60000 10155 21005 38178 48493 53001 83222 333 10220 2//// 9//// 555 91018;","","","","","","","","","",""
"68558099999","2005-10-05T08:00:00","-30.9333333","27.6","1819.0","BARKLY EAST, SF","FM-12","4","","36","42","","","-0.08","3","79","","","24.27","12.43","39","180","26","13","","","","","","","","","","","","","","","","","","","","","","","","","","","","","","","","","","","","","","","","","","","","","","","","","","","","","","","","","","","","","","","","","","","","","","","","","","","","","","","","","","","","","","","","","","","SYN098AAXX  05064 68558 32770 71811 10055 20021 38219 48545 53027 84201 333 20045 9//// 555 10225 91023;","","","","","","","","","",""
"68558099999","2005-10-05T14:00:00","-30.9333333","27.6","1819.0","BARKLY EAST, SF","FM-12","4","","38","45","","","-0.00","3","74","","","24.33","12.43","42","140","30","17","","","","","","","","","","","","","","","","","","","","","","","","","","","","","","","","","","","","","","","","","","","","","","","","","","","","","","","","","","","","","","","","","","","","","","","","","","","","","","","","","","","","","","","","","","","SYN098AAXX  05124 68558 32770 81415 10075 20031 38239 48562 53001 84201 333 1//// 20050 9//// 555 91026;","","","","","","","","","",""
"68558099999","2005-10-05T20:00:00","-30.9333333","27.6","1819.0","BARKLY EAST, SF","FM-12","4","","32","41","","","-0.02","3","71","","","24.37","18.64","37","140","31","11","","","","","","","","","","","","","","","","","","","","","","","","","","","","","","","","","","","","","","","","","","","","","","","","","","","","","","","","","","","","","","","","","","","","","","","","","","","","","","","","","","","","","","","","","","","SYN098AAXX  05184 68558 32980 71410 10050 20001 38252 48577 53007 83101 333 10100 2//// 9//// 555 91027;","","","","","","","","","",""
"68558099999","2005-10-06T08:00:00","-30.9333333","27.6","1819.0","BARKLY EAST, SF","FM-12","4","","31","37","","","-0.02","3","76","","","24.38","18.64","34","180","32","11","","","","","","","","","","","","","","","","","","","","","","","","","","","","","","","","","","","","","","","","","","","","","","","","","","","","","","","","","","","","","","","","","","","","","","","","","","","","","","","","","","","","","","","","","","","SYN098AAXX  06064 68558 32980 41810 10030 21008 38255 48582 53007 82101 333 20005 9//// 555 10100 91028;","","","","","","","","","",""
"68558099999","2005-10-06T14:00:00","-30.9333333","27.6","1819.0","BARKLY EAST, SF","FM-12","4","","","53","","","+0.04","8","","","","24.36","12.43","","000","31","0","","","","","","","","","","","","","","","","","","","","","","","","","","","","","","","","","","","","","","","","","","","","","","","","","","","","","","","","","","","","","","","","","","","","","","","","","","","","","","","","","","","","","","","","","","","SYN098AAXX  06124 68558 32770 80000 10115 2//// 38248 48568 58014 83221 333 1//// 20030 9//// 555 91027;","","","","","","","","","",""
"68558099999","2005-10-08T14:00:00","-30.9333333","27.6","1819.0","BARKLY EAST, SF","FM-12","4","","","74","","","+0.05","8","","","","24.11","18.64","","320","","22","","","","","","","","","","","","","","","","","","","","","","","","","","","","","","","","","","","","","","","","","","","","","","","","","","","","","","","","","","","","","","","","","","","","","","","","","","","","","","","","","","","","","","","","","","","SYN098AAXX  08124 68558 32980 53219 10235 2//// 38165 48470 58017 82221 333 1//// 20085 9//// 555 91017;","","","","","","","","","",""
"68558099999","2005-10-09T14:00:00","-30.9333333","27.6","1819.0","BARKLY EAST, SF","FM-12","4","","","81","","","+0.04","8","","CLR:00","","24.22","18.64","","320","24","7","","","","","","","","","","","","","","","","","","","","","","","","","","","","","","","","","","","","","","","","","","","","","","","","","","","","","","","","","","","","","","","","","","","","","","","","","","","","","","","","","","","","","","","","","","","SYN092AAXX  09124 68558 32980 03206 10275 2//// 38203 48506 58013 333 1//// 20090 9//// 555 91021;","","","","","","","","","",""
"68558099999","2005-10-09T20:00:00","-30.9333333","27.6","1819.0","BARKLY EAST, SF","FM-12","4","","29","59","","","-0.02","3","32","CLR:00","","24.29","18.64","45","000","28","0","","","","","","","","","","","","","","","","","","","","","","","","","","","","","","","","","","","","","","","","","","","","","","","","","","","","","","","","","","","","","","","","","","","","","","","","","","","","","","","","","","","","","","","","","","","SYN092AAXX  09184 68558 32980 00000 10150 21018 38226 48542 53007 333 10235 2//// 9//// 555 91024;","","","","","","","","","",""
"68558099999","2005-10-10T08:00:00","-30.9333333","27.6","1819.0","BARKLY EAST, SF","FM-12","4","","27","58","","","-0.01","3","31","CLR:00","","24.31","18.64","43","000","29","0","","","","","","","","","","","","","","","","","","","","","","","","","","","","","","","","","","","","","","","","","","","","","","","","","","","","","","","","","","","","","","","","","","","","","","","","","","","","","","","","","","","","","","","","","","","SYN092AAXX  10064 68558 32980 00000 10145 21027 38232 48549 53004 333 20045 9//// 555 10245 91025;","","","","","","","","","",""
"68558099999","2005-10-10T14:00:00","-30.9333333","27.6","1819.0","BARKLY EAST, SF","FM-12","4","","40","81","","","+0.04","8","23","","","24.23","18.64","57","320","24","22","","","","","","","","","","","","","","","","","","","","","","","","","","","","","","","","","","","","","","","","","","","","","","","","","","","","","","","","","","","","","","","","","","","","","","","","","","","","","","","","","","","","","","","","","","","SYN098AAXX  10124 68558 32980 53219 10270 20044 38204 48508 58012 83101 333 1//// 20145 9//// 555 91021;","","","","","","","","","",""
"68558099999","2005-10-10T20:00:00","-30.9333333","27.6","1819.0","BARKLY EAST, SF","FM-12","4","","30","72","","","-0.03","3","20","","","24.24","18.64","50","320","25","11","","","","","","","","","","","","","","","","","","","","","","","","","","","","","","","","","","","","","","","","","","","","","","","","","","","","","","","","","","","","","","","","","","","","","","","","","","","","","","","","","","","","","","","","","","","SYN098AAXX  10184 68558 32980 13210 10225 21013 38208 48516 53010 81100 333 10280 2//// 9//// 555 91022;","","","","","","","","","",""
"68558099999","2005-10-11T08:00:00","-30.9333333","27.6","1819.0","BARKLY EAST, SF","FM-12","4","","42","67","","","-0.02","3","40","CLR:00","","24.24","18.64","53","050","25","11","","","","","","","","","","","","","","","","","","","","","","","","","","","","","","","","","","","","","","","","","","","","","","","","","","","","","","","","","","","","","","","","","","","","","","","","","","","","","","","","","","","","","","","","","","","SYN092AAXX  11064 68558 32980 00510 10195 20056 38208 48520 53008 333 20105 9//// 555 10285 91022;","","","","","","","","","",""
"68558099999","2005-10-11T14:00:00","-30.9333333","27.6","1819.0","BARKLY EAST, SF","FM-12","4","","40","82","","","+0.05","8","22","","","24.16","18.64","58","320","22","22","","","","","","","","","","","","","","","","","","","","","","","","","","","","","","","","","","","","","","","","","","","","","","","","","","","","","","","","","","","","","","","","","","","","","","","","","","","","","","","","","","","","","","","","","","","SYN098AAXX  11124 68558 32980 23219 10280 20046 38182 48483 58017 82200 333 1//// 20190 9//// 555 91019;","","","","","","","","","",""
"68558099999","2005-10-11T20:00:00","-30.9333333","27.6","1819.0","BARKLY EAST, SF","FM-12","4","","41","70","","||TS","-0.06","3","35","","","24.18","6.21","54","050","23","22","","","","","","","","","","","","","","","","","","","","","","","","","","","","","","","","","","","","","","","","","","","","","","","","","","","","","","","","","","","","","","","","","","","","","","","","","","","","","","","","","","","","","","","","","","","SYN104AAXX  11184 68558 31560 80519 10210 20051 38189 48498 53020 71792 8492/ 333 10300 2//// 9//// 555 91020;","","","","","","","","","",""
"68558099999","2005-10-12T08:00:00","-30.9333333","27.6","1819.0","BARKLY EAST, SF","FM-12","4","","42","65","","","0.00","4","42","","","24.16","12.43","52","050","22","5","","","","","","","","","","","","","","","","","","","","","","","","","","","","","","","","","","","","","","","","","","","","","","","","","","","","","","","","","","","","","","","","","","","","","","","","","","","","","","","","","","","","","","","","","","","SYN098AAXX  12064 68558 32770 40504 10185 20054 38183 48495 54000 83202 333 20070 9//// 555 10300 91019;","","","","","","","","","",""
"68558099999","2005-10-12T14:00:00","-30.9333333","27.6","1819.0","BARKLY EAST, SF","FM-12","4","","16","79","","","+0.03","8","9","","","24.13","18.64","50","320","","22","","","","","","","","","","","","","","","","","","","","","","","","","","","","","","","","","","","","","","","","","","","","","","","","","","","","","","","","","","","","","","","","","","","","","","","","","","","","","","","","","","","","","","","","","","","SYN098AAXX  12124 68558 32980 13219 10260 21091 38173 48476 58009 81200 333 1//// 20185 9//// 555 91018;","","","","","","","","","",""
"68558099999","2005-10-12T20:00:00","-30.9333333","27.6","1819.0","BARKLY EAST, SF","FM-12","4","","15","62","","","-0.07","3","16","CLR:00","","24.22","18.64","42","320","24","9","","","","","","","","","","","","","","","","","","","","","","","","","","","","","","","","","","","","","","","","","","","","","","","","","","","","","","","","","","","","","","","","","","","","","","","","","","","","","","","","","","","","","","","","","","","SYN092AAXX  12184 68558 32980 03208 10165 21093 38201 48515 53023 333 10275 2//// 9//// 555 91021;","","","","","","","","","",""
"68558099999","2005-10-13T08:00:00","-30.9333333","27.6","1819.0","BARKLY EAST, SF","FM-12","4","","27","45","","","-0.05","3","50","CLR:00","","24.34","18.64","37","000","30","0","","","","","","","","","","","","","","","","","","","","","","","","","","","","","","","","","","","","","","","","","","","","","","","","","","","","","","","","","","","","","","","","","","","","","","","","","","","","","","","","","","","","","","","","","","","SYN092AAXX  13064 68558 32980 00000 10070 21029 38244 48568 53018 333 20025 9//// 555 10275 91026;","","","","","","","","","",""
"68558099999","2005-10-13T14:00:00","-30.9333333","27.6","1819.0","BARKLY EAST, SF","FM-12","4","","30","68","","","+0.04","8","24","CLR:00","","24.30","18.64","49","000","29","0","","","","","","","","","","","","","","","","","","","","","","","","","","","","","","","","","","","","","","","","","","","","","","","","","","","","","","","","","","","","","","","","","","","","","","","","","","","","","","","","","","","","","","","","","","","SYN092AAXX  13124 68558 32980 00000 10200 21010 38230 48542 58012 333 1//// 20070 9//// 555 91025;","","","","","","","","","",""
"68558099999","2005-10-14T14:00:00","-30.9333333","27.6","1819.0","BARKLY EAST, SF","FM-12","4","","41","74","","","+0.05","8","30","","","24.32","18.64","55","320","29","13","","","","","","","","","","","","","","","","","","","","","","","","","","","","","","","","","","","","","","","","","","","","","","","","","","","","","","","","","","","","","","","","","","","","","","","","","","","","","","","","","","","","","","","","","","","SYN098AAXX  14124 68558 32980 43211 10235 20051 38236 48545 58016 82101 333 1//// 20080 9//// 555 91025;","","","","","","","","","",""
"68558099999","2005-10-14T20:00:00","-30.9333333","27.6","1819.0","BARKLY EAST, SF","FM-12","4","","48","59","","","-0.04","3","66","","","24.31","18.64","53","140","29","5","","","","","","","","","","","","","","","","","","","","","","","","","","","","","","","","","","","","","","","","","","","","","","","","","","","","","","","","","","","","","","","","","","","","","","","","","","","","","","","","","","","","","","","","","","","SYN098AAXX  14184 68558 32980 41404 10150 20087 38233 48550 53012 82101 333 10250 2//// 9//// 555 91025;","","","","","","","","","",""
"68558099999","2005-10-15T08:00:00","-30.9333333","27.6","1819.0","BARKLY EAST, SF","FM-12","4","","45","62","","","-0.04","3","54","","","24.38","18.64","53","000","32","0","","","","","","","","","","","","","","","","","","","","","","","","","","","","","","","","","","","","","","","","","","","","","","","","","","","","","","","","","","","","","","","","","","","","","","","","","","","","","","","","","","","","","","","","","","","SYN098AAXX  15064 68558 32980 50000 10165 20072 38255 48571 53013 82101 333 20095 9//// 555 10250 91028;","","","","","","","","","",""
"68558099999","2005-10-15T14:00:00","-30.9333333","27.6","1819.0","BARKLY EAST, SF","FM-12","4","","42","73","","","+0.05","8","32","","","24.33","18.64","55","320","30","11","","","","","","","","","","","","","","","","","","","","","","","","","","","","","","","","","","","","","","","","","","","","","","","","","","","","","","","","","","","","","","","","","","","","","","","","","","","","","","","","","","","","","","","","","","","SYN098AAXX  15124 68558 32980 63210 10230 20056 38238 48547 58018 82201 333 1//// 20065 9//// 555 91026;","","","","","","","","","",""
"68558099999","2005-10-16T20:00:00","-30.9333333","27.6","1819.0","BARKLY EAST, SF","FM-12","4","","49","54","","||DZ","-0.04","3","83","","","24.43","12.43","51","050","34","7","","","","","","","","","","","","","","","","","","","","","","","","","","","","","","","","","","","","","","","","","","","","","","","","","","","","","","","","","","","","","","","","","","","","","","","","","","","","","","","","","","","","","","","","","","","SYN104AAXX  16184 68558 31770 80506 10120 20092 38272 48592 53014 75052 83222 333 10260 2//// 9//// 555 91030;","","","","","","","","","",""
"68558099999","2005-10-17T14:00:00","-30.9333333","27.6","1819.0","BARKLY EAST, SF","FM-12","4","","46","72","","","+0.02","8","38","","","24.33","18.64","57","320","30","11","","","","","","","","","","","","","","","","","","","","","","","","","","","","","","","","","","","","","","","","","","","","","","","","","","","","","","","","","","","","","","","","","","","","","","","","","","","","","","","","","","","","","","","","","","","SYN098AAXX  17124 68558 32980 63210 10225 20076 38240 48550 58007 83201 333 1//// 20105 9//// 555 91026;","","","","","","","","","",""
"68558099999","2005-10-17T20:00:00","-30.9333333","27.6","1819.0","BARKLY EAST, SF","FM-12","4","","49","63","","","-0.02","3","60","","","24.33","12.43","55","000","30","0","","","","","","","","","","","","","","","","","","","","","","","","","","","","","","","","","","","","","","","","","","","","","","","","","","","","","","","","","","","","","","","","","","","","","","","","","","","","","","","","","","","","","","","","","","","SYN098AAXX  17184 68558 32770 80000 10175 20097 38238 48552 53008 83222 333 10235 2//// 9//// 555 91026;","","","","","","","","","",""
"68558099999","2005-10-18T08:00:00","-30.9333333","27.6","1819.0","BARKLY EAST, SF","FM-12","4","","52","57","","","-0.04","3","84","","","24.34","18.64","54","000","30","0","","","","","","","","","","","","","","","","","","","","","","","","","","","","","","","","","","","","","","","","","","","","","","","","","","","","","","","","","","","","","","","","","","","","","","","","","","","","","","","","","","","","","","","","","","","SYN098AAXX  18064 68558 32980 60000 10140 20113 38241 48559 53013 83101 333 20125 9//// 555 10235 91026;","","","","","","","","","",""
"68558099999","2005-10-18T14:00:00","-30.9333333","27.6","1819.0","BARKLY EAST, SF","FM-12","4","","54","61","","","+0.05","8","80","","","24.29","6.21","57","270","28","13","","","","","","","","","","","","","","","","","","","","","","","","","","","","","","","","","","","","","","","","","","","","","","","","","","","","","","","","","","","","","","","","","","","","","","","","","","","","","","","","","","","","","","","","","","","SYN098AAXX  18124 68558 32360 82711 10160 20125 38224 48540 58018 8562/ 333 1//// 20120 9//// 555 91024;","","","","","","","","","",""
"68558099999","2005-10-19T08:00:00","-30.9333333","27.6","1819.0","BARKLY EAST, SF","FM-12","4","","48","56","","","+0.02","8","74","","","24.23","18.64","52","000","24","0","","","","","","","","","","","","","","","","","","","","","","","","","","","","","","","","","","","","","","","","","","","","","","","","","","","","","","","","","","","","","","","","","","","","","","","","","","","","","","","","","","","","","","","","","","","SYN110AAXX  19064 68558 12980 70000 10135 20090 38204 48522 58006 60274 84101 333 20105 9//// 555 10215 20270 91021;","","","","","","","","","",""
"68558099999","2005-10-19T14:00:00","-30.9333333","27.6","1819.0","BARKLY EAST, SF","FM-12","4","","47","62","","","+0.02","8","59","","","24.19","12.43","53","320","23","13","","","","","","","","","","","","","","","","","","","","","","","","","","","","","","","","","","","","","","","","","","","","","","","","","","","","","","","","","","","","","","","","","","","","","","","","","","","","","","","","","","","","","","","","","","","SYN098AAXX  19124 68558 32770 83211 10165 20085 38193 48507 58007 83222 333 1//// 20130 9//// 555 91020;","","","","","","","","","",""
"68558099999","2005-10-19T20:00:00","-30.9333333","27.6","1819.0","BARKLY EAST, SF","FM-12","4","","51","59","","","-0.01","3","75","","","24.19","18.64","54","000","23","0","","","","","","","","","","","","","","","","","","","","","","","","","","","","","","","","","","","","","","","","","","","","","","","","","","","","","","","","","","","","","","","","","","","","","","","","","","","","","","","","","","","","","","","","","","","SYN098AAXX  19184 68558 32980 30000 10150 20106 38193 48509 53003 81101 333 10210 2//// 9//// 555 91020;","","","","","","","","","",""
"68558099999","2005-10-20T08:00:00","-30.9333333","27.6","1819.0","BARKLY EAST, SF","FM-12","4","","48","52","","","-0.01","3","88","","","24.18","18.64","50","000","22","0","","","","","","","","","","","","","","","","","","","","","","","","","","","","","","","","","","","","","","","","","","","","","","","","","","","","","","","","","","","","","","","","","","","","","","","","","","","","","","","","","","","","","","","","","","","SYN098AAXX  20064 68558 32980 30000 10110 20091 38187 48507 53005 82101 333 20085 9//// 555 10210 91019;","","","","","","","","","",""
"68558099999","2005-10-20T14:00:00","-30.9333333","27.6","1819.0","BARKLY EAST, SF","FM-12","4","","34","72","","","+0.03","8","25","","","24.08","18.64","52","320","","19","","","","","","","","","","","","","","","","","","","","","","","","","","","","","","","","","","","","","","","","","","","","","","","","","","","","","","","","","","","","","","","","","","","","","","","","","","","","","","","","","","","","","","","","","","","SYN098AAXX  20124 68558 32980 43217 10220 20012 38155 48462 58010 83101 333 1//// 20105 9//// 555 91016;","","","","","","","","","",""
"68558099999","2005-10-20T20:00:00","-30.9333333","27.6","1819.0","BARKLY EAST, SF","FM-12","4","","22","54","","","-0.07","3","29","CLR:00","","24.18","18.64","40","270","22","11","","","","","","","","","","","","","","","","","","","","","","","","","","","","","","","","","","","","","","","","","","","","","","","","","","","","","","","","","","","","","","","","","","","","","","","","","","","","","","","","","","","","","","","","","","","SYN092AAXX  20184 68558 32980 02710 10120 21054 38187 48506 53024 333 10225 2//// 9//// 555 91019;","","","","","","","","","",""
"68558099999","2005-10-21T08:00:00","-30.9333333","27.6","1819.0","BARKLY EAST, SF","FM-12","4","","21","43","","","-0.03","3","42","CLR:00","","24.26","18.64","34","000","26","0","","","","","","","","","","","","","","","","","","","","","","","","","","","","","","","","","","","","","","","","","","","","","","","","","","","","","","","","","","","","","","","","","","","","","","","","","","","","","","","","","","","","","","","","","","","SYN092AAXX  21064 68558 32980 00000 10060 21062 38214 48539 53011 333 20010 9//// 555 10225 91023;","","","","","","","","","",""
"68558099999","2005-10-21T20:00:00","-30.9333333","27.6","1819.0","BARKLY EAST, SF","FM-12","4","","7","55","","","-0.02","3","14","CLR:00","","24.26","18.64","37","140","26","7","","","","","","","","","","","","","","","","","","","","","","","","","","","","","","","","","","","","","","","","","","","","","","","","","","","","","","","","","","","","","","","","","","","","","","","","","","","","","","","","","","","","","","","","","","","SYN092AAXX  21184 68558 32980 01406 10130 21139 38216 48534 53008 333 10195 2//// 9//// 555 91023;","","","","","","","","","",""
"68558099999","2005-10-22T08:00:00","-30.9333333","27.6","1819.0","BARKLY EAST, SF","FM-12","4","","32","50","","","-0.03","3","50","CLR:00","","24.44","18.64","42","000","34","0","","","","","","","","","","","","","","","","","","","","","","","","","","","","","","","","","","","","","","","","","","","","","","","","","","","","","","","","","","","","","","","","","","","","","","","","","","","","","","","","","","","","","","","","","","","SYN092AAXX  22064 68558 32980 00000 10100 21001 38276 48597 53011 333 20030 9//// 555 10190 91030;","","","","","","","","","",""
"68558099999","2005-10-22T14:00:00","-30.9333333","27.6","1819.0","BARKLY EAST, SF","FM-12","4","","23","73","","","+0.03","8","15","CLR:00","","24.30","18.64","49","230","28","15","","","","","","","","","","","","","","","","","","","","","","","","","","","","","","","","","","","","","","","","","","","","","","","","","","","","","","","","","","","","","","","","","","","","","","","","","","","","","","","","","","","","","","","","","","","SYN092AAXX  22124 68558 32980 02313 10230 21048 38228 48537 58011 333 1//// 20095 9//// 555 91024;","","","","","","","","","",""
"68558099999","2005-10-22T20:00:00","-30.9333333","27.6","1819.0","BARKLY EAST, SF","FM-12","4","","29","63","","","-0.01","3","28","","","24.29","18.64","46","000","28","0","","","","","","","","","","","","","","","","","","","","","","","","","","","","","","","","","","","","","","","","","","","","","","","","","","","","","","","","","","","","","","","","","","","","","","","","","","","","","","","","","","","","","","","","","","","SYN098AAXX  22184 68558 32980 20000 10170 21015 38224 48538 53003 81101 333 10245 2//// 9//// 555 91024;","","","","","","","","","",""
"68558099999","2005-10-23T08:00:00","-30.9333333","27.6","1819.0","BARKLY EAST, SF","FM-12","4","","33","68","","","-0.03","3","27","CLR:00","","24.30","18.64","50","050","28","11","","","","","","","","","","","","","","","","","","","","","","","","","","","","","","","","","","","","","","","","","","","","","","","","","","","","","","","","","","","","","","","","","","","","","","","","","","","","","","","","","","","","","","","","","","","SYN092AAXX  23064 68558 32980 00510 10200 20006 38228 48540 53010 333 20120 9//// 555 10245 91024;","","","","","","","","","",""
"68558099999","2005-10-23T14:00:00","-30.9333333","27.6","1819.0","BARKLY EAST, SF","FM-12","4","","38","80","","","+0.03","8","22","","","24.26","18.64","56","320","26","15","","","","","","","","","","","","","","","","","","","","","","","","","","","","","","","","","","","","","","","","","","","","","","","","","","","","","","","","","","","","","","","","","","","","","","","","","","","","","","","","","","","","","","","","","","","SYN098AAXX  23124 68558 32980 23213 10265 20033 38215 48520 58011 82200 333 1//// 20200 9//// 555 91023;","","","","","","","","","",""
"68558099999","2005-10-23T20:00:00","-30.9333333","27.6","1819.0","BARKLY EAST, SF","FM-12","4","","35","68","","","-0.01","3","29","CLR:00","","24.22","18.64","51","000","24","0","","","","","","","","","","","","","","","","","","","","","","","","","","","","","","","","","","","","","","","","","","","","","","","","","","","","","","","","","","","","","","","","","","","","","","","","","","","","","","","","","","","","","","","","","","","SYN092AAXX  23184 68558 32980 00000 10200 20015 38202 48513 53004 333 10285 2//// 9//// 555 91021;","","","","","","","","","",""
"68558099999","2005-10-24T08:00:00","-30.9333333","27.6","1819.0","BARKLY EAST, SF","FM-12","4","","37","69","","","+0.00","8","31","","","24.17","18.64","52","000","22","0","","","","","","","","","","","","","","","","","","","","","","","","","","","","","","","","","","","","","","","","","","","","","","","","","","","","","","","","","","","","","","","","","","","","","","","","","","","","","","","","","","","","","","","","","","","SYN098AAXX  24064 68558 32980 20000 10205 20029 38186 48496 58001 82100 333 20110 9//// 555 10285 91019;","","","","","","","","","",""
"68558099999","2005-10-24T14:00:00","-30.9333333","27.6","1819.0","BARKLY EAST, SF","FM-12","4","","32","80","","","+0.06","8","17","","","24.11","18.64","54","320","","22","","","","","","","","","","","","","","","","","","","","","","","","","","","","","","","","","","","","","","","","","","","","","","","","","","","","","","","","","","","","","","","","","","","","","","","","","","","","","","","","","","","","","","","","","","","SYN098AAXX  24124 68558 32980 53219 10265 21002 38165 48467 58021 83201 333 1//// 20205 9//// 555 91017;","","","","","","","","","",""
"68558099999","2005-10-24T20:00:00","-30.9333333","27.6","1819.0","BARKLY EAST, SF","FM-12","4","","21","69","","","-0.04","3","16","","","24.13","18.64","47","320","21","17","","","","","","","","","","","","","","","","","","","","","","","","","","","","","","","","","","","","","","","","","","","","","","","","","","","","","","","","","","","","","","","","","","","","","","","","","","","","","","","","","","","","","","","","","","","SYN098AAXX  24184 68558 32980 23215 10205 21060 38171 48480 53013 81101 333 10280 2//// 9//// 555 91018;","","","","","","","","","",""
"68558099999","2005-10-25T08:00:00","-30.9333333","27.6","1819.0","BARKLY EAST, SF","FM-12","4","","37","49","","","-0.06","3","64","","","24.22","18.64","43","000","24","0","","","","","","","","","","","","","","","","","","","","","","","","","","","","","","","","","","","","","","","","","","","","","","","","","","","","","","","","","","","","","","","","","","","","","","","","","","","","","","","","","","","","","","","","","","","SYN098AAXX  25064 68558 32980 10000 10095 20030 38202 48524 53019 81100 333 20070 9//// 555 10280 91021;","","","","","","","","","",""
"68558099999","2005-10-25T14:00:00","-30.9333333","27.6","1819.0","BARKLY EAST, SF","FM-12","4","","17","64","","","+0.00","8","16","CLR:00","","24.23","18.64","43","320","25","11","","","","","","","","","","","","","","","","","","","","","","","","","","","","","","","","","","","","","","","","","","","","","","","","","","","","","","","","","","","","","","","","","","","","","","","","","","","","","","","","","","","","","","","","","","","SYN092AAXX  25124 68558 32980 03210 10180 21081 38205 48518 58001 333 1//// 20090 9//// 555 91022;","","","","","","","","","",""
"68558099999","2005-10-25T15:00:00","-30.9333333","27.6","1819.0","BARKLY EAST, SF","FM-12","4","","17","64","","","+0.00","8","16","CLR:00","","24.23","18.64","43","320","25","11","","","","","","","","","","","","","","","","","","","","","","","","","","","","","","","","","","","","","","","","","","","","","","","","","","","","","","","","","","","","","","","","","","","","","","","","","","","","","","","","","","","","","","","","","","","SYN092AAXX  25134 68558 32980 03210 10180 21081 38205 48518 58001 333 1//// 20090 9//// 555 91022;","","","","","","","","","",""
"68558099999","2005-10-25T20:00:00","-30.9333333","27.6","1819.0","BARKLY EAST, SF","FM-12","4","","18","54","","","-0.05","3","24","CLR:00","","24.28","18.64","39","140","28","15","","","","","","","","","","","","","","","","","","","","","","","","","","","","","","","","","","","","","","","","","","","","","","","","","","","","","","","","","","","","","","","","","","","","","","","","","","","","","","","","","","","","","","","","","","","SYN092AAXX  25184 68558 32980 01413 10120 21079 38222 48541 53017 333 10200 2//// 9//// 555 91024;","","","","","","","","","",""
"68558099999","2005-10-26T08:00:00","-30.9333333","27.6","1819.0","BARKLY EAST, SF","FM-12","4","","34","40","","","-0.03","3","78","","","24.39","18.64","37","180","32","11","","","","","","","","","","","","","","","","","","","","","","","","","","","","","","","","","","","","","","","","","","","","","","","","","","","","","","","","","","","","","","","","","","","","","","","","","","","","","","","","","","","","","","","","","","","SYN098AAXX  26064 68558 32980 11810 10045 20010 38260 48586 53010 81100 333 20010 9//// 555 10200 91028;","","","","","","","","","",""
"68558099999","2005-10-26T14:00:00","-30.9333333","27.6","1819.0","BARKLY EAST, SF","FM-12","4","","29","71","","","+0.04","8","21","CLR:00","","24.32","18.64","50","320","29","17","","","","","","","","","","","","","","","","","","","","","","","","","","","","","","","","","","","","","","","","","","","","","","","","","","","","","","","","","","","","","","","","","","","","","","","","","","","","","","","","","","","","","","","","","","","SYN092AAXX  26124 68558 32980 03215 10215 21015 38236 48546 58012 333 1//// 20045 9//// 555 91025;","","","","","","","","","",""
"68558099999","2005-10-26T20:00:00","-30.9333333","27.6","1819.0","BARKLY EAST, SF","FM-12","4","","33","62","","","-0.01","3","34","CLR:00","","24.31","18.64","47","000","29","0","","","","","","","","","","","","","","","","","","","","","","","","","","","","","","","","","","","","","","","","","","","","","","","","","","","","","","","","","","","","","","","","","","","","","","","","","","","","","","","","","","","","","","","","","","","SYN092AAXX  26184 68558 32980 00000 10165 20007 38232 48547 53005 333 10225 2//// 9//// 555 91025;","","","","","","","","","",""
"68558099999","2005-10-27T08:00:00","-30.9333333","27.6","1819.0","BARKLY EAST, SF","FM-12","4","","48","63","","","-0.04","3","59","","","24.34","18.64","54","050","30","15","","","","","","","","","","","","","","","","","","","","","","","","","","","","","","","","","","","","","","","","","","","","","","","","","","","","","","","","","","","","","","","","","","","","","","","","","","","","","","","","","","","","","","","","","","","SYN098AAXX  27064 68558 32980 10513 10170 20090 38243 48558 53012 81100 333 20090 9//// 555 10225 91026;","","","","","","","","","",""
"68558099999","2005-10-27T14:00:00","-30.9333333","27.6","1819.0","BARKLY EAST, SF","FM-12","4","","39","77","","","+0.05","8","25","","","24.26","18.64","56","320","26","19","","","","","","","","","","","","","","","","","","","","","","","","","","","","","","","","","","","","","","","","","","","","","","","","","","","","","","","","","","","","","","","","","","","","","","","","","","","","","","","","","","","","","","","","","","","SYN098AAXX  27124 68558 32980 33217 10250 20038 38217 48523 58018 82120 333 1//// 20090 9//// 555 91023;","","","","","","","","","",""
"68558099999","2005-10-28T14:00:00","-30.9333333","27.6","1819.0","BARKLY EAST, SF","FM-12","4","","50","65","","","+0.02","8","57","","","24.35","18.64","56","000","30","0","","","","","","","","","","","","","","","","","","","","","","","","","","","","","","","","","","","","","","","","","","","","","","","","","","","","","","","","","","","","","","","","","","","","","","","","","","","","","","","","","","","","","","","","","","","SYN098AAXX  28124 68558 32980 70000 10185 20099 38245 48559 58007 83222 333 1//// 20090 9//// 555 91026;","","","","","","","","","",""
"68558099999","2005-10-29T08:00:00","-30.9333333","27.6","1819.0","BARKLY EAST, SF","FM-12","4","","48","52","","","-0.04","3","88","","","24.42","18.64","50","000","33","0","","","","","","","","","","","","","","","","","","","","","","","","","","","","","","","","","","","","","","","","","","","","","","","","","","","","","","","","","","","","","","","","","","","","","","","","","","","","","","","","","","","","","","","","","","","SYN110AAXX  29064 68558 12980 70000 10110 20091 38271 48591 53013 60214 82101 333 20075 9//// 555 10265 20210 91029;","","","","","","","","","",""
"68558099999","2005-10-29T14:00:00","-30.9333333","27.6","1819.0","BARKLY EAST, SF","FM-12","4","","52","57","","","+0.02","8","84","","","24.39","6.21","54","320","32","5","","","","","","","","","","","","","","","","","","","","","","","","","","","","","","","","","","","","","","","","","","","","","","","","","","","","","","","","","","","","","","","","","","","","","","","","","","","","","","","","","","","","","","","","","","","SYN098AAXX  29124 68558 32960 83204 10140 20113 38261 48579 58006 84121 333 1//// 20110 9//// 555 91028;","","","","","","","","","",""
"68558099999","2005-10-29T20:00:00","-30.9333333","27.6","1819.0","BARKLY EAST, SF","FM-12","4","","48","53","","","+0.01","8","83","","","24.39","18.64","50","000","32","0","","","","","","","","","","","","","","","","","","","","","","","","","","","","","","","","","","","","","","","","","","","","","","","","","","","","","","","","","","","","","","","","","","","","","","","","","","","","","","","","","","","","","","","","","","","SYN098AAXX  29184 68558 32980 30000 10115 20087 38258 48578 58005 83101 333 10165 2//// 9//// 555 91028;","","","","","","","","","",""
"68558099999","2005-10-30T08:00:00","-30.9333333","27.6","1819.0","BARKLY EAST, SF","FM-12","4","","51","56","","","-0.01","3","84","","","24.37","18.64","53","000","31","0","","","","","","","","","","","","","","","","","","","","","","","","","","","","","","","","","","","","","","","","","","","","","","","","","","","","","","","","","","","","","","","","","","","","","","","","","","","","","","","","","","","","","","","","","","","SYN110AAXX  30064 68558 12980 80000 10135 20108 38253 48571 53005 60034 82102 333 20085 9//// 555 10165 20030 91027;","","","","","","","","","",""
"68558099999","2005-10-30T20:00:00","-30.9333333","27.6","1819.0","BARKLY EAST, SF","FM-12","4","","48","63","","","-0.04","3","56","","","24.32","12.43","54","080","29","7","","","","","","","","","","","","","","","","","","","","","","","","","","","","","","","","","","","","","","","","","","","","","","","","","","","","","","","","","","","","","","","","","","","","","","","","","","","","","","","","","","","","","","","","","","","SYN098AAXX  30184 68558 32770 50806 10175 20087 38235 48549 53013 82311 333 10245 2//// 9//// 555 91025;","","","","","","","","","",""
"68558099999","2005-10-31T20:00:00","-30.9333333","27.6","1819.0","BARKLY EAST, SF","FM-12","4","","49","66","","","-0.00","3","55","","","24.28","18.64","56","000","28","0","","","","","","","","","","","","","","","","","","","","","","","","","","","","","","","","","","","","","","","","","","","","","","","","","","","","","","","","","","","","","","","","","","","","","","","","","","","","","","","","","","","","","","","","","","","SYN098AAXX  31184 68558 32980 20000 10190 20096 38223 48536 53001 81101 333 10240 2//// 9//// 555 91024;","","","","","","","","","",""
"68558099999","2005-11-01T08:00:00","-30.9333333","27.6","1819.0","BARKLY EAST, SF","FM-12","4","","48","67","","","-0.02","3","51","","","24.29","18.64","56","050","28","5","","","","","","","","","","","","","","","","","","","","","","","","","","","","","","","","","","","","","","","","","","","","","","","","","","","","","","","","","","","","","","","","","","","","","","","","","","","","","","","","","","","","","","","","","","","SYN098AAXX  01064 68558 32980 40504 10195 20089 38224 48536 53007 82101 333 20125 9//// 555 10240 91024;","","","","","","","","","",""
"68558099999","2005-11-01T14:00:00","-30.9333333","27.6","1819.0","BARKLY EAST, SF","FM-12","4","","45","75","","","+0.04","8","35","","","24.24","18.64","57","320","25","7","","","","","","","","","","","","","","","","","","","","","","","","","","","","","","","","","","","","","","","","","","","","","","","","","","","","","","","","","","","","","","","","","","","","","","","","","","","","","","","","","","","","","","","","","","","SYN098AAXX  01124 68558 32980 73206 10240 20074 38210 48517 58013 83221 333 1//// 20195 9//// 555 91022;","","","","","","","","","",""
"68558099999","2005-11-01T20:00:00","-30.9333333","27.6","1819.0","BARKLY EAST, SF","FM-12","4","","40","72","","","+0.00","8","31","","","24.21","12.43","54","320","24","7","","","","","","","","","","","","","","","","","","","","","","","","","","","","","","","","","","","","","","","","","","","","","","","","","","","","","","","","","","","","","","","","","","","","","","","","","","","","","","","","","","","","","","","","","","","SYN098AAXX  01184 68558 32770 83206 10220 20042 38198 48506 58001 84222 333 10265 2//// 9//// 555 91021;","","","","","","","","","",""
"68558099999","2005-11-02T08:00:00","-30.9333333","27.6","1819.0","BARKLY EAST, SF","FM-12","4","","32","71","","","-0.01","3","24","","","24.14","18.64","51","320","21","17","","","","","","","","","","","","","","","","","","","","","","","","","","","","","","","","","","","","","","","","","","","","","","","","","","","","","","","","","","","","","","","","","","","","","","","","","","","","","","","","","","","","","","","","","","","SYN098AAXX  02064 68558 32980 23215 10215 20002 38176 48484 53003 82100 333 20120 9//// 555 10265 91018;","","","","","","","","","",""
"68558099999","2005-11-02T14:00:00","-30.9333333","27.6","1819.0","BARKLY EAST, SF","FM-12","4","","31","81","","","+0.04","8","16","","","24.08","18.64","54","320","","33","","","","","","","","","","","","","","","","","","","","","","","","","","","","","","","","","","","","","","","","","","","","","","","","","","","","","","","","","","","","","","","","","","","","","","","","","","","","","","","","","","","","","","","","","","","SYN098AAXX  02124 68558 32980 43229 10270 21006 38153 48453 58012 81101 333 1//// 20110 9//// 555 91015;","","","","","","","","","",""
"68558099999","2005-11-02T20:00:00","-30.9333333","27.6","1819.0","BARKLY EAST, SF","FM-12","4","","32","73","","","-0.04","3","21","","","24.10","18.64","52","320","18","11","","","","","","","","","","","","","","","","","","","","","","","","","","","","","","","","","","","","","","","","","","","","","","","","","","","","","","","","","","","","","","","","","","","","","","","","","","","","","","","","","","","","","","","","","","","SYN098AAXX  02184 68558 32980 43210 10230 21002 38162 48468 53013 82101 333 10285 2//// 9//// 555 91016;","","","","","","","","","",""
"68558099999","2005-11-03T08:00:00","-30.9333333","27.6","1819.0","BARKLY EAST, SF","FM-12","4","","33","68","","","-0.02","3","27","","","24.10","18.64","50","320","18","5","","","","","","","","","","","","","","","","","","","","","","","","","","","","","","","","","","","","","","","","","","","","","","","","","","","","","","","","","","","","","","","","","","","","","","","","","","","","","","","","","","","","","","","","","","","SYN098AAXX  03064 68558 32980 23204 10200 20006 38161 48470 53007 82200 333 20165 9//// 555 10285 91016;","","","","","","","","","",""
"68558099999","2005-11-03T20:00:00","-30.9333333","27.6","1819.0","BARKLY EAST, SF","FM-12","4","","37","63","","","-0.05","3","39","","","24.12","12.43","49","320","19","5","","","","","","","","","","","","","","","","","","","","","","","","","","","","","","","","","","","","","","","","","","","","","","","","","","","","","","","","","","","","","","","","","","","","","","","","","","","","","","","","","","","","","","","","","","","SYN098AAXX  03184 68558 32970 73204 10170 20030 38169 48482 53016 83222 333 10225 2//// 9//// 555 91017;","","","","","","","","","",""
"68558099999","2005-11-04T14:00:00","-30.9333333","27.6","1819.0","BARKLY EAST, SF","FM-12","4","","45","52","","","+0.01","8","77","","","24.16","12.43","48","140","22","11","","","","","","","","","","","","","","","","","","","","","","","","","","","","","","","","","","","","","","","","","","","","","","","","","","","","","","","","","","","","","","","","","","","","","","","","","","","","","","","","","","","","","","","","","","","SYN098AAXX  04124 68558 32970 81410 10110 20071 38180 48500 58002 8422/ 333 1//// 20075 9//// 555 91019;","","","","","","","","","",""
"68558099999","2005-11-04T20:00:00","-30.9333333","27.6","1819.0","BARKLY EAST, SF","FM-12","4","","42","47","","","-0.04","3","81","","","24.17","18.64","44","140","22","7","","","","","","","","","","","","","","","","","","","","","","","","","","","","","","","","","","","","","","","","","","","","","","","","","","","","","","","","","","","","","","","","","","","","","","","","","","","","","","","","","","","","","","","","","","","SYN098AAXX  04184 68558 32980 31406 10085 20054 38184 48507 53013 82101 333 10225 2//// 9//// 555 91019;","","","","","","","","","",""
"68558099999","2005-11-04T21:00:00","-30.9333333","27.6","1819.0","BARKLY EAST, SF","FM-12","4","","","","","","","","","","","","18.64","","140","","13","","","","","","","","","","","","","","","","","","","","","","","","","","","","","","","","","","","","","","","","","","","","","","","","","","","","","","","","","","","","","","","","","","","","","","","","","","","","","","","","","","","","","","","","","","","SYN099AAXX  0419/ 68558 32980 31406 1 10225 2//// AIU BAWWI EEE LAIS N OBXM QAIPPCUQU UGUAUUF 555 91019/;","","","","","","","","","",""
"68558099999","2005-11-06T20:00:00","-30.9333333","27.6","1819.0","BARKLY EAST, SF","FM-12","4","","41","46","","","-0.07","3","81","","","24.14","12.43","43","050","21","7","","","","","","","","","","","","","","","","","","","","","","","","","","","","","","","","","","","","","","","","","","","","","","","","","","","","","","","","","","","","","","","","","","","","","","","","","","","","","","","","","","","","","","","","","","","SYN098AAXX  06184 68558 32770 70506 10080 20049 38176 48499 53023 83222 333 10170 2//// 9//// 555 91018;","","","","","","","","","",""
"68558099999","2005-11-10T14:00:00","-30.9333333","27.6","1819.0","BARKLY EAST, SF","FM-12","4","","44","74","","","+0.06","8","34","","","24.26","12.43","57","320","26","5","","","","","","","","","","","","","","","","","","","","","","","","","","","","","","","","","","","","","","","","","","","","","","","","","","","","","","","","","","","","","","","","","","","","","","","","","","","","","","","","","","","","","","","","","","","SYN098AAXX  10124 68558 32970 73204 10235 20065 38215 48523 58022 83222 333 1//// 20100 9//// 555 91023;","","","","","","","","","",""
"68558099999","2005-11-10T20:00:00","-30.9333333","27.6","1819.0","BARKLY EAST, SF","FM-12","4","","52","57","","","-0.05","3","84","","","24.34","12.43","54","000","30","0","","","","","","","","","","","","","","","","","","","","","","","","","","","","","","","","","","","","","","","","","","","","","","","","","","","","","","","","","","","","","","","","","","","","","","","","","","","","","","","","","","","","","","","","","","","SYN098AAXX  10184 68558 32970 80000 10140 20113 38244 48562 53017 84222 333 10240 2//// 9//// 555 91026;","","","","","","","","","",""
"68558099999","2005-11-11T08:00:00","-30.9333333","27.6","1819.0","BARKLY EAST, SF","FM-12","4","","49","62","","","-0.01","3","64","","","24.29","","55","000","28","0","","","","","","","","","","","","","","","","","","","","","","","","","","","","","","","","","","","","","","","","","","","","","","","","","","","","","","","","","","","","","","","","","","","","","","","","","","","","","","","","","","","","","","","","","","","SYN104AAXX  11064 68558 16/// /0000 10165 20095 38225 48540 53002 60024 333 20010 9//// 555 10240 20020 91024;","","","","","","","","","",""
"68558099999","2005-11-11T14:00:00","-30.9333333","27.6","1819.0","BARKLY EAST, SF","FM-12","4","","51","71","","","+0.02","8","49","","","24.26","12.43","59","320","26","7","","","","","","","","","","","","","","","","","","","","","","","","","","","","","","","","","","","","","","","","","","","","","","","","","","","","","","","","","","","","","","","","","","","","","","","","","","","","","","","","","","","","","","","","","","","SYN098AAXX  11124 68558 32770 73206 10215 20104 38214 48524 58008 82221 333 1//// 20165 9//// 555 91023;","","","","","","","","","",""
"68558099999","2005-11-11T20:00:00","-30.9333333","27.6","1819.0","BARKLY EAST, SF","FM-12","4","","51","61","","","-0.02","3","71","","","24.23","18.64","55","000","24","0","","","","","","","","","","","","","","","","","","","","","","","","","","","","","","","","","","","","","","","","","","","","","","","","","","","","","","","","","","","","","","","","","","","","","","","","","","","","","","","","","","","","","","","","","","","SYN098AAXX  11184 68558 32980 50000 10160 20108 38204 48519 53006 83101 333 10225 2//// 9//// 555 91021;","","","","","","","","","",""
"68558099999","2005-11-12T08:00:00","-30.9333333","27.6","1819.0","BARKLY EAST, SF","FM-12","4","","52","57","","","-0.01","3","84","","","24.26","12.43","54","000","26","0","","","","","","","","","","","","","","","","","","","","","","","","","","","","","","","","","","","","","","","","","","","","","","","","","","","","","","","","","","","","","","","","","","","","","","","","","","","","","","","","","","","","","","","","","","","SYN110AAXX  12064 68558 12770 80000 10140 20113 38214 48531 53005 60064 83222 333 20125 9//// 555 10225 20055 91023;","","","","","","","","","",""
"68558099999","2005-11-12T14:00:00","-30.9333333","27.6","1819.0","BARKLY EAST, SF","FM-12","4","","47","68","","","+0.03","8","47","","","24.21","12.43","56","000","24","0","","","","","","","","","","","","","","","","","","","","","","","","","","","","","","","","","","","","","","","","","","","","","","","","","","","","","","","","","","","","","","","","","","","","","","","","","","","","","","","","","","","","","","","","","","","SYN098AAXX  12124 68558 32770 80000 10200 20084 38197 48508 58011 83222 333 1//// 20145 9//// 555 91021;","","","","","","","","","",""
"68558099999","2005-11-13T08:00:00","-30.9333333","27.6","1819.0","BARKLY EAST, SF","FM-12","4","","50","61","","","-0.02","3","67","","","24.11","18.64","55","000","19","0","","","","","","","","","","","","","","","","","","","","","","","","","","","","","","","","","","","","","","","","","","","","","","","","","","","","","","","","","","","","","","","","","","","","","","","","","","","","","","","","","","","","","","","","","","","SYN110AAXX  13064 68558 12980 40000 10160 20099 38163 48477 53006 60204 83101 333 20115 9//// 555 10220 20200 91017;","","","","","","","","","",""
"68558099999","2005-11-13T14:00:00","-30.9333333","27.6","1819.0","BARKLY EAST, SF","FM-12","4","","51","59","","","+0.05","8","75","","","24.06","12.43","54","320","","22","","","","","","","","","","","","","","","","","","","","","","","","","","","","","","","","","","","","","","","","","","","","","","","","","","","","","","","","","","","","","","","","","","","","","","","","","","","","","","","","","","","","","","","","","","","SYN098AAXX  13124 68558 32770 83219 10150 20106 38148 48463 58018 83322 333 1//// 20145 9//// 555 91015;","","","","","","","","","",""
"68558099999","2005-11-13T20:00:00","-30.9333333","27.6","1819.0","BARKLY EAST, SF","FM-12","4","","34","54","","","-0.07","3","48","","","24.12","18.64","44","320","19","7","","","","","","","","","","","","","","","","","","","","","","","","","","","","","","","","","","","","","","","","","","","","","","","","","","","","","","","","","","","","","","","","","","","","","","","","","","","","","","","","","","","","","","","","","","","SYN098AAXX  13184 68558 32980 33206 10120 20013 38167 48486 53024 81101 333 10200 2//// 9//// 555 91017;","","","","","","","","","",""
"68558099999","2005-11-14T14:00:00","-30.9333333","27.6","1819.0","BARKLY EAST, SF","FM-12","4","","49","63","","","+0.02","8","62","","","24.23","18.64","55","000","25","0","","","","","","","","","","","","","","","","","","","","","","","","","","","","","","","","","","","","","","","","","","","","","","","","","","","","","","","","","","","","","","","","","","","","","","","","","","","","","","","","","","","","","","","","","","","SYN098AAXX  14124 68558 32980 20000 10170 20097 38206 48520 58007 82200 333 1//// 20070 9//// 555 91022;","","","","","","","","","",""
"68558099999","2005-11-14T20:00:00","-30.9333333","27.6","1819.0","BARKLY EAST, SF","FM-12","4","","48","56","","","-0.03","3","74","CLR:00","","24.25","18.64","52","000","25","0","","","","","","","","","","","","","","","","","","","","","","","","","","","","","","","","","","","","","","","","","","","","","","","","","","","","","","","","","","","","","","","","","","","","","","","","","","","","","","","","","","","","","","","","","","","SYN092AAXX  14184 68558 32980 00000 10135 20090 38211 48529 53011 333 10200 2//// 9//// 555 91022;","","","","","","","","","",""
"68558099999","2005-11-15T08:00:00","-30.9333333","27.6","1819.0","BARKLY EAST, SF","FM-12","4","","49","55","","","-0.01","3","78","CLR:00","","24.19","18.64","52","000","23","0","","","","","","","","","","","","","","","","","","","","","","","","","","","","","","","","","","","","","","","","","","","","","","","","","","","","","","","","","","","","","","","","","","","","","","","","","","","","","","","","","","","","","","","","","","","SYN092AAXX  15064 68558 32780 00000 10130 20092 38191 48509 53003 333 20075 9//// 555 10200 91020;","","","","","","","","","",""
"68558099999","2005-11-15T14:00:00","-30.9333333","27.6","1819.0","BARKLY EAST, SF","FM-12","4","","40","75","","","+0.08","8","29","","","24.08","18.64","55","320","18","15","","","","","","","","","","","","","","","","","","","","","","","","","","","","","","","","","","","","","","","","","","","","","","","","","","","","","","","","","","","","","","","","","","","","","","","","","","","","","","","","","","","","","","","","","","","SYN098AAXX  15124 68558 32980 43213 10240 20046 38155 48459 58026 83201 333 1//// 20130 9//// 555 91016;","","","","","","","","","",""
"68558099999","2005-11-15T20:00:00","-30.9333333","27.6","1819.0","BARKLY EAST, SF","FM-12","4","","31","72","","","-0.01","3","23","","","24.03","18.64","51","320","15","15","","","","","","","","","","","","","","","","","","","","","","","","","","","","","","","","","","","","","","","","","","","","","","","","","","","","","","","","","","","","","","","","","","","","","","","","","","","","","","","","","","","","","","","","","","","SYN098AAXX  15184 68558 32980 53213 10220 21004 38137 48443 53003 83101 333 10255 2//// 9//// 555 91013;","","","","","","","","","",""
"68558099999","2005-11-16T08:00:00","-30.9333333","27.6","1819.0","BARKLY EAST, SF","FM-12","4","","47","55","","","-0.04","3","73","","","24.08","18.64","51","140","17","11","","","","","","","","","","","","","","","","","","","","","","","","","","","","","","","","","","","","","","","","","","","","","","","","","","","","","","","","","","","","","","","","","","","","","","","","","","","","","","","","","","","","","","","","","","","SYN098AAXX  16064 68558 32980 41410 10130 20083 38153 48471 53015 84200 333 20110 9//// 555 10255 91015;","","","","","","","","","",""
"68558099999","2005-11-16T14:00:00","-30.9333333","27.6","1819.0","BARKLY EAST, SF","FM-12","4","","45","62","","","-0.01","3","54","","","24.09","18.64","53","140","18","15","","","","","","","","","","","","","","","","","","","","","","","","","","","","","","","","","","","","","","","","","","","","","","","","","","","","","","","","","","","","","","","","","","","","","","","","","","","","","","","","","","","","","","","","","","","SYN098AAXX  16124 68558 32980 21413 10165 20072 38157 48470 53005 82200 333 1//// 20115 9//// 555 91016;","","","","","","","","","",""
"68558099999","2005-11-16T20:00:00","-30.9333333","27.6","1819.0","BARKLY EAST, SF","FM-12","4","","43","50","","","-0.08","3","76","","","24.20","18.64","46","140","23","13","","","","","","","","","","","","","","","","","","","","","","","","","","","","","","","","","","","","","","","","","","","","","","","","","","","","","","","","","","","","","","","","","","","","","","","","","","","","","","","","","","","","","","","","","","","SYN098AAXX  16184 68558 32980 11411 10100 20059 38194 48515 53026 81100 333 10175 2//// 9//// 555 91020;","","","","","","","","","",""
"68558099999","2005-11-17T08:00:00","-30.9333333","27.6","1819.0","BARKLY EAST, SF","FM-12","4","","40","51","","","-0.02","3","66","CLR:00","","24.24","18.64","45","000","25","0","","","","","","","","","","","","","","","","","","","","","","","","","","","","","","","","","","","","","","","","","","","","","","","","","","","","","","","","","","","","","","","","","","","","","","","","","","","","","","","","","","","","","","","","","","","SYN092AAXX  17064 68558 32980 00000 10105 20044 38209 48530 53006 333 20050 9//// 555 10175 91022;","","","","","","","","","",""
"68558099999","2005-11-17T14:00:00","-30.9333333","27.6","1819.0","BARKLY EAST, SF","FM-12","4","","34","70","","","+0.03","8","26","","","24.20","18.64","51","320","24","15","","","","","","","","","","","","","","","","","","","","","","","","","","","","","","","","","","","","","","","","","","","","","","","","","","","","","","","","","","","","","","","","","","","","","","","","","","","","","","","","","","","","","","","","","","","SYN098AAXX  17124 68558 32980 13213 10210 20009 38196 48505 58010 81100 333 1//// 20105 9//// 555 91021;","","","","","","","","","",""
"68558099999","2005-11-18T14:00:00","-30.9333333","27.6","1819.0","BARKLY EAST, SF","FM-12","4","","51","73","","","+0.02","8","46","","","24.22","12.43","60","320","24","9","","","","","","","","","","","","","","","","","","","","","","","","","","","","","","","","","","","","","","","","","","","","","","","","","","","","","","","","","","","","","","","","","","","","","","","","","","","","","","","","","","","","","","","","","","","SYN098AAXX  18124 68558 32770 83208 10230 20106 38202 48510 58006 82221 333 1//// 20135 9//// 555 91021;","","","","","","","","","",""
"68558099999","2005-11-18T20:00:00","-30.9333333","27.6","1819.0","BARKLY EAST, SF","FM-12","4","","49","59","","","-0.05","3","70","","","24.23","12.43","53","140","25","13","","","","","","","","","","","","","","","","","","","","","","","","","","","","","","","","","","","","","","","","","","","","","","","","","","","","","","","","","","","","","","","","","","","","","","","","","","","","","","","","","","","","","","","","","","","SYN098AAXX  18184 68558 32770 41411 10150 20096 38205 48521 53016 82201 333 10240 2//// 9//// 555 91022;","","","","","","","","","",""
"68558099999","2005-11-19T08:00:00","-30.9333333","27.6","1819.0","BARKLY EAST, SF","FM-12","4","","51","61","","","-0.01","3","71","","","24.25","18.64","55","000","25","0","","","","","","","","","","","","","","","","","","","","","","","","","","","","","","","","","","","","","","","","","","","","","","","","","","","","","","","","","","","","","","","","","","","","","","","","","","","","","","","","","","","","","","","","","","","SYN110AAXX  19064 68558 12980 20000 10160 20108 38212 48527 53004 60034 82100 333 20100 9//// 555 10240 20025 91022;","","","","","","","","","",""
"68558099999","2005-11-19T14:00:00","-30.9333333","27.6","1819.0","BARKLY EAST, SF","FM-12","4","","47","76","","","+0.03","8","35","","","24.21","18.64","59","320","24","7","","","","","","","","","","","","","","","","","","","","","","","","","","","","","","","","","","","","","","","","","","","","","","","","","","","","","","","","","","","","","","","","","","","","","","","","","","","","","","","","","","","","","","","","","","","SYN098AAXX  19124 68558 32980 33206 10245 20082 38198 48504 58009 82201 333 1//// 20160 9//// 555 91021;","","","","","","","","","",""
"68558099999","2005-11-19T20:00:00","-30.9333333","27.6","1819.0","BARKLY EAST, SF","FM-12","4","","54","59","","","-0.06","3","84","CLR:00","","24.21","18.64","56","140","24","7","","","","","","","","","","","","","","","","","","","","","","","","","","","","","","","","","","","","","","","","","","","","","","","","","","","","","","","","","","","","","","","","","","","","","","","","","","","","","","","","","","","","","","","","","","","SYN092AAXX  19184 68558 32980 01406 10150 20123 38199 48515 53020 333 10255 2//// 9//// 555 91021;","","","","","","","","","",""
"68558099999","2005-11-20T08:00:00","-30.9333333","27.6","1819.0","BARKLY EAST, SF","FM-12","4","","53","66","","","-0.01","3","62","CLR:00","","24.22","18.64","58","000","24","0","","","","","","","","","","","","","","","","","","","","","","","","","","","","","","","","","","","","","","","","","","","","","","","","","","","","","","","","","","","","","","","","","","","","","","","","","","","","","","","","","","","","","","","","","","","SYN092AAXX  20064 68558 32980 00000 10190 20114 38202 48514 53005 333 20100 9//// 555 10255 91021;","","","","","","","","","",""
"68558099999","2005-11-20T20:00:00","-30.9333333","27.6","1819.0","BARKLY EAST, SF","FM-12","4","","51","72","","","+0.01","8","48","","","24.15","18.64","59","000","21","0","","","","","","","","","","","","","","","","","","","","","","","","","","","","","","","","","","","","","","","","","","","","","","","","","","","","","","","","","","","","","","","","","","","","","","","","","","","","","","","","","","","","","","","","","","","SYN098AAXX  20184 68558 32980 10000 10220 20103 38178 48486 58003 81100 333 10275 2//// 9//// 555 91018;","","","","","","","","","",""
"68558099999","2005-11-21T08:00:00","-30.9333333","27.6","1819.0","BARKLY EAST, SF","FM-12","4","","48","70","","","0.00","4","45","","","24.18","18.64","57","050","22","7","","","","","","","","","","","","","","","","","","","","","","","","","","","","","","","","","","","","","","","","","","","","","","","","","","","","","","","","","","","","","","","","","","","","","","","","","","","","","","","","","","","","","","","","","","","SYN098AAXX  21064 68558 32980 30506 10210 20087 38187 48496 54000 81101 333 20155 9//// 555 10275 91019;","","","","","","","","","",""
"68558099999","2005-11-21T14:00:00","-30.9333333","27.6","1819.0","BARKLY EAST, SF","FM-12","4","","48","81","","","+0.05","8","31","","","24.12","18.64","61","320","19","15","","","","","","","","","","","","","","","","","","","","","","","","","","","","","","","","","","","","","","","","","","","","","","","","","","","","","","","","","","","","","","","","","","","","","","","","","","","","","","","","","","","","","","","","","","","SYN098AAXX  21124 68558 32980 43213 10275 20091 38168 48469 58017 83201 333 1//// 20210 9//// 555 91017;","","","","","","","","","",""
"68558099999","2005-11-21T20:00:00","-30.9333333","27.6","1819.0","BARKLY EAST, SF","FM-12","4","","49","66","","","-0.01","3","55","","","24.09","12.43","56","050","18","13","","","","","","","","","","","","","","","","","","","","","","","","","","","","","","","","","","","","","","","","","","","","","","","","","","","","","","","","","","","","","","","","","","","","","","","","","","","","","","","","","","","","","","","","","","","SYN098AAXX  21184 68558 32770 80511 10190 20096 38157 48467 53004 83322 333 10285 2//// 9//// 555 91016;","","","","","","","","","",""
"68558099999","2005-11-22T08:00:00","-30.9333333","27.6","1819.0","BARKLY EAST, SF","FM-12","4","","52","58","","","-0.06","3","79","","","24.21","18.64","55","000","24","0","","","","","","","","","","","","","","","","","","","","","","","","","","","","","","","","","","","","","","","","","","","","","","","","","","","","","","","","","","","","","","","","","","","","","","","","","","","","","","","","","","","","","","","","","","","SYN110AAXX  22064 68558 12980 40000 10145 20109 38197 48514 53019 60024 82101 333 20095 9//// 555 10285 20020 91021;","","","","","","","","","",""
"68558099999","2005-11-22T14:00:00","-30.9333333","27.6","1819.0","BARKLY EAST, SF","FM-12","4","","48","72","","","0.00","4","44","","","24.21","18.64","58","320","24","13","","","","","","","","","","","","","","","","","","","","","","","","","","","","","","","","","","","","","","","","","","","","","","","","","","","","","","","","","","","","","","","","","","","","","","","","","","","","","","","","","","","","","","","","","","","SYN098AAXX  22124 68558 32980 43211 10220 20090 38198 48507 54000 82101 333 1//// 20145 9//// 555 91021;","","","","","","","","","",""
"68558099999","2005-11-22T20:00:00","-30.9333333","27.6","1819.0","BARKLY EAST, SF","FM-12","4","","52","60","","","-0.03","3","75","CLR:00","","24.22","18.64","55","140","24","7","","","","","","","","","","","","","","","","","","","","","","","","","","","","","","","","","","","","","","","","","","","","","","","","","","","","","","","","","","","","","","","","","","","","","","","","","","","","","","","","","","","","","","","","","","","SYN092AAXX  22184 68558 32980 01406 10155 20111 38202 48518 53011 333 10240 2//// 9//// 555 91021;","","","","","","","","","",""
"68558099999","2005-11-23T08:00:00","-30.9333333","27.6","1819.0","BARKLY EAST, SF","FM-12","4","","51","55","","","-0.02","3","84","CLR:00","","24.26","18.64","53","000","26","0","","","","","","","","","","","","","","","","","","","","","","","","","","","","","","","","","","","","","","","","","","","","","","","","","","","","","","","","","","","","","","","","","","","","","","","","","","","","","","","","","","","","","","","","","","","SYN092AAXX  23064 68558 32980 00000 10130 20103 38216 48534 53008 333 20075 9//// 555 10240 91023;","","","","","","","","","",""
"68558099999","2005-11-23T14:00:00","-30.9333333","27.6","1819.0","BARKLY EAST, SF","FM-12","4","","44","73","","","+0.04","8","36","","","24.22","18.64","56","320","24","11","","","","","","","","","","","","","","","","","","","","","","","","","","","","","","","","","","","","","","","","","","","","","","","","","","","","","","","","","","","","","","","","","","","","","","","","","","","","","","","","","","","","","","","","","","","SYN098AAXX  23124 68558 42980 53210 10230 20069 38202 48510 58013 83202 333 1//// 20130 9//// 555 91021;","","","","","","","","","",""
"68558099999","2005-11-23T20:00:00","-30.9333333","27.6","1819.0","BARKLY EAST, SF","FM-12","4","","52","70","","","0.00","4","53","","","24.19","18.64","59","140","23","15","","","","","","","","","","","","","","","","","","","","","","","","","","","","","","","","","","","","","","","","","","","","","","","","","","","","","","","","","","","","","","","","","","","","","","","","","","","","","","","","","","","","","","","","","","","SYN098AAXX  23184 68558 32980 11413 10210 20109 38191 48500 54000 81100 333 10265 2//// 9//// 555 91020;","","","","","","","","","",""
"68558099999","2005-11-24T08:00:00","-30.9333333","27.6","1819.0","BARKLY EAST, SF","FM-12","4","","45","62","","","-0.04","3","54","CLR:00","","24.26","18.64","53","000","26","0","","","","","","","","","","","","","","","","","","","","","","","","","","","","","","","","","","","","","","","","","","","","","","","","","","","","","","","","","","","","","","","","","","","","","","","","","","","","","","","","","","","","","","","","","","","SYN092AAXX  24064 68558 32980 00000 10165 20072 38216 48531 53012 333 20100 9//// 555 10265 91023;","","","","","","","","","",""
"68558099999","2005-11-24T14:00:00","-30.9333333","27.6","1819.0","BARKLY EAST, SF","FM-12","4","","47","81","","","+0.04","8","31","","","24.21","18.64","60","320","24","11","","","","","","","","","","","","","","","","","","","","","","","","","","","","","","","","","","","","","","","","","","","","","","","","","","","","","","","","","","","","","","","","","","","","","","","","","","","","","","","","","","","","","","","","","","","SYN098AAXX  24124 68558 32980 53210 10270 20082 38199 48502 58012 83202 333 1//// 20170 9//// 555 91021;","","","","","","","","","",""
"68558099999","2005-11-25T14:00:00","-30.9333333","27.6","1819.0","BARKLY EAST, SF","FM-12","4","","47","76","","","+0.05","8","35","","","24.16","12.43","59","320","22","11","","","","","","","","","","","","","","","","","","","","","","","","","","","","","","","","","","","","","","","","","","","","","","","","","","","","","","","","","","","","","","","","","","","","","","","","","","","","","","","","","","","","","","","","","","","SYN098AAXX  25124 68558 32970 63210 10245 20082 38182 48487 58017 83222 333 1//// 20130 9//// 555 91019;","","","","","","","","","",""
"68558099999","2005-11-25T20:00:00","-30.9333333","27.6","1819.0","BARKLY EAST, SF","FM-12","4","","48","68","","","-0.07","3","49","","","24.18","18.64","56","050","22","7","","","","","","","","","","","","","","","","","","","","","","","","","","","","","","","","","","","","","","","","","","","","","","","","","","","","","","","","","","","","","","","","","","","","","","","","","","","","","","","","","","","","","","","","","","","SYN098AAXX  25184 68558 32980 80506 10200 20088 38187 48497 53024 84222 333 10280 2//// 9//// 555 91019;","","","","","","","","","",""
"68558099999","2005-11-26T08:00:00","-30.9333333","27.6","1819.0","BARKLY EAST, SF","FM-12","4","","49","66","","","-0.02","3","55","","","24.19","18.64","56","320","23","15","","","","","","","","","","","","","","","","","","","","","","","","","","","","","","","","","","","","","","","","","","","","","","","","","","","","","","","","","","","","","","","","","","","","","","","","","","","","","","","","","","","","","","","","","","","SYN098AAXX  26064 68558 32980 43213 10190 20096 38193 48505 53008 83201 333 20180 9//// 555 10280 91020;","","","","","","","","","",""
"68558099999","2005-11-27T08:00:00","-30.9333333","27.6","1819.0","BARKLY EAST, SF","FM-12","4","","51","60","","","-0.02","3","71","CLR:00","","24.26","18.64","55","000","26","0","","","","","","","","","","","","","","","","","","","","","","","","","","","","","","","","","","","","","","","","","","","","","","","","","","","","","","","","","","","","","","","","","","","","","","","","","","","","","","","","","","","","","","","","","","","SYN092AAXX  27064 68558 32980 00000 10155 20103 38217 48533 53006 333 20075 9//// 555 10245 91023;","","","","","","","","","",""
"68558099999","2005-11-27T14:00:00","-30.9333333","27.6","1819.0","BARKLY EAST, SF","FM-12","4","","40","78","","","+0.02","8","25","","","24.23","18.64","56","000","24","0","","","","","","","","","","","","","","","","","","","","","","","","","","","","","","","","","","","","","","","","","","","","","","","","","","","","","","","","","","","","","","","","","","","","","","","","","","","","","","","","","","","","","","","","","","","SYN098AAXX  27124 68558 32980 30000 10255 20042 38204 48509 58008 83200 333 1//// 20160 9//// 555 91021;","","","","","","","","","",""
"68558099999","2005-11-27T20:00:00","-30.9333333","27.6","1819.0","BARKLY EAST, SF","FM-12","4","","56","63","","","-0.05","3","77","","","24.23","18.64","59","140","25","11","","","","","","","","","","","","","","","","","","","","","","","","","","","","","","","","","","","","","","","","","","","","","","","","","","","","","","","","","","","","","","","","","","","","","","","","","","","","","","","","","","","","","","","","","","","SYN098AAXX  27184 68558 32980 11410 10175 20134 38205 48519 53017 81100 333 10270 2//// 9//// 555 91022;","","","","","","","","","",""
"68558099999","2005-11-28T14:00:00","-30.9333333","27.6","1819.0","BARKLY EAST, SF","FM-12","4","","46","77","","","+0.04","8","33","","","24.23","18.64","59","300","25","7","","","","","","","","","","","","","","","","","","","","","","","","","","","","","","","","","","","","","","","","","","","","","","","","","","","","","","","","","","","","","","","","","","","","","","","","","","","","","","","","","","","","","","","","","","","SYN098AAXX  28124 68558 32980 23006 10250 20078 38205 48511 58015 82100 333 1//// 20170 9//// 555 91022;","","","","","","","","","",""
"68558099999","2005-11-29T08:00:00","-30.9333333","27.6","1819.0","BARKLY EAST, SF","FM-12","4","","49","68","","","-0.02","3","51","","","24.30","18.64","57","360","28","11","","","","","","","","","","","","","","","","","","","","","","","","","","","","","","","","","","","","","","","","","","","","","","","","","","","","","","","","","","","","","","","","","","","","","","","","","","","","","","","","","","","","","","","","","","","SYN110AAXX  29064 68558 12980 13610 10200 20096 38229 48541 53008 60064 81100 333 20130 9//// 555 10280 20060 91024;","","","","","","","","","",""
"68558099999","2005-11-29T14:00:00","-30.9333333","27.6","1819.0","BARKLY EAST, SF","FM-12","4","","48","79","","","+0.05","8","34","","","24.23","18.64","60","320","24","15","","","","","","","","","","","","","","","","","","","","","","","","","","","","","","","","","","","","","","","","","","","","","","","","","","","","","","","","","","","","","","","","","","","","","","","","","","","","","","","","","","","","","","","","","","","SYN098AAXX  29124 68558 32980 23213 10260 20091 38204 48509 58018 82100 333 1//// 20200 9//// 555 91021;","","","","","","","","","",""
"68558099999","2005-11-29T20:00:00","-30.9333333","27.6","1819.0","BARKLY EAST, SF","FM-12","4","","49","71","","","-0.01","3","46","","","","18.64","","140","","7","","","","","","","","","","","","","","","","","","","","","","","","","","","","","","","","","","","","","","","","","","","","","","","","","","","","","","","","","","","","","","","","","","","","","","","","","","","","","","","","","","","","","","","","","","","SYN098AAXX  29184 68558 32980 81406 10215 20092 38785 4//// 53005 82202 333 10275 2//// 9//// 555 9////;","","","","","","","","","",""
"68558099999","2005-11-30T08:00:00","-30.9333333","27.6","1819.0","BARKLY EAST, SF","FM-12","4","","55","58","","","-0.02","3","89","","","24.16","18.64","56","000","22","0","","","","","","","","","","","","","","","","","","","","","","","","","","","","","","","","","","","","","","","","","","","","","","","","","","","","","","","","","","","","","","","","","","","","","","","","","","","","","","","","","","","","","","","","","","","SYN110AAXX  30064 68558 12980 80000 10145 20127 38181 48497 53006 60034 82101 333 20125 9//// 555 10275 20025 91019;","","","","","","","","","",""
"68558099999","2005-11-30T14:00:00","-30.9333333","27.6","1819.0","BARKLY EAST, SF","FM-12","4","","57","60","","","+0.03","8","90","","","24.09","12.43","58","360","18","15","","","","","","","","","","","","","","","","","","","","","","","","","","","","","","","","","","","","","","","","","","","","","","","","","","","","","","","","","","","","","","","","","","","","","","","","","","","","","","","","","","","","","","","","","","","SYN098AAXX  30124 68558 42770 83613 10155 20138 38158 48473 58010 83222 333 1//// 20145 9//// 555 91016;","","","","","","","","","",""
"68558099999","2005-12-01T08:00:00","-30.9333333","27.6","1819.0","BARKLY EAST, SF","FM-12","4","","48","58","","","-0.03","3","70","","","24.13","18.64","52","050","21","7","","","","","","","","","","","","","","","","","","","","","","","","","","","","","","","","","","","","","","","","","","","","","","","","","","","","","","","","","","","","","","","","","","","","","","","","","","","","","","","","","","","","","","","","","","","SYN110AAXX  01064 68558 12980 30506 10145 20091 38172 48488 53011 60144 83100 333 20100 9//// 555 10205 20135 91018;","","","","","","","","","",""
"68558099999","2005-12-01T14:00:00","-30.9333333","27.6","1819.0","BARKLY EAST, SF","FM-12","4","","42","69","","","+0.01","8","38","","","24.13","18.64","54","000","19","0","","","","","","","","","","","","","","","","","","","","","","","","","","","","","","","","","","","","","","","","","","","","","","","","","","","","","","","","","","","","","","","","","","","","","","","","","","","","","","","","","","","","","","","","","","","SYN098AAXX  01124 68558 32980 20000 10205 20058 38170 48479 58005 82100 333 1//// 20145 9//// 555 91017;","","","","","","","","","",""
"68558099999","2005-12-01T20:00:00","-30.9333333","27.6","1819.0","BARKLY EAST, SF","FM-12","4","","53","62","","","-0.05","3","72","","","24.16","18.64","57","050","22","5","","","","","","","","","","","","","","","","","","","","","","","","","","","","","","","","","","","","","","","","","","","","","","","","","","","","","","","","","","","","","","","","","","","","","","","","","","","","","","","","","","","","","","","","","","","SYN098AAXX  01184 68558 32980 10504 10165 20115 38181 48495 53016 81100 333 10230 2//// 9//// 555 91019;","","","","","","","","","",""
"68558099999","2005-12-02T08:00:00","-30.9333333","27.6","1819.0","BARKLY EAST, SF","FM-12","4","","49","59","","","-0.03","3","70","","","24.24","18.64","53","000","25","0","","","","","","","","","","","","","","","","","","","","","","","","","","","","","","","","","","","","","","","","","","","","","","","","","","","","","","","","","","","","","","","","","","","","","","","","","","","","","","","","","","","","","","","","","","","SYN098AAXX  02064 68558 32980 10000 10150 20096 38210 48526 53010 81100 333 20090 9//// 555 10230 91022;","","","","","","","","","",""
"68558099999","2005-12-02T14:00:00","-30.9333333","27.6","1819.0","BARKLY EAST, SF","FM-12","4","","43","75","","","-0.03","3","31","","","24.24","18.64","57","230","25","11","","","","","","","","","","","","","","","","","","","","","","","","","","","","","","","","","","","","","","","","","","","","","","","","","","","","","","","","","","","","","","","","","","","","","","","","","","","","","","","","","","","","","","","","","","","SYN098AAXX  02124 68558 32980 22310 10240 20060 38208 48515 53010 82100 333 1//// 20090 9//// 555 91022;","","","","","","","","","",""
"68558099999","2005-12-02T20:00:00","-30.9333333","27.6","1819.0","BARKLY EAST, SF","FM-12","4","","56","64","","","-0.05","3","73","","","24.26","18.64","59","140","26","5","","","","","","","","","","","","","","","","","","","","","","","","","","","","","","","","","","","","","","","","","","","","","","","","","","","","","","","","","","","","","","","","","","","","","","","","","","","","","","","","","","","","","","","","","","","SYN098AAXX  02184 68558 32980 11404 10180 20131 38215 48528 53016 81100 333 10255 2//// 9//// 555 91023;","","","","","","","","","",""
"68558099999","2005-12-03T08:00:00","-30.9333333","27.6","1819.0","BARKLY EAST, SF","FM-12","4","","52","62","","","-0.02","3","69","CLR:00","","24.36","18.64","56","000","31","0","","","","","","","","","","","","","","","","","","","","","","","","","","","","","","","","","","","","","","","","","","","","","","","","","","","","","","","","","","","","","","","","","","","","","","","","","","","","","","","","","","","","","","","","","","","SYN092AAXX  03064 68558 32980 00000 10168 20111 38250 48565 53007 333 20105 9//// 555 10255 91027;","","","","","","","","","",""
"68558099999","2005-12-03T20:00:00","-30.9333333","27.6","1819.0","BARKLY EAST, SF","FM-12","4","","52","62","","","-0.03","3","71","","","24.34","18.64","56","000","30","0","","","","","","","","","","","","","","","","","","","","","","","","","","","","","","","","","","","","","","","","","","","","","","","","","","","","","","","","","","","","","","","","","","","","","","","","","","","","","","","","","","","","","","","","","","","SYN098AAXX  03184 68558 32980 10000 10165 20112 38244 48559 53010 81100 333 10265 2//// 9//// 555 91026;","","","","","","","","","",""
"68558099999","2005-12-04T20:00:00","-30.9333333","27.6","1819.0","BARKLY EAST, SF","FM-12","4","","47","69","","","-0.00","3","46","","","24.19","18.64","56","000","23","0","","","","","","","","","","","","","","","","","","","","","","","","","","","","","","","","","","","","","","","","","","","","","","","","","","","","","","","","","","","","","","","","","","","","","","","","","","","","","","","","","","","","","","","","","","","SYN098AAXX  04184 68558 32980 40000 10205 20083 38191 48501 53001 83201 333 10280 2//// 9//// 555 91020;","","","","","","","","","",""
"68558099999","2005-12-05T08:00:00","-30.9333333","27.6","1819.0","BARKLY EAST, SF","FM-12","4","","41","66","","","-0.01","3","39","","","24.13","18.64","52","050","19","7","","","","","","","","","","","","","","","","","","","","","","","","","","","","","","","","","","","","","","","","","","","","","","","","","","","","","","","","","","","","","","","","","","","","","","","","","","","","","","","","","","","","","","","","","","","SYN098AAXX  05064 68558 32980 10506 10190 20048 38170 48481 53002 81100 333 20120 9//// 555 10280 91017;","","","","","","","","","",""
"68558099999","2005-12-05T14:00:00","-30.9333333","27.6","1819.0","BARKLY EAST, SF","FM-12","4","","32","82","","","+0.05","8","16","","","24.04","18.64","55","320","","17","","","","","","","","","","","","","","","","","","","","","","","","","","","","","","","","","","","","","","","","","","","","","","","","","","","","","","","","","","","","","","","","","","","","","","","","","","","","","","","","","","","","","","","","","","","SYN098AAXX  05124 68558 32980 33215 10280 20001 38141 48439 58016 83100 333 1//// 20190 9//// 555 91014;","","","","","","","","","",""
"68558099999","2005-12-05T20:00:00","-30.9333333","27.6","1819.0","BARKLY EAST, SF","FM-12","4","","22","74","","","+0.01","8","14","","","23.95","18.64","49","320","11","7","","","","","","","","","","","","","","","","","","","","","","","","","","","","","","","","","","","","","","","","","","","","","","","","","","","","","","","","","","","","","","","","","","","","","","","","","","","","","","","","","","","","","","","","","","","SYN098AAXX  05184 68558 32980 43206 10235 21053 38110 48412 58005 82201 333 10290 2//// 9//// 555 91010;","","","","","","","","","",""
"68558099999","2005-12-06T08:00:00","-30.9333333","27.6","1819.0","BARKLY EAST, SF","FM-12","4","","48","56","","","-0.02","3","74","","","24.05","18.64","52","000","16","0","","","","","","","","","","","","","","","","","","","","","","","","","","","","","","","","","","","","","","","","","","","","","","","","","","","","","","","","","","","","","","","","","","","","","","","","","","","","","","","","","","","","","","","","","","","SYN098AAXX  06064 68558 32980 10000 10135 20090 38145 48462 53008 81100 333 20090 9//// 555 10290 91014;","","","","","","","","","",""
"68558099999","2005-12-06T14:00:00","-30.9333333","27.6","1819.0","BARKLY EAST, SF","FM-12","4","","44","74","","","+0.02","8","34","","","24.03","18.64","57","230","16","7","","","","","","","","","","","","","","","","","","","","","","","","","","","","","","","","","","","","","","","","","","","","","","","","","","","","","","","","","","","","","","","","","","","","","","","","","","","","","","","","","","","","","","","","","","","SYN098AAXX  06124 68558 32980 32306 10235 20065 38138 48442 58007 82100 333 1//// 20135 9//// 555 91014;","","","","","","","","","",""
"68558099999","2005-12-06T20:00:00","-30.9333333","27.6","1819.0","BARKLY EAST, SF","FM-12","4","","48","58","","","-0.05","3","70","CLR:00","","24.06","18.64","52","140","17","7","","","","","","","","","","","","","","","","","","","","","","","","","","","","","","","","","","","","","","","","","","","","","","","","","","","","","","","","","","","","","","","","","","","","","","","","","","","","","","","","","","","","","","","","","","","SYN092AAXX  06184 68558 32980 01406 10145 20091 38149 48465 53017 333 10255 2//// 9//// 555 91015;","","","","","","","","","",""
"68558099999","2005-12-07T08:00:00","-30.9333333","27.6","1819.0","BARKLY EAST, SF","FM-12","4","","39","65","","","-0.02","3","38","CLR:00","","24.10","18.64","51","000","18","0","","","","","","","","","","","","","","","","","","","","","","","","","","","","","","","","","","","","","","","","","","","","","","","","","","","","","","","","","","","","","","","","","","","","","","","","","","","","","","","","","","","","","","","","","","","SYN092AAXX  07064 68558 32980 00000 10185 20040 38161 48472 53008 333 20120 9//// 555 10255 91016;","","","","","","","","","",""
"68558099999","2005-12-07T14:00:00","-30.9333333","27.6","1819.0","BARKLY EAST, SF","FM-12","4","","36","80","","","+0.04","8","20","","","24.04","18.64","56","320","","19","","","","","","","","","","","","","","","","","","","","","","","","","","","","","","","","","","","","","","","","","","","","","","","","","","","","","","","","","","","","","","","","","","","","","","","","","","","","","","","","","","","","","","","","","","","SYN098AAXX  07124 68558 32980 13217 10265 20020 38142 48442 58015 81100 333 1//// 20135 9//// 555 91014;","","","","","","","","","",""
"68558099999","2005-12-08T08:00:00","-30.9333333","27.6","1819.0","BARKLY EAST, SF","FM-12","4","","49","55","","","-0.06","3","78","","","24.16","18.64","52","000","22","0","","","","","","","","","","","","","","","","","","","","","","","","","","","","","","","","","","","","","","","","","","","","","","","","","","","","","","","","","","","","","","","","","","","","","","","","","","","","","","","","","","","","","","","","","","","SYN098AAXX  08064 68558 32980 10000 10130 20092 38183 48501 53020 81100 333 20085 9//// 555 10285 91019;","","","","","","","","","",""
"68558099999","2005-12-08T14:00:00","-30.9333333","27.6","1819.0","BARKLY EAST, SF","FM-12","4","","27","70","","","0.00","4","20","CLR:00","","24.16","18.64","49","320","22","17","","","","","","","","","","","","","","","","","","","","","","","","","","","","","","","","","","","","","","","","","","","","","","","","","","","","","","","","","","","","","","","","","","","","","","","","","","","","","","","","","","","","","","","","","","","SYN092AAXX  08124 68558 32980 03215 10210 21026 38182 48491 54000 333 1//// 20130 9//// 555 91019;","","","","","","","","","",""
"68558099999","2005-12-09T14:00:00","-30.9333333","27.6","1819.0","BARKLY EAST, SF","FM-12","4","","37","72","","","+0.04","8","28","CLR:00","","24.24","18.64","53","320","25","11","","","","","","","","","","","","","","","","","","","","","","","","","","","","","","","","","","","","","","","","","","","","","","","","","","","","","","","","","","","","","","","","","","","","","","","","","","","","","","","","","","","","","","","","","","","SYN092AAXX  09124 68558 32980 03210 10220 20028 38207 48516 58012 333 1//// 20085 9//// 555 91022;","","","","","","","","","",""
"68558099999","2005-12-10T08:00:00","-30.9333333","27.6","1819.0","BARKLY EAST, SF","FM-12","4","","44","63","","","","","52","CLR:00","","24.18","18.64","52","320","22","7","","","","","","","","","","","","","","","","","","","","","","","","","","","","","","","","","","","","","","","","","","","","","","","","","","","","","","","","","","","","","","","","","","","","","","","","","","","","","","","","","","","","","","","","","","","SYN092AAXX  10064 68558 32980 03206 10170 20069 38187 48501 58000 333 20050 9//// 555 10235 91019;","","","","","","","","","",""
"68558099999","2005-12-10T14:00:00","-30.9333333","27.6","1819.0","BARKLY EAST, SF","FM-12","4","","29","79","","","+0.00","8","16","","","24.11","18.64","53","320","19","15","","","","","","","","","","","","","","","","","","","","","","","","","","","","","","","","","","","","","","","","","","","","","","","","","","","","","","","","","","","","","","","","","","","","","","","","","","","","","","","","","","","","","","","","","","","SYN098AAXX  10124 68558 32980 23213 10260 21014 38166 48468 58001 82100 333 1//// 20179 9//// 555 91017;","","","","","","","","","",""
"68558099999","2005-12-10T20:00:00","-30.9333333","27.6","1819.0","BARKLY EAST, SF","FM-12","4","","46","56","","","-0.05","3","69","","","24.11","18.64","50","140","19","15","","","","","","","","","","","","","","","","","","","","","","","","","","","","","","","","","","","","","","","","","","","","","","","","","","","","","","","","","","","","","","","","","","","","","","","","","","","","","","","","","","","","","","","","","","","SYN098AAXX  10184 68558 32980 21413 10135 20079 38164 48481 53016 81100 333 10270 2//// 9//// 555 91017;","","","","","","","","","",""
"68558099999","2005-12-11T08:00:00","-30.9333333","27.6","1819.0","BARKLY EAST, SF","FM-12","4","","36","54","","","-0.04","3","53","CLR:00","","24.16","18.64","45","320","22","5","","","","","","","","","","","","","","","","","","","","","","","","","","","","","","","","","","","","","","","","","","","","","","","","","","","","","","","","","","","","","","","","","","","","","","","","","","","","","","","","","","","","","","","","","","","SYN092AAXX  11064 68558 32980 03204 10120 20025 38182 48501 53015 333 20060 9//// 555 10270 91019;","","","","","","","","","",""
"68558099999","2005-12-11T14:00:00","-30.9333333","27.6","1819.0","BARKLY EAST, SF","FM-12","4","","20","72","","","+0.05","8","14","CLR:00","","24.10","18.64","48","320","","19","","","","","","","","","","","","","","","","","","","","","","","","","","","","","","","","","","","","","","","","","","","","","","","","","","","","","","","","","","","","","","","","","","","","","","","","","","","","","","","","","","","","","","","","","","","SYN092AAXX  11124 68558 32980 03217 10220 21065 38160 48467 58017 333 1//// 20120 9//// 555 91016;","","","","","","","","","",""
"68558099999","2005-12-12T08:00:00","-30.9333333","27.6","1819.0","BARKLY EAST, SF","FM-12","4","","32","48","","","-0.04","3","54","","","24.22","18.64","41","230","24","7","","","","","","","","","","","","","","","","","","","","","","","","","","","","","","","","","","","","","","","","","","","","","","","","","","","","","","","","","","","","","","","","","","","","","","","","","","","","","","","","","","","","","","","","","","","SYN098AAXX  12064 68558 32980 12306 10090 21000 38201 48523 53015 81100 333 20040 9//// 555 10230 91021;","","","","","","","","","",""
"68558099999","2005-12-12T14:00:00","-30.9333333","27.6","1819.0","BARKLY EAST, SF","FM-12","4","","36","64","","","+0.02","8","34","CLR:00","","24.20","18.64","49","230","23","13","","","","","","","","","","","","","","","","","","","","","","","","","","","","","","","","","","","","","","","","","","","","","","","","","","","","","","","","","","","","","","","","","","","","","","","","","","","","","","","","","","","","","","","","","","","SYN092AAXX  12124 68558 32980 02311 10180 20020 38195 48508 58006 333 1//// 20090 9//// 555 91020;","","","","","","","","","",""
"68558099999","2005-12-12T20:00:00","-30.9333333","27.6","1819.0","BARKLY EAST, SF","FM-12","4","","33","53","","","-0.05","3","47","CLR:00","","24.24","18.64","43","140","25","17","","","","","","","","","","","","","","","","","","","","","","","","","","","","","","","","","","","","","","","","","","","","","","","","","","","","","","","","","","","","","","","","","","","","","","","","","","","","","","","","","","","","","","","","","","","SYN092AAXX  12184 68558 32980 01415 10115 20006 38208 48528 53017 333 10200 2//// 9//// 555 91022;","","","","","","","","","",""
"68558099999","2005-12-13T08:00:00","-30.9333333","27.6","1819.0","BARKLY EAST, SF","FM-12","4","","34","43","","","-0.02","3","72","CLR:00","","24.27","18.64","39","000","26","0","","","","","","","","","","","","","","","","","","","","","","","","","","","","","","","","","","","","","","","","","","","","","","","","","","","","","","","","","","","","","","","","","","","","","","","","","","","","","","","","","","","","","","","","","","","SYN092AAXX  13064 68558 32980 00000 10060 20013 38219 48544 53006 333 20020 9//// 555 10200 91023;","","","","","","","","","",""
"68558099999","2005-12-13T20:00:00","-30.9333333","27.6","1819.0","BARKLY EAST, SF","FM-12","4","","37","61","","","-0.03","3","41","CLR:00","","24.22","18.64","49","000","24","0","","","","","","","","","","","","","","","","","","","","","","","","","","","","","","","","","","","","","","","","","","","","","","","","","","","","","","","","","","","","","","","","","","","","","","","","","","","","","","","","","","","","","","","","","","","SYN092AAXX  13184 68558 32980 00000 10160 20028 38201 48516 53010 333 10255 2//// 9//// 555 91021;","","","","","","","","","",""
"68558099999","2005-12-14T08:00:00","-30.9333333","27.6","1819.0","BARKLY EAST, SF","FM-12","4","","34","65","","","-0.00","3","31","","","24.21","18.64","49","000","24","0","","","","","","","","","","","","","","","","","","","","","","","","","","","","","","","","","","","","","","","","","","","","","","","","","","","","","","","","","","","","","","","","","","","","","","","","","","","","","","","","","","","","","","","","","","","SYN098AAXX  14064 68558 32980 10000 10185 20012 38199 48511 53001 81100 333 20070 9//// 555 10255 91021;","","","","","","","","","",""
"68558099999","2005-12-14T20:00:00","-30.9333333","27.6","1819.0","BARKLY EAST, SF","FM-12","4","","28","73","","","-0.00","3","18","","","24.13","18.64","50","320","21","7","","","","","","","","","","","","","","","","","","","","","","","","","","","","","","","","","","","","","","","","","","","","","","","","","","","","","","","","","","","","","","","","","","","","","","","","","","","","","","","","","","","","","","","","","","","SYN098AAXX  14184 68558 32980 23206 10230 21023 38171 48477 53001 81101 333 10300 2//// 9//// 555 91018;","","","","","","","","","",""
"68558099999","2005-12-15T08:00:00","-30.9333333","27.6","1819.0","BARKLY EAST, SF","FM-12","4","","43","71","","","-0.05","3","36","","","24.23","18.64","55","050","24","7","","","","","","","","","","","","","","","","","","","","","","","","","","","","","","","","","","","","","","","","","","","","","","","","","","","","","","","","","","","","","","","","","","","","","","","","","","","","","","","","","","","","","","","","","","","SYN098AAXX  15064 68558 32980 30506 10215 20059 38204 48513 53016 81100 333 20065 9//// 555 10300 91021;","","","","","","","","","",""
"68558099999","2005-12-15T20:00:00","-30.9333333","27.6","1819.0","BARKLY EAST, SF","FM-12","4","","50","62","","","+0.03","8","67","","","26.54s","18.64","55","290","","11","","","","","","","","","","","","","","","","","","","","","","","","","","","","","","","","","","","","","","","","","","","","","","","","","","","","","","","","","","","","","","","","","","","","","","","","","","","","","","","","","","","","","","","","","","","SYN098AAXX  15184 68558 32980 52910 10165 20102 38986 4//// 58011 83202 333 10285 2//// 9//// 555 9////;","","","","","","","","","",""
