"STATION","DATE","LATITUDE","LONGITUDE","ELEVATION","NAME","REPORT_TYPE","SOURCE","HourlyAltimeterSetting","HourlyDewPointTemperature","HourlyDryBulbTemperature","HourlyPrecipitation","HourlyPresentWeatherType","HourlyPressureChange","HourlyPressureTendency","HourlyRelativeHumidity","HourlySkyConditions","HourlySeaLevelPressure","HourlyStationPressure","HourlyVisibility","HourlyWetBulbTemperature","HourlyWindDirection","HourlyWindGustSpeed","HourlyWindSpeed","Sunrise","Sunset","DailyAverageDewPointTemperature","DailyAverageDryBulbTemperature","DailyAverageRelativeHumidity","DailyAverageSeaLevelPressure","DailyAverageStationPressure","DailyAverageWetBulbTemperature","DailyAverageWindSpeed","DailyCoolingDegreeDays","DailyDepartureFromNormalAverageTemperature","DailyHeatingDegreeDays","DailyMaximumDryBulbTemperature","DailyMinimumDryBulbTemperature","DailyPeakWindDirection","DailyPeakWindSpeed","DailyPrecipitation","DailySnowDepth","DailySnowfall","DailySustainedWindDirection","DailySustainedWindSpeed","DailyWeather","MonthlyAverageRH","MonthlyDaysWithGT001Precip","MonthlyDaysWithGT010Precip","MonthlyDaysWithGT32Temp","MonthlyDaysWithGT90Temp","MonthlyDaysWithLT0Temp","MonthlyDaysWithLT32Temp","MonthlyDepartureFromNormalAverageTemperature","MonthlyDepartureFromNormalCoolingDegreeDays","MonthlyDepartureFromNormalHeatingDegreeDays","MonthlyDepartureFromNormalMaximumTemperature","MonthlyDepartureFromNormalMinimumTemperature","MonthlyDepartureFromNormalPrecipitation","MonthlyDewpointTemperature","MonthlyGreatestPrecip","MonthlyGreatestPrecipDate","MonthlyGreatestSnowDepth","MonthlyGreatestSnowDepthDate","MonthlyGreatestSnowfall","MonthlyGreatestSnowfallDate","MonthlyMaxSeaLevelPressureValue","MonthlyMaxSeaLevelPressureValueDate","MonthlyMaxSeaLevelPressureValueTime","MonthlyMaximumTemperature","MonthlyMeanTemperature","MonthlyMinSeaLevelPressureValue","MonthlyMinSeaLevelPressureValueDate","MonthlyMinSeaLevelPressureValueTime","MonthlyMinimumTemperature","MonthlySeaLevelPressure","MonthlyStationPressure","MonthlyTotalLiquidPrecipitation","MonthlyTotalSnowfall","MonthlyWetBulb","AWND","CDSD","CLDD","DSNW","HDSD","HTDD","DYTS","DYHF","NormalsCoolingDegreeDay","NormalsHeatingDegreeDay","ShortDurationEndDate005","ShortDurationEndDate010","ShortDurationEndDate015","ShortDurationEndDate020","ShortDurationEndDate030","ShortDurationEndDate045","ShortDurationEndDate060","ShortDurationEndDate080","ShortDurationEndDate100","ShortDurationEndDate120","ShortDurationEndDate150","ShortDurationEndDate180","ShortDurationPrecipitationValue005","ShortDurationPrecipitationValue010","ShortDurationPrecipitationValue015","ShortDurationPrecipitationValue020","ShortDurationPrecipitationValue030","ShortDurationPrecipitationValue045","ShortDurationPrecipitationValue060","ShortDurationPrecipitationValue080","ShortDurationPrecipitationValue100","ShortDurationPrecipitationValue120","ShortDurationPrecipitationValue150","ShortDurationPrecipitationValue180","REM","BackupDirection","BackupDistance","BackupDistanceUnit","BackupElements","BackupElevation","BackupEquipment","BackupLatitude","BackupLongitude","BackupName","WindEquipmentChangeDate"
"94213099999","2005-01-01T06:00:00","-17.0166666","128.2166666","205.0","WARMUN, AS","FM-12","4","","72","78","","||DZ","","","82","","29.69","29.02","9.94","74","090","","2","","","","","","","","","","","","","","","","","","","","","","","","","","","","","","","","","","","","","","","","","","","","","","","","","","","","","","","","","","","","","","","","","","","","","","","","","","","","","","","","","","","","","","","","","","","SYN066AAXX  31224 94213 41466 80902 10254 20221 39828 40054 75066 88900;","","","","","","","","","",""
"94213099999","2005-01-01T09:00:00","-17.0166666","128.2166666","205.0","WARMUN, AS","FM-12","4","","75","81","","","","","81","","29.67","29.00","15.53","77","180","","2","","","","","","","","","","","","","","","","","","","","","","","","","","","","","","","","","","","","","","","","","","","","","","","","","","","","","","","","","","","","","","","","","","","","","","","","","","","","","","","","","","","","","","","","","","","SYN082AAXX  01014 94213 11475 71802 10275 20239 39820 40046 60384 70122 87800 333 70380;","","","","","","","","","",""
"94213099999","2005-01-01T15:00:00","-17.0166666","128.2166666","205.0","WARMUN, AS","FM-12","4","","73","91","","","","","55","","29.52","28.86","17.40","78","340","","2","","","","","","","","","","","","","","","","","","","","","","","","","","","","","","","","","","","","","","","","","","","","","","","","","","","","","","","","","","","","","","","","","","","","","","","","","","","","","","","","","","","","","","","","","","","SYN072AAXX  01074 94213 11678 83402 10330 20229 39772 49996 60001 70322 88900;","","","","","","","","","",""
"94213099999","2005-01-01T18:00:00","-17.0166666","128.2166666","205.0","WARMUN, AS","FM-12","4","","73","80","","","","","80","","29.63","28.96","8.70","75","050","","6","","","","","","","","","","","","","","","","","","","","","","","","","","","","","","","","","","","","","","","","","","","","","","","","","","","","","","","","","","","","","","","","","","","","","","","","","","","","","","","","","","","","","","","","","","","SYN066AAXX  01104 94213 41464 80505 10265 20228 39808 40033 70222 88900;","","","","","","","","","",""
"94213099999","2005-01-02T06:00:00","-17.0166666","128.2166666","205.0","WARMUN, AS","FM-12","4","","77","78","","","","","96","","29.59","28.93","12.43","77","000","","0","","","","","","","","","","","","","","","","","","","","","","","","","","","","","","","","","","","","","","","","","","","","","","","","","","","","","","","","","","","","","","","","","","","","","","","","","","","","","","","","","","","","","","","","","","","SYN066AAXX  01224 94213 41270 80000 10256 20249 39797 40022 71592 88200;","","","","","","","","","",""
"94213099999","2005-01-02T09:00:00","-17.0166666","128.2166666","205.0","WARMUN, AS","FM-12","4","","76","79","","||RA","","","91","","29.64","28.98","3.11","77","000","","0","","","","","","","","","","","","","","","","","","","","","","","","","","","","","","","","","","","","","","","","","","","","","","","","","","","","","","","","","","","","","","","","","","","","","","","","","","","","","","","","","","","","","","","","","","","SYN082AAXX  02014 94213 11250 80000 10260 20244 39813 40038 60154 76162 88600 333 70150;","","","","","","","","","",""
"94213099999","2005-01-02T15:00:00","-17.0166666","128.2166666","205.0","WARMUN, AS","FM-12","4","","76","87","","","","","70","","29.54","28.87","18.64","79","230","","6","","","","","","","","","","","","","","","","","","","","","","","","","","","","","","","","","","","","","","","","","","","","","","","","","","","","","","","","","","","","","","","","","","","","","","","","","","","","","","","","","","","","","","","","","","","SYN072AAXX  02074 94213 11280 82305 10305 20245 39778 40003 60021 70166 88300;","","","","","","","","","",""
"94213099999","2005-01-02T18:00:00","-17.0166666","128.2166666","205.0","WARMUN, AS","FM-12","4","","70","84","","","","","63","","29.58","28.92","16.78","74","000","","0","","","","","","","","","","","","","","","","","","","","","","","","","","","","","","","","","","","","","","","","","","","","","","","","","","","","","","","","","","","","","","","","","","","","","","","","","","","","","","","","","","","","","","","","","","","SYN066AAXX  02104 94213 41577 80000 10290 20212 39793 40018 70222 84590;","","","","","","","","","",""
"94213099999","2005-01-03T06:00:00","-17.0166666","128.2166666","205.0","WARMUN, AS","FM-12","4","","73","77","","","","","88","","29.62","28.95","12.43","74","000","","0","","","","","","","","","","","","","","","","","","","","","","","","","","","","","","","","","","","","","","","","","","","","","","","","","","","","","","","","","","","","","","","","","","","","","","","","","","","","","","","","","","","","","","","","","","","SYN066AAXX  02224 94213 41370 70000 10250 20229 39804 40029 70152 86570;","","","","","","","","","",""
"94213099999","2005-01-03T09:00:00","-17.0166666","128.2166666","205.0","WARMUN, AS","FM-12","4","","75","80","","","","","84","","29.66","29.00","12.43","76","310","","1","","","","","","","","","","","","","","","","","","","","","","","","","","","","","","","","","","","","","","","","","","","","","","","","","","","","","","","","","","","","","","","","","","","","","","","","","","","","","","","","","","","","","","","","","","","SYN082AAXX  03014 94213 11470 83101 10268 20239 39819 40045 60034 70322 85590 333 70030;","","","","","","","","","",""
"94213099999","2005-01-03T15:00:00","-17.0166666","128.2166666","205.0","WARMUN, AS","FM-12","4","","75","87","","","","","69","","29.53","28.87","18.64","78","360","","2","","","","","","","","","","","","","","","","","","","","","","","","","","","","","","","","","","","","","","","","","","","","","","","","","","","","","","","","","","","","","","","","","","","","","","","","","","","","","","","","","","","","","","","","","","","SYN072AAXX  03074 94213 11480 83602 10305 20241 39775 40000 60001 70222 85590;","","","","","","","","","",""
"94213099999","2005-01-03T18:00:00","-17.0166666","128.2166666","205.0","WARMUN, AS","FM-12","4","","76","83","","","","","79","","29.57","28.91","17.40","78","050","","3","","","","","","","","","","","","","","","","","","","","","","","","","","","","","","","","","","","","","","","","","","","","","","","","","","","","","","","","","","","","","","","","","","","","","","","","","","","","","","","","","","","","","","","","","","","SYN066AAXX  03104 94213 41478 80503 10285 20246 39790 40015 70222 88900;","","","","","","","","","",""
"94213099999","2005-01-04T06:00:00","-17.0166666","128.2166666","205.0","WARMUN, AS","FM-12","4","","75","81","","","","","81","","29.63","28.97","13.67","77","160","","2","","","","","","","","","","","","","","","","","","","","","","","","","","","","","","","","","","","","","","","","","","","","","","","","","","","","","","","","","","","","","","","","","","","","","","","","","","","","","","","","","","","","","","","","","","","SYN066AAXX  03224 94213 41472 81602 10272 20237 39810 40035 70222 88500;","","","","","","","","","",""
"94213099999","2005-01-04T09:00:00","-17.0166666","128.2166666","205.0","WARMUN, AS","FM-12","4","","72","90","","","","","57","","29.65","28.98","15.53","77","230","","5","","","","","","","","","","","","","","","","","","","","","","","","","","","","","","","","","","","","","","","","","","","","","","","","","","","","","","","","","","","","","","","","","","","","","","","","","","","","","","","","","","","","","","","","","","","SYN082AAXX  04014 94213 11675 62304 10320 20225 39815 40040 60024 70122 82244 333 70020;","","","","","","","","","",""
"94213099999","2005-01-04T15:00:00","-17.0166666","128.2166666","205.0","WARMUN, AS","FM-12","4","","74","97","","","","","47","","29.54","28.88","18.64","80","130","","2","","","","","","","","","","","","","","","","","","","","","","","","","","","","","","","","","","","","","","","","","","","","","","","","","","","","","","","","","","","","","","","","","","","","","","","","","","","","","","","","","","","","","","","","","","","SYN072AAXX  04074 94213 11780 71302 10360 20231 39779 40004 60001 70322 83581;","","","","","","","","","",""
"94213099999","2005-01-04T18:00:00","-17.0166666","128.2166666","205.0","WARMUN, AS","FM-12","4","","75","93","","","","","56","","29.56","28.90","18.64","80","310","","2","","","","","","","","","","","","","","","","","","","","","","","","","","","","","","","","","","","","","","","","","","","","","","","","","","","","","","","","","","","","","","","","","","","","","","","","","","","","","","","","","","","","","","","","","","","SYN066AAXX  04104 94213 41680 83102 10339 20239 39785 40010 70322 82994;","","","","","","","","","",""
"94213099999","2005-01-05T06:00:00","-17.0166666","128.2166666","205.0","WARMUN, AS","FM-12","4","","74","80","","","","","84","","29.66","28.99","12.43","76","310","","1","","","","","","","","","","","","","","","","","","","","","","","","","","","","","","","","","","","","","","","","","","","","","","","","","","","","","","","","","","","","","","","","","","","","","","","","","","","","","","","","","","","","","","","","","","","SYN066AAXX  04224 94213 41/70 83101 10265 20236 39818 40044 70222 84034;","","","","","","","","","",""
"94213099999","2005-01-05T09:00:00","-17.0166666","128.2166666","205.0","WARMUN, AS","FM-12","4","","70","92","","","","","49","","29.67","29.01","18.64","77","130","","1","","","","","","","","","","","","","","","","","","","","","","","","","","","","","","","","","","","","","","","","","","","","","","","","","","","","","","","","","","","","","","","","","","","","","","","","","","","","","","","","","","","","","","","","","","","SYN082AAXX  05014 94213 11/80 51301 10332 20211 39823 40049 60004 70122 80004 333 70000;","","","","","","","","","",""
"94213099999","2005-01-05T18:00:00","-17.0166666","128.2166666","205.0","WARMUN, AS","FM-12","4","","68","92","","","","","45","","29.59","28.93","18.64","75","360","","1","","","","","","","","","","","","","","","","","","","","","","","","","","","","","","","","","","","","","","","","","","","","","","","","","","","","","","","","","","","","","","","","","","","","","","","","","","","","","","","","","","","","","","","","","","","SYN066AAXX  05104 94213 41780 63601 10335 20200 39797 40022 70322 82294;","","","","","","","","","",""
"94213099999","2005-01-06T06:00:00","-17.0166666","128.2166666","205.0","WARMUN, AS","FM-12","4","","75","81","","","","","81","","29.70","29.03","14.91","77","090","","1","","","","","","","","","","","","","","","","","","","","","","","","","","","","","","","","","","","","","","","","","","","","","","","","","","","","","","","","","","","","","","","","","","","","","","","","","","","","","","","","","","","","","","","","","","","SYN066AAXX  05224 94213 41/74 40901 10274 20239 39830 40056 70122 84081;","","","","","","","","","",""
"94213099999","2005-01-06T09:00:00","-17.0166666","128.2166666","205.0","WARMUN, AS","FM-12","4","","72","93","","","","","52","","29.72","29.05","18.64","78","090","","2","","","","","","","","","","","","","","","","","","","","","","","","","","","","","","","","","","","","","","","","","","","","","","","","","","","","","","","","","","","","","","","","","","","","","","","","","","","","","","","","","","","","","","","","","","","SYN082AAXX  06014 94213 11/80 30902 10338 20225 39839 40065 60004 70100 81061 333 70000;","","","","","","","","","",""
"94213099999","2005-01-06T15:00:00","-17.0166666","128.2166666","205.0","WARMUN, AS","FM-12","4","","62","99","","","","","30","","29.62","28.95","18.64","74","160","","5","","","","","","","","","","","","","","","","","","","","","","","","","","","","","","","","","","","","","","","","","","","","","","","","","","","","","","","","","","","","","","","","","","","","","","","","","","","","","","","","","","","","","","","","","","","SYN072AAXX  06074 94213 11880 31604 10370 20169 39805 40030 60001 70222 82201;","","","","","","","","","",""
"94213099999","2005-01-06T18:00:00","-17.0166666","128.2166666","205.0","WARMUN, AS","FM-12","4","","63","93","","","","","37","","29.66","29.00","18.64","73","090","","2","","","","","","","","","","","","","","","","","","","","","","","","","","","","","","","","","","","","","","","","","","","","","","","","","","","","","","","","","","","","","","","","","","","","","","","","","","","","","","","","","","","","","","","","","","","SYN066AAXX  06104 94213 41/80 30902 10340 20172 39819 40045 70200 81041;","","","","","","","","","",""
"94213099999","2005-01-07T06:00:00","-17.0166666","128.2166666","205.0","WARMUN, AS","FM-12","4","","72","80","","","","","79","CLR:00","29.75","29.08","15.53","74","130","","1","","","","","","","","","","","","","","","","","","","","","","","","","","","","","","","","","","","","","","","","","","","","","","","","","","","","","","","","","","","","","","","","","","","","","","","","","","","","","","","","","","","","","","","","","","","SYN060AAXX  06224 94213 41975 01301 10265 20225 39848 40074 70100;","","","","","","","","","",""
"94213099999","2005-01-07T09:00:00","-17.0166666","128.2166666","205.0","WARMUN, AS","FM-12","4","","60","94","","","","","32","CLR:00","29.77","29.10","18.64","72","090","","5","","","","","","","","","","","","","","","","","","","","","","","","","","","","","","","","","","","","","","","","","","","","","","","","","","","","","","","","","","","","","","","","","","","","","","","","","","","","","","","","","","","","","","","","","","","SYN076AAXX  07014 94213 11980 00904 10342 20154 39855 40081 60004 70200 333 70000;","","","","","","","","","",""
"94213099999","2005-01-07T15:00:00","-17.0166666","128.2166666","205.0","WARMUN, AS","FM-12","4","","58","99","","","","","26","CLR:00","29.66","28.99","18.64","72","130","","3","","","","","","","","","","","","","","","","","","","","","","","","","","","","","","","","","","","","","","","","","","","","","","","","","","","","","","","","","","","","","","","","","","","","","","","","","","","","","","","","","","","","","","","","","","","SYN066AAXX  07074 94213 11980 01303 10370 20142 39818 40044 60001 70200;","","","","","","","","","",""
"94213099999","2005-01-07T18:00:00","-17.0166666","128.2166666","205.0","WARMUN, AS","FM-12","4","","64","92","","","","","39","CLR:00","29.65","28.99","18.64","73","130","","1","","","","","","","","","","","","","","","","","","","","","","","","","","","","","","","","","","","","","","","","","","","","","","","","","","","","","","","","","","","","","","","","","","","","","","","","","","","","","","","","","","","","","","","","","","","SYN060AAXX  07104 94213 41980 01301 10335 20179 39816 40042 70200;","","","","","","","","","",""
"94213099999","2005-01-08T09:00:00","-17.0166666","128.2166666","205.0","WARMUN, AS","FM-12","4","","62","93","","","","","35","CLR:00","29.76","29.09","18.64","72","360","","1","","","","","","","","","","","","","","","","","","","","","","","","","","","","","","","","","","","","","","","","","","","","","","","","","","","","","","","","","","","","","","","","","","","","","","","","","","","","","","","","","","","","","","","","","","","SYN076AAXX  08014 94213 11980 03601 10341 20165 39852 40078 60004 70200 333 70000;","","","","","","","","","",""
"94213099999","2005-01-08T15:00:00","-17.0166666","128.2166666","205.0","WARMUN, AS","FM-12","4","","59","99","","","","","27","CLR:00","29.63","28.96","18.64","72","180","","1","","","","","","","","","","","","","","","","","","","","","","","","","","","","","","","","","","","","","","","","","","","","","","","","","","","","","","","","","","","","","","","","","","","","","","","","","","","","","","","","","","","","","","","","","","","SYN066AAXX  08074 94213 11980 01801 10370 20149 39808 40033 60001 70200;","","","","","","","","","",""
"94213099999","2005-01-08T18:00:00","-17.0166666","128.2166666","205.0","WARMUN, AS","FM-12","4","","57","94","","","","","29","CLR:00","29.64","28.97","18.64","70","130","","1","","","","","","","","","","","","","","","","","","","","","","","","","","","","","","","","","","","","","","","","","","","","","","","","","","","","","","","","","","","","","","","","","","","","","","","","","","","","","","","","","","","","","","","","","","","SYN060AAXX  08104 94213 41980 01301 10345 20140 39811 40036 70200;","","","","","","","","","",""
"94213099999","2005-01-09T06:00:00","-17.0166666","128.2166666","205.0","WARMUN, AS","FM-12","4","","59","80","","","","","49","CLR:00","29.73","29.07","15.53","67","130","","2","","","","","","","","","","","","","","","","","","","","","","","","","","","","","","","","","","","","","","","","","","","","","","","","","","","","","","","","","","","","","","","","","","","","","","","","","","","","","","","","","","","","","","","","","","","SYN060AAXX  08224 94213 41975 01302 10264 20148 39843 40069 70200;","","","","","","","","","",""
"94213099999","2005-01-09T09:00:00","-17.0166666","128.2166666","205.0","WARMUN, AS","FM-12","4","","57","95","","","","","28","CLR:00","29.75","29.09","18.64","70","130","","1","","","","","","","","","","","","","","","","","","","","","","","","","","","","","","","","","","","","","","","","","","","","","","","","","","","","","","","","","","","","","","","","","","","","","","","","","","","","","","","","","","","","","","","","","","","SYN076AAXX  09014 94213 11980 01301 10352 20140 39850 40076 60004 70200 333 70000;","","","","","","","","","",""
"94213099999","2005-01-09T15:00:00","-17.0166666","128.2166666","205.0","WARMUN, AS","FM-12","4","","","","","","","","","","","","18.64","","180","","1","","","","","","","","","","","","","","","","","","","","","","","","","","","","","","","","","","","","","","","","","","","","","","","","","","","","","","","","","","","","","","","","","","","","","","","","","","","","","","","","","","","","","","","","","","","SYN071AAXX  09074 94213 11/80 11801 0395 20124 39812 40037 60001 70300 80004;","","","","","","","","","",""
"94213099999","2005-01-09T18:00:00","-17.0166666","128.2166666","205.0","WARMUN, AS","FM-12","4","","60","95","","","","","31","","29.64","28.98","18.64","72","130","","2","","","","","","","","","","","","","","","","","","","","","","","","","","","","","","","","","","","","","","","","","","","","","","","","","","","","","","","","","","","","","","","","","","","","","","","","","","","","","","","","","","","","","","","","","","","SYN066AAXX  09104 94213 41/80 31302 10348 20154 39813 40038 70300 83050;","","","","","","","","","",""
"94213099999","2005-01-10T06:00:00","-17.0166666","128.2166666","205.0","WARMUN, AS","FM-12","4","","56","83","","","","","40","","29.73","29.06","13.67","66","160","","6","","","","","","","","","","","","","","","","","","","","","","","","","","","","","","","","","","","","","","","","","","","","","","","","","","","","","","","","","","","","","","","","","","","","","","","","","","","","","","","","","","","","","","","","","","","SYN066AAXX  09224 94213 41/72 21605 10283 20136 39842 40068 70200 82040;","","","","","","","","","",""
"94213099999","2005-01-10T09:00:00","-17.0166666","128.2166666","205.0","WARMUN, AS","FM-12","4","","64","96","","","","","35","","29.75","29.08","18.64","74","130","","1","","","","","","","","","","","","","","","","","","","","","","","","","","","","","","","","","","","","","","","","","","","","","","","","","","","","","","","","","","","","","","","","","","","","","","","","","","","","","","","","","","","","","","","","","","","SYN082AAXX  10014 94213 11/80 21301 10356 20178 39848 40074 60004 70200 82040 333 70000;","","","","","","","","","",""
"94213099999","2005-01-10T15:00:00","-17.0166666","128.2166666","205.0","WARMUN, AS","FM-12","4","","64","103","","","","","29","","29.59","28.93","18.64","76","130","","5","","","","","","","","","","","","","","","","","","","","","","","","","","","","","","","","","","","","","","","","","","","","","","","","","","","","","","","","","","","","","","","","","","","","","","","","","","","","","","","","","","","","","","","","","","","SYN072AAXX  10074 94213 11880 41304 10392 20180 39797 40022 60001 70300 82251;","","","","","","","","","",""
"94213099999","2005-01-10T18:00:00","-17.0166666","128.2166666","205.0","WARMUN, AS","FM-12","4","","68","96","","","","","40","","29.56","28.90","18.64","76","130","","1","","","","","","","","","","","","","","","","","","","","","","","","","","","","","","","","","","","","","","","","","","","","","","","","","","","","","","","","","","","","","","","","","","","","","","","","","","","","","","","","","","","","","","","","","","","SYN066AAXX  10104 94213 41/80 41301 10355 20200 39785 40010 70200 84080;","","","","","","","","","",""
"94213099999","2005-01-11T06:00:00","-17.0166666","128.2166666","205.0","WARMUN, AS","FM-12","4","","72","87","","","","","62","","29.77","29.10","12.43","76","090","","7","","","","","","","","","","","","","","","","","","","","","","","","","","","","","","","","","","","","","","","","","","","","","","","","","","","","","","","","","","","","","","","","","","","","","","","","","","","","","","","","","","","","","","","","","","","SYN066AAXX  10224 94213 41/70 30906 10305 20225 39854 40080 70200 83081;","","","","","","","","","",""
"94213099999","2005-01-11T09:00:00","-17.0166666","128.2166666","205.0","WARMUN, AS","FM-12","4","","72","93","","","","","51","","29.77","29.10","18.64","78","130","","2","","","","","","","","","","","","","","","","","","","","","","","","","","","","","","","","","","","","","","","","","","","","","","","","","","","","","","","","","","","","","","","","","","","","","","","","","","","","","","","","","","","","","","","","","","","SYN082AAXX  11014 94213 11680 51302 10340 20224 39854 40080 60004 70200 82281 333 70000;","","","","","","","","","",""
"94213099999","2005-01-11T15:00:00","-17.0166666","128.2166666","205.0","WARMUN, AS","FM-12","4","","70","97","","","","","42","","29.64","28.97","18.64","78","310","","3","","","","","","","","","","","","","","","","","","","","","","","","","","","","","","","","","","","","","","","","","","","","","","","","","","","","","","","","","","","","","","","","","","","","","","","","","","","","","","","","","","","","","","","","","","","SYN072AAXX  11074 94213 11780 63103 10360 20210 39811 40036 60001 70322 84494;","","","","","","","","","",""
"94213099999","2005-01-11T18:00:00","-17.0166666","128.2166666","205.0","WARMUN, AS","FM-12","4","","75","81","","||DZ","","","84","","29.72","29.05","6.21","77","090","","1","","","","","","","","","","","","","","","","","","","","","","","","","","","","","","","","","","","","","","","","","","","","","","","","","","","","","","","","","","","","","","","","","","","","","","","","","","","","","","","","","","","","","","","","","","","SYN066AAXX  11104 94213 41460 80901 10271 20241 39837 40063 75262 88600;","","","","","","","","","",""
"94213099999","2005-01-12T06:00:00","-17.0166666","128.2166666","205.0","WARMUN, AS","FM-12","4","","74","77","","","","","93","","29.77","29.10","13.67","75","000","","0","","","","","","","","","","","","","","","","","","","","","","","","","","","","","","","","","","","","","","","","","","","","","","","","","","","","","","","","","","","","","","","","","","","","","","","","","","","","","","","","","","","","","","","","","","","SYN066AAXX  11224 94213 41272 80000 10249 20236 39855 40081 70196 88600;","","","","","","","","","",""
"94213099999","2005-01-12T09:00:00","-17.0166666","128.2166666","205.0","WARMUN, AS","FM-12","4","","74","83","","","","","74","","29.78","29.11","12.43","77","130","","2","","","","","","","","","","","","","","","","","","","","","","","","","","","","","","","","","","","","","","","","","","","","","","","","","","","","","","","","","","","","","","","","","","","","","","","","","","","","","","","","","","","","","","","","","","","SYN082AAXX  12014 94213 11570 61302 10285 20234 39859 40086 60394 70122 84581 333 70385;","","","","","","","","","",""
"94213099999","2005-01-12T15:00:00","-17.0166666","128.2166666","205.0","WARMUN, AS","FM-12","4","","76","84","","||RA","","","77","","29.67","29.00","9.32","78","130","","2","","","","","","","","","","","","","","","","","","","","","","","","","","","","","","","","","","","","","","","","","","","","","","","","","","","","","","","","","","","","","","","","","","","","","","","","","","","","","","","","","","","","","","","","","","","SYN072AAXX  12074 94213 11465 71302 10291 20247 39820 40046 60061 76422 85284;","","","","","","","","","",""
"94213099999","2005-01-12T18:00:00","-17.0166666","128.2166666","205.0","WARMUN, AS","FM-12","4","","74","84","","","","","71","","29.70","29.03","15.53","77","130","","3","","","","","","","","","","","","","","","","","","","","","","","","","","","","","","","","","","","","","","","","","","","","","","","","","","","","","","","","","","","","","","","","","","","","","","","","","","","","","","","","","","","","","","","","","","","SYN066AAXX  12104 94213 41575 81303 10290 20232 39830 40056 70352 85670;","","","","","","","","","",""
"94213099999","2005-01-13T06:00:00","-17.0166666","128.2166666","205.0","WARMUN, AS","FM-12","4","","76","81","","","","","84","","29.72","29.06","13.67","77","000","","0","","","","","","","","","","","","","","","","","","","","","","","","","","","","","","","","","","","","","","","","","","","","","","","","","","","","","","","","","","","","","","","","","","","","","","","","","","","","","","","","","","","","","","","","","","","SYN066AAXX  12224 94213 41/72 60000 10273 20243 39840 40066 70122 84081;","","","","","","","","","",""
"94213099999","2005-01-13T09:00:00","-17.0166666","128.2166666","205.0","WARMUN, AS","FM-12","4","","74","87","","","","","65","","29.74","29.07","18.64","78","050","","5","","","","","","","","","","","","","","","","","","","","","","","","","","","","","","","","","","","","","","","","","","","","","","","","","","","","","","","","","","","","","","","","","","","","","","","","","","","","","","","","","","","","","","","","","","","SYN082AAXX  13014 94213 11580 50504 10305 20233 39845 40071 60084 70122 84854 333 70080;","","","","","","","","","",""
"94213099999","2005-01-13T15:00:00","-17.0166666","128.2166666","205.0","WARMUN, AS","FM-12","4","","74","79","","||RA","","","84","","29.66","29.00","7.46","76","310","","5","","","","","","","","","","","","","","","","","","","","","","","","","","","","","","","","","","","","","","","","","","","","","","","","","","","","","","","","","","","","","","","","","","","","","","","","","","","","","","","","","","","","","","","","","","","SYN072AAXX  13074 94213 11462 83104 10260 20231 39819 40045 60041 76422 88600;","","","","","","","","","",""
"94213099999","2005-01-13T18:00:00","-17.0166666","128.2166666","205.0","WARMUN, AS","FM-12","4","","75","79","","","","","89","","29.67","29.00","15.53","76","310","","2","","","","","","","","","","","","","","","","","","","","","","","","","","","","","","","","","","","","","","","","","","","","","","","","","","","","","","","","","","","","","","","","","","","","","","","","","","","","","","","","","","","","","","","","","","","SYN066AAXX  13104 94213 41/75 83102 10261 20241 39822 40048 70352 88090;","","","","","","","","","",""
"94213099999","2005-01-14T06:00:00","-17.0166666","128.2166666","205.0","WARMUN, AS","FM-12","4","","77","78","","","","","97","","29.73","29.06","13.67","77","000","","0","","","","","","","","","","","","","","","","","","","","","","","","","","","","","","","","","","","","","","","","","","","","","","","","","","","","","","","","","","","","","","","","","","","","","","","","","","","","","","","","","","","","","","","","","","","SYN066AAXX  13224 94213 41/72 20000 10258 20252 39841 40067 70211 81045;","","","","","","","","","",""
"94213099999","2005-01-14T09:00:00","-17.0166666","128.2166666","205.0","WARMUN, AS","FM-12","4","","76","86","","","","","72","","29.75","29.08","18.64","79","360","","2","","","","","","","","","","","","","","","","","","","","","","","","","","","","","","","","","","","","","","","","","","","","","","","","","","","","","","","","","","","","","","","","","","","","","","","","","","","","","","","","","","","","","","","","","","","SYN082AAXX  14014 94213 11/80 23602 10300 20243 39847 40073 60054 70200 82080 333 70054;","","","","","","","","","",""
"94213099999","2005-01-14T15:00:00","-17.0166666","128.2166666","205.0","WARMUN, AS","FM-12","4","","67","96","","","","","39","","29.64","28.98","18.64","76","050","","5","","","","","","","","","","","","","","","","","","","","","","","","","","","","","","","","","","","","","","","","","","","","","","","","","","","","","","","","","","","","","","","","","","","","","","","","","","","","","","","","","","","","","","","","","","","SYN072AAXX  14074 94213 11980 30504 10358 20196 39813 40038 60001 70300 83201;","","","","","","","","","",""
"94213099999","2005-01-14T18:00:00","-17.0166666","128.2166666","205.0","WARMUN, AS","FM-12","4","","68","92","","","","","45","","29.65","28.99","18.64","75","050","","2","","","","","","","","","","","","","","","","","","","","","","","","","","","","","","","","","","","","","","","","","","","","","","","","","","","","","","","","","","","","","","","","","","","","","","","","","","","","","","","","","","","","","","","","","","","SYN066AAXX  14104 94213 41/80 10502 10335 20200 39816 40042 70100 81040;","","","","","","","","","",""
"94213099999","2005-01-15T06:00:00","-17.0166666","128.2166666","205.0","WARMUN, AS","FM-12","4","","75","80","","","","","86","","29.74","29.07","13.67","76","000","","0","","","","","","","","","","","","","","","","","","","","","","","","","","","","","","","","","","","","","","","","","","","","","","","","","","","","","","","","","","","","","","","","","","","","","","","","","","","","","","","","","","","","","","","","","","","SYN066AAXX  14224 94213 41/72 10000 10265 20239 39844 40070 70200 80008;","","","","","","","","","",""
"94213099999","2005-01-15T09:00:00","-17.0166666","128.2166666","205.0","WARMUN, AS","FM-12","4","","73","90","","","","","58","","29.75","29.08","18.64","78","310","","2","","","","","","","","","","","","","","","","","","","","","","","","","","","","","","","","","","","","","","","","","","","","","","","","","","","","","","","","","","","","","","","","","","","","","","","","","","","","","","","","","","","","","","","","","","","SYN082AAXX  15014 94213 11/80 13102 10321 20227 39848 40074 60004 70122 80001 333 70000;","","","","","","","","","",""
"94213099999","2005-01-15T15:00:00","-17.0166666","128.2166666","205.0","WARMUN, AS","FM-12","4","","64","99","","","","","32","","29.66","28.99","18.64","75","020","","5","","","","","","","","","","","","","","","","","","","","","","","","","","","","","","","","","","","","","","","","","","","","","","","","","","","","","","","","","","","","","","","","","","","","","","","","","","","","","","","","","","","","","","","","","","","SYN072AAXX  15074 94213 11880 30204 10371 20179 39818 40044 60001 70322 83200;","","","","","","","","","",""
"94213099999","2005-01-15T18:00:00","-17.0166666","128.2166666","205.0","WARMUN, AS","FM-12","4","","66","94","","","","","39","CLR:00","29.68","29.02","18.64","75","360","","1","","","","","","","","","","","","","","","","","","","","","","","","","","","","","","","","","","","","","","","","","","","","","","","","","","","","","","","","","","","","","","","","","","","","","","","","","","","","","","","","","","","","","","","","","","","SYN060AAXX  15104 94213 41980 03601 10345 20187 39826 40052 70100;","","","","","","","","","",""
"94213099999","2005-01-16T06:00:00","-17.0166666","128.2166666","205.0","WARMUN, AS","FM-12","4","","75","83","","","","","77","","29.78","29.11","13.67","77","000","","0","","","","","","","","","","","","","","","","","","","","","","","","","","","","","","","","","","","","","","","","","","","","","","","","","","","","","","","","","","","","","","","","","","","","","","","","","","","","","","","","","","","","","","","","","","","SYN066AAXX  15224 94213 41/72 10000 10284 20239 39858 40084 70200 81070;","","","","","","","","","",""
"94213099999","2005-01-16T09:00:00","-17.0166666","128.2166666","205.0","WARMUN, AS","FM-12","4","","72","93","","","","","50","","29.80","29.13","18.64","78","160","","1","","","","","","","","","","","","","","","","","","","","","","","","","","","","","","","","","","","","","","","","","","","","","","","","","","","","","","","","","","","","","","","","","","","","","","","","","","","","","","","","","","","","","","","","","","","SYN082AAXX  16014 94213 11/80 11601 10341 20223 39865 40092 60004 70200 81070 333 70000;","","","","","","","","","",""
"94213099999","2005-01-16T15:00:00","-17.0166666","128.2166666","205.0","WARMUN, AS","FM-12","4","","70","101","","","","","36","","29.69","29.03","18.64","79","160","","1","","","","","","","","","","","","","","","","","","","","","","","","","","","","","","","","","","","","","","","","","","","","","","","","","","","","","","","","","","","","","","","","","","","","","","","","","","","","","","","","","","","","","","","","","","","SYN072AAXX  16074 94213 11880 61601 10385 20209 39829 40055 60001 70322 82284;","","","","","","","","","",""
"94213099999","2005-01-16T18:00:00","-17.0166666","128.2166666","205.0","WARMUN, AS","FM-12","4","","66","96","","","","","37","","29.72","29.05","18.64","75","160","","2","","","","","","","","","","","","","","","","","","","","","","","","","","","","","","","","","","","","","","","","","","","","","","","","","","","","","","","","","","","","","","","","","","","","","","","","","","","","","","","","","","","","","","","","","","","SYN066AAXX  16104 94213 41/80 61602 10356 20188 39838 40064 70222 82044;","","","","","","","","","",""
"94213099999","2005-01-17T06:00:00","-17.0166666","128.2166666","205.0","WARMUN, AS","FM-12","4","","73","83","","","","","73","","29.85","29.18","15.53","76","000","","0","","","","","","","","","","","","","","","","","","","","","","","","","","","","","","","","","","","","","","","","","","","","","","","","","","","","","","","","","","","","","","","","","","","","","","","","","","","","","","","","","","","","","","","","","","","SYN066AAXX  16224 94213 41575 60000 10283 20230 39880 40107 70222 85509;","","","","","","","","","",""
"94213099999","2005-01-17T09:00:00","-17.0166666","128.2166666","205.0","WARMUN, AS","FM-12","4","","71","96","","","","","44","","29.86","29.19","18.64","78","090","","1","","","","","","","","","","","","","","","","","","","","","","","","","","","","","","","","","","","","","","","","","","","","","","","","","","","","","","","","","","","","","","","","","","","","","","","","","","","","","","","","","","","","","","","","","","","SYN082AAXX  17014 94213 11/80 10901 10356 20214 39886 40113 60004 70100 80001 333 70000;","","","","","","","","","",""
"94213099999","2005-01-17T15:00:00","-17.0166666","128.2166666","205.0","WARMUN, AS","FM-12","4","","65","101","","","","","31","","29.72","29.05","18.64","76","130","","2","","","","","","","","","","","","","","","","","","","","","","","","","","","","","","","","","","","","","","","","","","","","","","","","","","","","","","","","","","","","","","","","","","","","","","","","","","","","","","","","","","","","","","","","","","","SYN072AAXX  17074 94213 11/80 31302 10385 20184 39837 40063 60001 70300 83060;","","","","","","","","","",""
"94213099999","2005-01-17T18:00:00","-17.0166666","128.2166666","205.0","WARMUN, AS","FM-12","4","","61","98","","","","","29","","29.75","29.08","15.53","73","090","","3","","","","","","","","","","","","","","","","","","","","","","","","","","","","","","","","","","","","","","","","","","","","","","","","","","","","","","","","","","","","","","","","","","","","","","","","","","","","","","","","","","","","","","","","","","","SYN066AAXX  17104 94213 41/75 80903 10365 20159 39847 40073 70322 80006;","","","","","","","","","",""
"94213099999","2005-01-18T06:00:00","-17.0166666","128.2166666","205.0","WARMUN, AS","FM-12","4","","69","81","","||HZ","","","68","","29.83","29.15","3.11","73","000","","0","","","","","","","","","","","","","","","","","","","","","","","","","","","","","","","","","","","","","","","","","","","","","","","","","","","","","","","","","","","","","","","","","","","","","","","","","","","","","","","","","","","","","","","","","","","SYN066AAXX  17224 94213 41550 80000 10270 20206 39873 40100 70522 88600;","","","","","","","","","",""
"94213099999","2005-01-18T09:00:00","-17.0166666","128.2166666","205.0","WARMUN, AS","FM-12","4","","63","96","","","","","34","","29.85","29.18","9.32","74","130","","5","","","","","","","","","","","","","","","","","","","","","","","","","","","","","","","","","","","","","","","","","","","","","","","","","","","","","","","","","","","","","","","","","","","","","","","","","","","","","","","","","","","","","","","","","","","SYN082AAXX  18014 94213 11565 81304 10355 20174 39882 40109 60004 70222 88600 333 70000;","","","","","","","","","",""
"94213099999","2005-01-18T15:00:00","-17.0166666","128.2166666","205.0","WARMUN, AS","FM-12","4","","65","101","","","","","32","","29.72","29.05","15.53","76","130","","3","","","","","","","","","","","","","","","","","","","","","","","","","","","","","","","","","","","","","","","","","","","","","","","","","","","","","","","","","","","","","","","","","","","","","","","","","","","","","","","","","","","","","","","","","","","SYN072AAXX  18074 94213 11875 51303 10381 20185 39837 40063 60001 70122 83205;","","","","","","","","","",""
"94213099999","2005-01-18T18:00:00","-17.0166666","128.2166666","205.0","WARMUN, AS","FM-12","4","","60","97","","","","","29","","29.74","29.07","15.53","72","090","","2","","","","","","","","","","","","","","","","","","","","","","","","","","","","","","","","","","","","","","","","","","","","","","","","","","","","","","","","","","","","","","","","","","","","","","","","","","","","","","","","","","","","","","","","","","","SYN066AAXX  18104 94213 41875 60902 10361 20156 39845 40071 70322 82504;","","","","","","","","","",""
"94213099999","2005-01-19T06:00:00","-17.0166666","128.2166666","205.0","WARMUN, AS","FM-12","4","","71","80","","","","","75","","29.79","29.12","9.32","74","000","","0","","","","","","","","","","","","","","","","","","","","","","","","","","","","","","","","","","","","","","","","","","","","","","","","","","","","","","","","","","","","","","","","","","","","","","","","","","","","","","","","","","","","","","","","","","","SYN066AAXX  18224 94213 41465 60000 10264 20216 39861 40088 70222 83508;","","","","","","","","","",""
"94213099999","2005-01-19T09:00:00","-17.0166666","128.2166666","205.0","WARMUN, AS","FM-12","4","","67","96","","","","","38","","29.80","29.13","18.64","76","050","","2","","","","","","","","","","","","","","","","","","","","","","","","","","","","","","","","","","","","","","","","","","","","","","","","","","","","","","","","","","","","","","","","","","","","","","","","","","","","","","","","","","","","","","","","","","","SYN082AAXX  19014 94213 11/80 40502 10355 20192 39864 40091 60004 70122 80004 333 70000;","","","","","","","","","",""
"94213099999","2005-01-19T15:00:00","-17.0166666","128.2166666","205.0","WARMUN, AS","FM-12","4","","64","105","","","","","27","","29.64","28.98","18.64","76","160","","2","","","","","","","","","","","","","","","","","","","","","","","","","","","","","","","","","","","","","","","","","","","","","","","","","","","","","","","","","","","","","","","","","","","","","","","","","","","","","","","","","","","","","","","","","","","SYN072AAXX  19074 94213 11980 41602 10405 20178 39813 40038 60001 70222 83281;","","","","","","","","","",""
"94213099999","2005-01-19T18:00:00","-17.0166666","128.2166666","205.0","WARMUN, AS","FM-12","4","","67","100","","","","","34","","29.67","29.00","18.64","77","050","","1","","","","","","","","","","","","","","","","","","","","","","","","","","","","","","","","","","","","","","","","","","","","","","","","","","","","","","","","","","","","","","","","","","","","","","","","","","","","","","","","","","","","","","","","","","","SYN066AAXX  19104 94213 41880 80501 10378 20194 39822 40048 70322 81241;","","","","","","","","","",""
"94213099999","2005-01-20T06:00:00","-17.0166666","128.2166666","205.0","WARMUN, AS","FM-12","4","","75","85","","","","","72","","29.79","29.12","12.43","78","000","","0","","","","","","","","","","","","","","","","","","","","","","","","","","","","","","","","","","","","","","","","","","","","","","","","","","","","","","","","","","","","","","","","","","","","","","","","","","","","","","","","","","","","","","","","","","","SYN066AAXX  19224 94213 41/70 70000 10293 20238 39862 40089 70222 80008;","","","","","","","","","",""
"94213099999","2005-01-20T09:00:00","-17.0166666","128.2166666","205.0","WARMUN, AS","FM-12","4","","74","92","","","","","55","","29.78","29.11","18.64","79","130","","2","","","","","","","","","","","","","","","","","","","","","","","","","","","","","","","","","","","","","","","","","","","","","","","","","","","","","","","","","","","","","","","","","","","","","","","","","","","","","","","","","","","","","","","","","","","SYN082AAXX  20014 94213 11/80 71302 10335 20233 39858 40084 60004 70222 80005 333 70000;","","","","","","","","","",""
"94213099999","2005-01-20T15:00:00","-17.0166666","128.2166666","205.0","WARMUN, AS","FM-12","4","","60","106","","","","","22","","29.73","29.06","18.64","75","020","","2","","","","","","","","","","","","","","","","","","","","","","","","","","","","","","","","","","","","","","","","","","","","","","","","","","","","","","","","","","","","","","","","","","","","","","","","","","","","","","","","","","","","","","","","","","","SYN072AAXX  20074 94213 11/80 50202 10412 20158 39841 40067 60001 70122 84064;","","","","","","","","","",""
"94213099999","2005-01-20T18:00:00","-17.0166666","128.2166666","205.0","WARMUN, AS","FM-12","4","","67","99","","","","","35","","29.66","28.99","18.64","77","180","","2","","","","","","","","","","","","","","","","","","","","","","","","","","","","","","","","","","","","","","","","","","","","","","","","","","","","","","","","","","","","","","","","","","","","","","","","","","","","","","","","","","","","","","","","","","","SYN066AAXX  20104 94213 41/80 61802 10370 20193 39818 40044 70322 84094;","","","","","","","","","",""
"94213099999","2005-01-21T06:00:00","-17.0166666","128.2166666","205.0","WARMUN, AS","FM-12","4","","76","83","","","","","79","","29.75","29.09","12.43","78","000","","0","","","","","","","","","","","","","","","","","","","","","","","","","","","","","","","","","","","","","","","","","","","","","","","","","","","","","","","","","","","","","","","","","","","","","","","","","","","","","","","","","","","","","","","","","","","SYN066AAXX  20224 94213 41/70 60000 10286 20246 39850 40076 70122 80008;","","","","","","","","","",""
"94213099999","2005-01-21T09:00:00","-17.0166666","128.2166666","205.0","WARMUN, AS","FM-12","4","","70","96","","","","","43","","29.80","29.13","18.64","78","130","","1","","","","","","","","","","","","","","","","","","","","","","","","","","","","","","","","","","","","","","","","","","","","","","","","","","","","","","","","","","","","","","","","","","","","","","","","","","","","","","","","","","","","","","","","","","","SYN082AAXX  21014 94213 11/80 61301 10355 20211 39864 40091 60004 70222 80004 333 70000;","","","","","","","","","",""
"94213099999","2005-01-21T15:00:00","-17.0166666","128.2166666","205.0","WARMUN, AS","FM-12","4","","68","99","","","","","37","","29.63","28.97","18.64","77","130","","1","","","","","","","","","","","","","","","","","","","","","","","","","","","","","","","","","","","","","","","","","","","","","","","","","","","","","","","","","","","","","","","","","","","","","","","","","","","","","","","","","","","","","","","","","","","SYN072AAXX  21074 94213 11880 61301 10370 20199 39810 40035 60001 70322 84861;","","","","","","","","","",""
"94213099999","2005-01-21T18:00:00","-17.0166666","128.2166666","205.0","WARMUN, AS","FM-12","4","","67","92","","||DZ","","","44","","29.70","29.04","6.21","75","000","","0","","","","","","","","","","","","","","","","","","","","","","","","","","","","","","","","","","","","","","","","","","","","","","","","","","","","","","","","","","","","","","","","","","","","","","","","","","","","","","","","","","","","","","","","","","","SYN066AAXX  21104 94213 41660 70000 10335 20196 39833 40059 75122 87300;","","","","","","","","","",""
"94213099999","2005-01-22T06:00:00","-17.0166666","128.2166666","205.0","WARMUN, AS","FM-12","4","","70","79","","","","","74","","29.74","29.07","13.67","73","000","","0","","","","","","","","","","","","","","","","","","","","","","","","","","","","","","","","","","","","","","","","","","","","","","","","","","","","","","","","","","","","","","","","","","","","","","","","","","","","","","","","","","","","","","","","","","","SYN066AAXX  21224 94213 41472 70000 10263 20213 39844 40070 70122 82672;","","","","","","","","","",""
"94213099999","2005-01-22T09:00:00","-17.0166666","128.2166666","205.0","WARMUN, AS","FM-12","4","","70","92","","","","","49","","29.80","29.13","18.64","77","180","","2","","","","","","","","","","","","","","","","","","","","","","","","","","","","","","","","","","","","","","","","","","","","","","","","","","","","","","","","","","","","","","","","","","","","","","","","","","","","","","","","","","","","","","","","","","","SYN082AAXX  22014 94213 11680 71802 10332 20211 39866 40093 69944 70222 82281 333 70004;","","","","","","","","","",""
"94213099999","2005-01-22T15:00:00","-17.0166666","128.2166666","205.0","WARMUN, AS","FM-12","4","","67","99","","","","","35","","29.70","29.04","18.64","77","270","","3","","","","","","","","","","","","","","","","","","","","","","","","","","","","","","","","","","","","","","","","","","","","","","","","","","","","","","","","","","","","","","","","","","","","","","","","","","","","","","","","","","","","","","","","","","","SYN072AAXX  22074 94213 11/80 52703 10375 20194 39833 40059 60001 70122 83064;","","","","","","","","","",""
"94213099999","2005-01-22T18:00:00","-17.0166666","128.2166666","205.0","WARMUN, AS","FM-12","4","","70","94","","","","","46","","29.71","29.05","15.53","77","310","","1","","","","","","","","","","","","","","","","","","","","","","","","","","","","","","","","","","","","","","","","","","","","","","","","","","","","","","","","","","","","","","","","","","","","","","","","","","","","","","","","","","","","","","","","","","","SYN066AAXX  22104 94213 41775 53101 10345 20213 39836 40062 70222 83584;","","","","","","","","","",""
"94213099999","2005-01-23T06:00:00","-17.0166666","128.2166666","205.0","WARMUN, AS","FM-12","4","","72","83","","","","","71","","29.82","29.15","12.43","75","000","","0","","","","","","","","","","","","","","","","","","","","","","","","","","","","","","","","","","","","","","","","","","","","","","","","","","","","","","","","","","","","","","","","","","","","","","","","","","","","","","","","","","","","","","","","","","","SYN066AAXX  22224 94213 41570 70000 10282 20225 39870 40097 70222 87500;","","","","","","","","","",""
"94213099999","2005-01-23T09:00:00","-17.0166666","128.2166666","205.0","WARMUN, AS","FM-12","4","","72","90","","","","","55","","29.79","29.12","18.64","77","270","","3","","","","","","","","","","","","","","","","","","","","","","","","","","","","","","","","","","","","","","","","","","","","","","","","","","","","","","","","","","","","","","","","","","","","","","","","","","","","","","","","","","","","","","","","","","","SYN082AAXX  23014 94213 11680 62703 10325 20223 39862 40089 60004 70122 83181 333 70000;","","","","","","","","","",""
"94213099999","2005-01-23T15:00:00","-17.0166666","128.2166666","205.0","WARMUN, AS","FM-12","4","","63","103","","","","","27","","29.65","28.98","18.64","75","310","","1","","","","","","","","","","","","","","","","","","","","","","","","","","","","","","","","","","","","","","","","","","","","","","","","","","","","","","","","","","","","","","","","","","","","","","","","","","","","","","","","","","","","","","","","","","","SYN072AAXX  23074 94213 11980 63101 10395 20174 39814 40039 60001 70222 82254;","","","","","","","","","",""
"94213099999","2005-01-23T18:00:00","-17.0166666","128.2166666","205.0","WARMUN, AS","FM-12","4","","67","99","","","","","36","","29.66","28.99","18.64","77","360","","1","","","","","","","","","","","","","","","","","","","","","","","","","","","","","","","","","","","","","","","","","","","","","","","","","","","","","","","","","","","","","","","","","","","","","","","","","","","","","","","","","","","","","","","","","","","SYN066AAXX  23104 94213 41/80 63601 10370 20197 39817 40043 70222 83084;","","","","","","","","","",""
"94213099999","2005-01-24T06:00:00","-17.0166666","128.2166666","205.0","WARMUN, AS","FM-12","4","","73","81","","","","","76","","29.74","29.07","14.91","75","160","","1","","","","","","","","","","","","","","","","","","","","","","","","","","","","","","","","","","","","","","","","","","","","","","","","","","","","","","","","","","","","","","","","","","","","","","","","","","","","","","","","","","","","","","","","","","","SYN066AAXX  23224 94213 41/74 41601 10272 20226 39845 40071 70100 80004;","","","","","","","","","",""
"94213099999","2005-01-24T09:00:00","-17.0166666","128.2166666","205.0","WARMUN, AS","FM-12","4","","66","97","","","","","36","","29.75","29.09","16.78","76","230","","7","","","","","","","","","","","","","","","","","","","","","","","","","","","","","","","","","","","","","","","","","","","","","","","","","","","","","","","","","","","","","","","","","","","","","","","","","","","","","","","","","","","","","","","","","","","SYN082AAXX  24014 94213 11/77 12306 10363 20188 39850 40076 60004 70200 81040 333 70000;","","","","","","","","","",""
"94213099999","2005-01-24T15:00:00","-17.0166666","128.2166666","205.0","WARMUN, AS","FM-12","4","","60","108","","","","","21","","29.61","28.95","18.64","75","130","","3","","","","","","","","","","","","","","","","","","","","","","","","","","","","","","","","","","","","","","","","","","","","","","","","","","","","","","","","","","","","","","","","","","","","","","","","","","","","","","","","","","","","","","","","","","","SYN072AAXX  24074 94213 11880 51303 10420 20156 39803 40028 60001 70311 84204;","","","","","","","","","",""
"94213099999","2005-01-24T18:00:00","-17.0166666","128.2166666","205.0","WARMUN, AS","FM-12","4","","63","98","","","","","32","","29.61","28.95","18.64","74","130","","1","","","","","","","","","","","","","","","","","","","","","","","","","","","","","","","","","","","","","","","","","","","","","","","","","","","","","","","","","","","","","","","","","","","","","","","","","","","","","","","","","","","","","","","","","","","SYN066AAXX  24104 94213 41/80 31301 10365 20172 39803 40028 70100 80004;","","","","","","","","","",""
"94213099999","2005-01-25T06:00:00","-17.0166666","128.2166666","205.0","WARMUN, AS","FM-12","4","","71","85","","","","","63","","29.68","29.02","14.91","75","230","","1","","","","","","","","","","","","","","","","","","","","","","","","","","","","","","","","","","","","","","","","","","","","","","","","","","","","","","","","","","","","","","","","","","","","","","","","","","","","","","","","","","","","","","","","","","","SYN066AAXX  24224 94213 41/74 32301 10295 20216 39826 40052 70200 80004;","","","","","","","","","",""
"94213099999","2005-01-25T09:00:00","-17.0166666","128.2166666","205.0","WARMUN, AS","FM-12","4","","70","98","","","","","41","","29.68","29.02","18.64","78","310","","5","","","","","","","","","","","","","","","","","","","","","","","","","","","","","","","","","","","","","","","","","","","","","","","","","","","","","","","","","","","","","","","","","","","","","","","","","","","","","","","","","","","","","","","","","","","SYN082AAXX  25014 94213 11/80 33104 10365 20211 39826 40052 60004 70200 80004 333 70000;","","","","","","","","","",""
"94213099999","2005-01-25T15:00:00","-17.0166666","128.2166666","205.0","WARMUN, AS","FM-12","4","","57","106","","","","","20","","29.53","28.86","18.64","73","130","","2","","","","","","","","","","","","","","","","","","","","","","","","","","","","","","","","","","","","","","","","","","","","","","","","","","","","","","","","","","","","","","","","","","","","","","","","","","","","","","","","","","","","","","","","","","","SYN072AAXX  25074 94213 11980 41302 10410 20140 39774 49999 60001 70311 83204;","","","","","","","","","",""
"94213099999","2005-01-25T18:00:00","-17.0166666","128.2166666","205.0","WARMUN, AS","FM-12","4","","64","102","","","","","29","","29.52","28.86","18.64","76","050","","1","","","","","","","","","","","","","","","","","","","","","","","","","","","","","","","","","","","","","","","","","","","","","","","","","","","","","","","","","","","","","","","","","","","","","","","","","","","","","","","","","","","","","","","","","","","SYN066AAXX  25104 94213 41880 40501 10388 20176 39773 49998 70200 82280;","","","","","","","","","",""
"94213099999","2005-01-26T06:00:00","-17.0166666","128.2166666","205.0","WARMUN, AS","FM-12","4","","71","86","","","","","61","","29.62","28.96","12.43","76","000","","0","","","","","","","","","","","","","","","","","","","","","","","","","","","","","","","","","","","","","","","","","","","","","","","","","","","","","","","","","","","","","","","","","","","","","","","","","","","","","","","","","","","","","","","","","","","SYN066AAXX  25224 94213 41/70 60000 10300 20216 39807 40032 70222 80008;","","","","","","","","","",""
"94213099999","2005-01-26T09:00:00","-17.0166666","128.2166666","205.0","WARMUN, AS","FM-12","4","","74","98","","","","","46","","29.62","28.96","18.64","80","230","","3","","","","","","","","","","","","","","","","","","","","","","","","","","","","","","","","","","","","","","","","","","","","","","","","","","","","","","","","","","","","","","","","","","","","","","","","","","","","","","","","","","","","","","","","","","","SYN082AAXX  26014 94213 11/80 52303 10365 20232 39806 40031 60004 70122 80004 333 70000;","","","","","","","","","",""
"94213099999","2005-01-26T15:00:00","-17.0166666","128.2166666","205.0","WARMUN, AS","FM-12","4","","63","100","","","","","29","","29.49","28.83","18.64","75","310","","3","","","","","","","","","","","","","","","","","","","","","","","","","","","","","","","","","","","","","","","","","","","","","","","","","","","","","","","","","","","","","","","","","","","","","","","","","","","","","","","","","","","","","","","","","","","SYN072AAXX  26074 94213 11880 53103 10380 20173 39762 49986 60001 70322 83281;","","","","","","","","","",""
"94213099999","2005-01-26T18:00:00","-17.0166666","128.2166666","205.0","WARMUN, AS","FM-12","4","","66","96","","","","","37","","29.51","28.84","18.64","75","310","","3","","","","","","","","","","","","","","","","","","","","","","","","","","","","","","","","","","","","","","","","","","","","","","","","","","","","","","","","","","","","","","","","","","","","","","","","","","","","","","","","","","","","","","","","","","","SYN066AAXX  26104 94213 41/80 83103 10356 20188 39768 49992 70322 85084;","","","","","","","","","",""
"94213099999","2005-01-27T06:00:00","-17.0166666","128.2166666","205.0","WARMUN, AS","FM-12","4","","74","84","","","","","72","","29.63","28.97","12.43","77","000","","0","","","","","","","","","","","","","","","","","","","","","","","","","","","","","","","","","","","","","","","","","","","","","","","","","","","","","","","","","","","","","","","","","","","","","","","","","","","","","","","","","","","","","","","","","","","SYN066AAXX  26224 94213 41/70 70000 10287 20232 39809 40034 70192 84071;","","","","","","","","","",""
"94213099999","2005-01-27T09:00:00","-17.0166666","128.2166666","205.0","WARMUN, AS","FM-12","4","","72","95","","","","","48","","29.62","28.96","18.64","78","310","","1","","","","","","","","","","","","","","","","","","","","","","","","","","","","","","","","","","","","","","","","","","","","","","","","","","","","","","","","","","","","","","","","","","","","","","","","","","","","","","","","","","","","","","","","","","","SYN082AAXX  27014 94213 11/80 43101 10351 20225 39807 40032 60004 70111 80004 333 70000;","","","","","","","","","",""
"94213099999","2005-01-27T15:00:00","-17.0166666","128.2166666","205.0","WARMUN, AS","FM-12","4","","62","105","","||TS","","","25","","29.47","28.81","9.32","75","310","","5","","","","","","","","","","","","","","","","","","","","","","","","","","","","","","","","","","","","","","","","","","","","","","","","","","","","","","","","","","","","","","","","","","","","","","","","","","","","","","","","","","","","","","","","","","","SYN072AAXX  27074 94213 11765 73104 10405 20167 39756 49980 60001 71722 85990;","","","","","","","","","",""
"94213099999","2005-01-27T18:00:00","-17.0166666","128.2166666","205.0","WARMUN, AS","FM-12","4","","70","83s","","||RA","","","65","","29.59","28.92","7.46","74","310","","6","","","","","","","","","","","","","","","","","","","","","","","","","","","","","","","","","","","","","","","","","","","","","","","","","","","","","","","","","","","","","","","","","","","","","","","","","","","","","","","","","","","","","","","","","","","SYN066AAXX  27104 94213 41562 83105 10282 20210 39794 40019 76465 88600;","","","","","","","","","",""
"94213099999","2005-01-28T06:00:00","-17.0166666","128.2166666","205.0","WARMUN, AS","FM-12","4","","70","77","","||DZ","","","80","","29.67","29.01","6.21","72","270","","23","","","","","","","","","","","","","","","","","","","","","","","","","","","","","","","","","","","","","","","","","","","","","","","","","","","","","","","","","","","","","","","","","","","","","","","","","","","","","","","","","","","","","","","","","","","SYN066AAXX  27224 94213 41460 72720 10250 20212 39823 40049 75199 87600;","","","","","","","","","",""
"94213099999","2005-01-28T09:00:00","-17.0166666","128.2166666","205.0","WARMUN, AS","FM-12","4","","72","82","","","","","73","","29.67","29.00","14.91","75","090","","2","","","","","","","","","","","","","","","","","","","","","","","","","","","","","","","","","","","","","","","","","","","","","","","","","","","","","","","","","","","","","","","","","","","","","","","","","","","","","","","","","","","","","","","","","","","SYN082AAXX  28014 94213 11574 80902 10276 20223 39822 40048 60264 70352 86660 333 70259;","","","","","","","","","",""
"94213099999","2005-01-28T15:00:00","-17.0166666","128.2166666","205.0","WARMUN, AS","FM-12","4","","66","95","","","","","39","","29.56","28.89","18.64","75","310","","1","","","","","","","","","","","","","","","","","","","","","","","","","","","","","","","","","","","","","","","","","","","","","","","","","","","","","","","","","","","","","","","","","","","","","","","","","","","","","","","","","","","","","","","","","","","SYN072AAXX  28074 94213 11780 53101 10350 20191 39784 40009 60001 70122 82281;","","","","","","","","","",""
"94213099999","2005-01-28T18:00:00","-17.0166666","128.2166666","205.0","WARMUN, AS","FM-12","4","","73","89","","","","","59","","29.56","28.90","18.64","78","000","","0","","","","","","","","","","","","","","","","","","","","","","","","","","","","","","","","","","","","","","","","","","","","","","","","","","","","","","","","","","","","","","","","","","","","","","","","","","","","","","","","","","","","","","","","","","","SYN066AAXX  28104 94213 41680 30000 10317 20228 39785 40010 70211 81408;","","","","","","","","","",""
"94213099999","2005-01-29T06:00:00","-17.0166666","128.2166666","205.0","WARMUN, AS","FM-12","4","","79","81","","","","","92","","29.67","29.00","13.67","80","000","","0","","","","","","","","","","","","","","","","","","","","","","","","","","","","","","","","","","","","","","","","","","","","","","","","","","","","","","","","","","","","","","","","","","","","","","","","","","","","","","","","","","","","","","","","","","","SYN066AAXX  28224 94213 41/72 40000 10273 20259 39821 40047 70200 80005;","","","","","","","","","",""
"94213099999","2005-01-29T09:00:00","-17.0166666","128.2166666","205.0","WARMUN, AS","FM-12","4","","75","91","","","","","58","","29.71","29.04","18.64","79","360","","1","","","","","","","","","","","","","","","","","","","","","","","","","","","","","","","","","","","","","","","","","","","","","","","","","","","","","","","","","","","","","","","","","","","","","","","","","","","","","","","","","","","","","","","","","","","SYN082AAXX  29014 94213 11680 43601 10330 20237 39834 40060 60004 70211 81204 333 70000;","","","","","","","","","",""
"94213099999","2005-01-29T15:00:00","-17.0166666","128.2166666","205.0","WARMUN, AS","FM-12","4","","68","95","","||TS","","","41","","29.59","28.92","17.40","76","130","","1","","","","","","","","","","","","","","","","","","","","","","","","","","","","","","","","","","","","","","","","","","","","","","","","","","","","","","","","","","","","","","","","","","","","","","","","","","","","","","","","","","","","","","","","","","","SYN072AAXX  29074 94213 11678 81301 10351 20200 39794 40019 60001 71722 88900;","","","","","","","","","",""
"94213099999","2005-01-29T18:00:00","-17.0166666","128.2166666","205.0","WARMUN, AS","FM-12","4","","72","84","","","","","66","","29.65","28.98","18.64","76","050","","6","","","","","","","","","","","","","","","","","","","","","","","","","","","","","","","","","","","","","","","","","","","","","","","","","","","","","","","","","","","","","","","","","","","","","","","","","","","","","","","","","","","","","","","","","","","SYN066AAXX  29104 94213 41580 80505 10291 20220 39815 40040 70292 84576;","","","","","","","","","",""
"94213099999","2005-01-30T06:00:00","-17.0166666","128.2166666","205.0","WARMUN, AS","FM-12","4","","75","78","","","","","93","","29.69","29.02","13.67","76","000","","0","","","","","","","","","","","","","","","","","","","","","","","","","","","","","","","","","","","","","","","","","","","","","","","","","","","","","","","","","","","","","","","","","","","","","","","","","","","","","","","","","","","","","","","","","","","SYN066AAXX  29224 94213 41272 50000 10253 20240 39827 40053 70222 81671;","","","","","","","","","",""
"94213099999","2005-01-30T09:00:00","-17.0166666","128.2166666","205.0","WARMUN, AS","FM-12","4","","74","90","","","","","60","","29.70","29.03","18.64","79","130","","1","","","","","","","","","","","","","","","","","","","","","","","","","","","","","","","","","","","","","","","","","","","","","","","","","","","","","","","","","","","","","","","","","","","","","","","","","","","","","","","","","","","","","","","","","","","SYN082AAXX  30014 94213 11/80 51301 10320 20234 39832 40058 60004 70222 82064 333 70000;","","","","","","","","","",""
"94213099999","2005-01-30T15:00:00","-17.0166666","128.2166666","205.0","WARMUN, AS","FM-12","4","","66","105","","","","","28","","29.55","28.88","18.64","77","130","","1","","","","","","","","","","","","","","","","","","","","","","","","","","","","","","","","","","","","","","","","","","","","","","","","","","","","","","","","","","","","","","","","","","","","","","","","","","","","","","","","","","","","","","","","","","","SYN072AAXX  30074 94213 11880 61301 10405 20188 39781 40006 60001 70322 83804;","","","","","","","","","",""
"94213099999","2005-01-30T18:00:00","-17.0166666","128.2166666","205.0","WARMUN, AS","FM-12","4","","68","90","","","","","47","","29.57","28.90","18.64","75","310","","1","","","","","","","","","","","","","","","","","","","","","","","","","","","","","","","","","","","","","","","","","","","","","","","","","","","","","","","","","","","","","","","","","","","","","","","","","","","","","","","","","","","","","","","","","","","SYN066AAXX  30104 94213 41/80 83101 10325 20198 39788 40013 70322 88090;","","","","","","","","","",""
"94213099999","2005-01-31T06:00:00","-17.0166666","128.2166666","205.0","WARMUN, AS","FM-12","4","","74","81","","","","","78","","29.68","29.01","16.16","76","020","","2","","","","","","","","","","","","","","","","","","","","","","","","","","","","","","","","","","","","","","","","","","","","","","","","","","","","","","","","","","","","","","","","","","","","","","","","","","","","","","","","","","","","","","","","","","","SYN066AAXX  30224 94213 41476 80202 10275 20233 39824 40050 70322 88500;","","","","","","","","","",""
"94213099999","2005-01-31T09:00:00","-17.0166666","128.2166666","205.0","WARMUN, AS","FM-12","4","","","88","","","","","","","29.74","29.07","15.53","","020","","25","","","","","","","","","","","","","","","","","","","","","","","","","","","","","","","","","","","","","","","","","","","","","","","","","","","","","","","","","","","","","","","","","","","","","","","","","","","","","","","","","","","","","","","","","","","SYN076AAXX  31014 94213 11575 70222 10310 39844 40070 60004 70222 84449 333 70000;","","","","","","","","","",""
"94213099999","2005-01-31T15:00:00","-17.0166666","128.2166666","205.0","WARMUN, AS","FM-12","4","","71","97","","","","","43","","29.55","28.89","18.64","78","050","","23","","","","","","","","","","","","","","","","","","","","","","","","","","","","","","","","","","","","","","","","","","","","","","","","","","","","","","","","","","","","","","","","","","","","","","","","","","","","","","","","","","","","","","","","","","","SYN072AAXX  31074 94213 11780 20520 10360 20217 39782 40007 60001 70111 81204;","","","","","","","","","",""
"94213099999","2005-01-31T18:00:00","-17.0166666","128.2166666","205.0","WARMUN, AS","FM-12","4","","70","94","","","","","46","","29.58","28.92","17.40","77","020","","21","","","","","","","","","","","","","","","","","","","","","","","","","","","","","","","","","","","","","","","","","","","","","","","","","","","","","","","","","","","","","","","","","","","","","","","","","","","","","","","","","","","","","","","","","","","SYN066AAXX  31104 94213 41778 80218 10342 20209 39792 40017 70322 84430;","","","","","","","","","",""
"94213099999","2005-02-01T06:00:00","-17.0166666","128.2166666","205.0","WARMUN, AS","FM-12","4","","72","82","","","","","73","","29.68","29.02","16.16","75","000","","0","","","","","","","","","","","","","","","","","","","","","","","","","","","","","","","","","","","","","","","","","","","","","","","","","","","","","","","","","","","","","","","","","","","","","","","","","","","","","","","","","","","","","","","","","","","SYN066AAXX  31224 94213 41576 80000 10276 20224 39826 40052 70392 85578;","","","","","","","","","",""
"94213099999","2005-02-01T09:00:00","-17.0166666","128.2166666","205.0","WARMUN, AS","FM-12","4","","73","89","","","","","58","","29.68","29.02","16.78","78","020","","2","","","","","","","","","","","","","","","","","","","","","","","","","","","","","","","","","","","","","","","","","","","","","","","","","","","","","","","","","","","","","","","","","","","","","","","","","","","","","","","","","","","","","","","","","","","SYN082AAXX  01014 94213 11/77 60202 10318 20226 39826 40052 60004 70222 84072 333 70000;","","","","","","","","","",""
"94213099999","2005-02-01T15:00:00","-17.0166666","128.2166666","205.0","WARMUN, AS","FM-12","4","","69","99","","","","","38","","29.54","28.88","18.64","78","360","","3","","","","","","","","","","","","","","","","","","","","","","","","","","","","","","","","","","","","","","","","","","","","","","","","","","","","","","","","","","","","","","","","","","","","","","","","","","","","","","","","","","","","","","","","","","","SYN072AAXX  01074 94213 11780 73603 10370 20205 39779 40004 60001 70322 82258;","","","","","","","","","",""
"94213099999","2005-02-01T18:00:00","-17.0166666","128.2166666","205.0","WARMUN, AS","FM-12","4","","71","92","","","","","51","","29.60","28.94","6.21","77","050","","11","","","","","","","","","","","","","","","","","","","","","","","","","","","","","","","","","","","","","","","","","","","","","","","","","","","","","","","","","","","","","","","","","","","","","","","","","","","","","","","","","","","","","","","","","","","SYN066AAXX  01104 94213 41660 70510 10332 20219 39799 40025 70222 83990;","","","","","","","","","",""
"94213099999","2005-02-02T06:00:00","-17.0166666","128.2166666","205.0","WARMUN, AS","FM-12","4","","75","81","","","","","81","","29.72","29.05","12.43","77","000","","0","","","","","","","","","","","","","","","","","","","","","","","","","","","","","","","","","","","","","","","","","","","","","","","","","","","","","","","","","","","","","","","","","","","","","","","","","","","","","","","","","","","","","","","","","","","SYN066AAXX  01224 94213 41470 80000 10275 20239 39837 40064 70222 88500;","","","","","","","","","",""
"94213099999","2005-02-02T09:00:00","-17.0166666","128.2166666","205.0","WARMUN, AS","FM-12","4","","75","90","","","","","61","","29.73","29.06","12.43","79","000","","0","","","","","","","","","","","","","","","","","","","","","","","","","","","","","","","","","","","","","","","","","","","","","","","","","","","","","","","","","","","","","","","","","","","","","","","","","","","","","","","","","","","","","","","","","","","SYN082AAXX  02014 94213 11670 60000 10325 20239 39840 40067 60014 71522 85303 333 70010;","","","","","","","","","",""
"94213099999","2005-02-02T15:00:00","-17.0166666","128.2166666","205.0","WARMUN, AS","FM-12","4","","76","81","","","","","84","","29.61","28.95","18.64","77","000","","0","","","","","","","","","","","","","","","","","","","","","","","","","","","","","","","","","","","","","","","","","","","","","","","","","","","","","","","","","","","","","","","","","","","","","","","","","","","","","","","","","","","","","","","","","","","SYN072AAXX  02074 94213 11480 70000 10275 20246 39802 40028 69981 71522 87300;","","","","","","","","","",""
"94213099999","2005-02-02T18:00:00","-17.0166666","128.2166666","205.0","WARMUN, AS","FM-12","4","","78","83","","","","","85","","29.66","29.00","17.40","79","000","","0","","","","","","","","","","","","","","","","","","","","","","","","","","","","","","","","","","","","","","","","","","","","","","","","","","","","","","","","","","","","","","","","","","","","","","","","","","","","","","","","","","","","","","","","","","","SYN066AAXX  02104 94213 41478 80000 10285 20257 39819 40045 70222 86911;","","","","","","","","","",""
"94213099999","2005-02-03T06:00:00","-17.0166666","128.2166666","205.0","WARMUN, AS","FM-12","4","","73","77","","","","","88","","29.79","29.12","15.53","74","000","","0","","","","","","","","","","","","","","","","","","","","","","","","","","","","","","","","","","","","","","","","","","","","","","","","","","","","","","","","","","","","","","","","","","","","","","","","","","","","","","","","","","","","","","","","","","","SYN066AAXX  02224 94213 41375 80000 10250 20228 39860 40087 70222 888//;","","","","","","","","","",""
"94213099999","2005-02-03T09:00:00","-17.0166666","128.2166666","205.0","WARMUN, AS","FM-12","4","","72","81","","","","","76","","29.80","29.13","15.53","75","050","","6","","","","","","","","","","","","","","","","","","","","","","","","","","","","","","","","","","","","","","","","","","","","","","","","","","","","","","","","","","","","","","","","","","","","","","","","","","","","","","","","","","","","","","","","","","","SYN082AAXX  03014 94213 11475 80505 10272 20225 39864 40091 69984 71522 8693/ 333 70008;","","","","","","","","","",""
"94213099999","2005-02-03T15:00:00","-17.0166666","128.2166666","205.0","WARMUN, AS","FM-12","4","","68","90","","","","","49","","29.64","28.97","9.32","75","020","","11","","","","","","","","","","","","","","","","","","","","","","","","","","","","","","","","","","","","","","","","","","","","","","","","","","","","","","","","","","","","","","","","","","","","","","","","","","","","","","","","","","","","","","","","","","","SYN072AAXX  03074 94213 11665 80210 10320 20199 39812 40038 60001 70222 8753/;","","","","","","","","","",""
"94213099999","2005-02-03T18:00:00","-17.0166666","128.2166666","205.0","WARMUN, AS","FM-12","4","","65","86","","||HZ","","","49","","29.69","29.02","6.21","72","050","","6","","","","","","","","","","","","","","","","","","","","","","","","","","","","","","","","","","","","","","","","","","","","","","","","","","","","","","","","","","","","","","","","","","","","","","","","","","","","","","","","","","","","","","","","","","","SYN066AAXX  03104 94213 41660 70505 10302 20183 39828 40054 70522 84589;","","","","","","","","","",""
"94213099999","2005-02-04T06:00:00","-17.0166666","128.2166666","205.0","WARMUN, AS","FM-12","4","","68","77","","||HZ","","","73","","29.73","29.06","6.21","71","000","","0","","","","","","","","","","","","","","","","","","","","","","","","","","","","","","","","","","","","","","","","","","","","","","","","","","","","","","","","","","","","","","","","","","","","","","","","","","","","","","","","","","","","","","","","","","","SYN066AAXX  03224 94213 41560 60000 10251 20200 39842 40069 70522 85506;","","","","","","","","","",""
"94213099999","2005-02-04T09:00:00","-17.0166666","128.2166666","205.0","WARMUN, AS","FM-12","4","","62","90","","","","","39","","29.75","29.08","18.64","72","130","","1","","","","","","","","","","","","","","","","","","","","","","","","","","","","","","","","","","","","","","","","","","","","","","","","","","","","","","","","","","","","","","","","","","","","","","","","","","","","","","","","","","","","","","","","","","","SYN082AAXX  04014 94213 11780 61301 10325 20168 39846 40073 60004 70222 84581 333 70000;","","","","","","","","","",""
"94213099999","2005-02-04T15:00:00","-17.0166666","128.2166666","205.0","WARMUN, AS","FM-12","4","","60","99","","","","","28","","29.62","28.95","14.91","73","360","","3","","","","","","","","","","","","","","","","","","","","","","","","","","","","","","","","","","","","","","","","","","","","","","","","","","","","","","","","","","","","","","","","","","","","","","","","","","","","","","","","","","","","","","","","","","","SYN072AAXX  04074 94213 11874 83603 10370 20158 39805 40031 60001 70322 84564;","","","","","","","","","",""
"94213099999","2005-02-04T18:00:00","-17.0166666","128.2166666","205.0","WARMUN, AS","FM-12","4","","61","92","","","","","35","","29.66","29.00","12.43","72","360","","2","","","","","","","","","","","","","","","","","","","","","","","","","","","","","","","","","","","","","","","","","","","","","","","","","","","","","","","","","","","","","","","","","","","","","","","","","","","","","","","","","","","","","","","","","","","SYN066AAXX  04104 94213 41870 83602 10336 20162 39819 40045 70222 88500;","","","","","","","","","",""
"94213099999","2005-02-05T06:00:00","-17.0166666","128.2166666","205.0","WARMUN, AS","FM-12","4","","70","75","","","","","85","","29.73","29.05","9.32","72","000","","0","","","","","","","","","","","","","","","","","","","","","","","","","","","","","","","","","","","","","","","","","","","","","","","","","","","","","","","","","","","","","","","","","","","","","","","","","","","","","","","","","","","","","","","","","","","SYN060AAXX  04224 94213 41/65 40000 10237 20211 39838 40067 80005;","","","","","","","","","",""
"94213099999","2005-02-05T09:00:00","-17.0166666","128.2166666","205.0","WARMUN, AS","FM-12","4","","72","90","","","","","55","","","","18.64","","150","","6","","","","","","","","","","","","","","","","","","","","","","","","","","","","","","","","","","","","","","","","","","","","","","","","","","","","","","","","","","","","","","","","","","","","","","","","","","","","","","","","","","","","","","","","","","","SYN070AAXX  05014 94213 11/80 41505 10324 20223 60004 70211 80008 333 70000;","","","","","","","","","",""
"94213099999","2005-02-05T15:00:00","-17.0166666","128.2166666","205.0","WARMUN, AS","FM-12","4","","42s","101","","","","","13","","29.61","28.94","18.64","66","070","","6","","","","","","","","","","","","","","","","","","","","","","","","","","","","","","","","","","","","","","","","","","","","","","","","","","","","","","","","","","","","","","","","","","","","","","","","","","","","","","","","","","","","","","","","","","","SYN072AAXX  05074 94213 11/80 10705 10384 20053 39800 40026 60004 70111 80008;","","","","","","","","","",""
"94213099999","2005-02-05T18:00:00","-17.0166666","128.2166666","205.0","WARMUN, AS","FM-12","4","","54","93","","","","","27","","29.63","28.97","17.40","68","000","","0","","","","","","","","","","","","","","","","","","","","","","","","","","","","","","","","","","","","","","","","","","","","","","","","","","","","","","","","","","","","","","","","","","","","","","","","","","","","","","","","","","","","","","","","","","","SYN066AAXX  05104 94213 41/78 10000 10338 20125 39809 40035 70200 80008;","","","","","","","","","",""
"94213099999","2005-02-06T06:00:00","-17.0166666","128.2166666","205.0","WARMUN, AS","FM-12","4","","69","78","","","","","74","","29.76","29.09","15.53","72","000","","0","","","","","","","","","","","","","","","","","","","","","","","","","","","","","","","","","","","","","","","","","","","","","","","","","","","","","","","","","","","","","","","","","","","","","","","","","","","","","","","","","","","","","","","","","","","SYN066AAXX  05224 94213 41/75 10000 10255 20205 39851 40078 70200 80001;","","","","","","","","","",""
"94213099999","2005-02-06T09:00:00","-17.0166666","128.2166666","205.0","WARMUN, AS","FM-12","4","","69","93","","","","","45","","29.76","29.09","17.40","76","310","","1","","","","","","","","","","","","","","","","","","","","","","","","","","","","","","","","","","","","","","","","","","","","","","","","","","","","","","","","","","","","","","","","","","","","","","","","","","","","","","","","","","","","","","","","","","","SYN082AAXX  06014 94213 11/78 13101 10340 20206 39851 40078 60000 70200 80001 333 7////;","","","","","","","","","",""
"94213099999","2005-02-06T15:00:00","-17.0166666","128.2166666","205.0","WARMUN, AS","FM-12","4","","56","102","","","","","22","","29.63","28.96","18.64","72","230","","11","","","","","","","","","","","","","","","","","","","","","","","","","","","","","","","","","","","","","","","","","","","","","","","","","","","","","","","","","","","","","","","","","","","","","","","","","","","","","","","","","","","","","","","","","","","SYN072AAXX  06074 94213 11780 42310 10387 20133 39808 40034 60001 70300 84200;","","","","","","","","","",""
"94213099999","2005-02-06T18:00:00","-17.0166666","128.2166666","205.0","WARMUN, AS","FM-12","4","","58","96","","","","","28","","29.65","28.98","18.64","71","310","","5","","","","","","","","","","","","","","","","","","","","","","","","","","","","","","","","","","","","","","","","","","","","","","","","","","","","","","","","","","","","","","","","","","","","","","","","","","","","","","","","","","","","","","","","","","","SYN066AAXX  06104 94213 41980 43104 10356 20146 39815 40041 70200 82280;","","","","","","","","","",""
"94213099999","2005-02-07T06:00:00","-17.0166666","128.2166666","205.0","WARMUN, AS","FM-12","4","","70","77","","","","","80","","29.76","29.09","12.43","72","000","","0","","","","","","","","","","","","","","","","","","","","","","","","","","","","","","","","","","","","","","","","","","","","","","","","","","","","","","","","","","","","","","","","","","","","","","","","","","","","","","","","","","","","","","","","","","","SYN066AAXX  06224 94213 41/70 70000 10250 20212 39852 40079 70311 80006;","","","","","","","","","",""
"94213099999","2005-02-07T09:00:00","-17.0166666","128.2166666","205.0","WARMUN, AS","FM-12","4","","67","96","","","","","38","","29.77","29.10","18.64","76","310","","6","","","","","","","","","","","","","","","","","","","","","","","","","","","","","","","","","","","","","","","","","","","","","","","","","","","","","","","","","","","","","","","","","","","","","","","","","","","","","","","","","","","","","","","","","","","SYN082AAXX  07014 94213 11/80 43105 10355 20192 39853 40080 60004 70111 82038 333 70000;","","","","","","","","","",""
"94213099999","2005-02-07T15:00:00","-17.0166666","128.2166666","205.0","WARMUN, AS","FM-12","4","","55","103","","","","","20","","29.63","28.96","18.64","72","310","","7","","","","","","","","","","","","","","","","","","","","","","","","","","","","","","","","","","","","","","","","","","","","","","","","","","","","","","","","","","","","","","","","","","","","","","","","","","","","","","","","","","","","","","","","","","","SYN072AAXX  07074 94213 11980 43106 10395 20127 39807 40033 60001 70300 83206;","","","","","","","","","",""
"94213099999","2005-02-07T18:00:00","-17.0166666","128.2166666","205.0","WARMUN, AS","FM-12","4","","60","97","","","","","29","","29.65","28.98","18.64","72","310","","1","","","","","","","","","","","","","","","","","","","","","","","","","","","","","","","","","","","","","","","","","","","","","","","","","","","","","","","","","","","","","","","","","","","","","","","","","","","","","","","","","","","","","","","","","","","SYN066AAXX  07104 94213 41880 63101 10362 20155 39814 40040 70311 82844;","","","","","","","","","",""
"94213099999","2005-02-08T06:00:00","-17.0166666","128.2166666","205.0","WARMUN, AS","FM-12","4","","70","82","","","","","67","","29.71","29.04","15.53","74","000","","0","","","","","","","","","","","","","","","","","","","","","","","","","","","","","","","","","","","","","","","","","","","","","","","","","","","","","","","","","","","","","","","","","","","","","","","","","","","","","","","","","","","","","","","","","","","SYN066AAXX  07224 94213 41/75 20000 10280 20213 39835 40061 70111 81086;","","","","","","","","","",""
"94213099999","2005-02-08T09:00:00","-17.0166666","128.2166666","205.0","WARMUN, AS","FM-12","4","","68","95","","","","","41","","29.75","29.08","17.40","76","230","","2","","","","","","","","","","","","","","","","","","","","","","","","","","","","","","","","","","","","","","","","","","","","","","","","","","","","","","","","","","","","","","","","","","","","","","","","","","","","","","","","","","","","","","","","","","","SYN082AAXX  08014 94213 11/78 22302 10352 20200 39849 40076 60004 70200 80006 333 70000;","","","","","","","","","",""
"94213099999","2005-02-08T15:00:00","-17.0166666","128.2166666","205.0","WARMUN, AS","FM-12","4","","59","103","","","","","24","","29.61","28.94","18.64","74","270","","2","","","","","","","","","","","","","","","","","","","","","","","","","","","","","","","","","","","","","","","","","","","","","","","","","","","","","","","","","","","","","","","","","","","","","","","","","","","","","","","","","","","","","","","","","","","SYN072AAXX  08074 94213 11980 42702 10395 20151 39801 40027 60001 70300 83206;","","","","","","","","","",""
"94213099999","2005-02-08T18:00:00","-17.0166666","128.2166666","205.0","WARMUN, AS","FM-12","4","","68","96","","","","","40","","29.63","28.96","15.53","76","000","","0","","","","","","","","","","","","","","","","","","","","","","","","","","","","","","","","","","","","","","","","","","","","","","","","","","","","","","","","","","","","","","","","","","","","","","","","","","","","","","","","","","","","","","","","","","","SYN066AAXX  08104 94213 41875 50000 10355 20198 39807 40033 70322 84408;","","","","","","","","","",""
"94213099999","2005-02-09T06:00:00","-17.0166666","128.2166666","205.0","WARMUN, AS","FM-12","4","","70","82","","","","","67","","29.72","29.05","15.53","74","000","","0","","","","","","","","","","","","","","","","","","","","","","","","","","","","","","","","","","","","","","","","","","","","","","","","","","","","","","","","","","","","","","","","","","","","","","","","","","","","","","","","","","","","","","","","","","","SYN066AAXX  08224 94213 41575 70000 10280 20213 39839 40066 70322 81480;","","","","","","","","","",""
"94213099999","2005-02-09T09:00:00","-17.0166666","128.2166666","205.0","WARMUN, AS","FM-12","4","","65","103s","","","","","29","","29.75","29.08","17.40","77","130","","3","","","","","","","","","","","","","","","","","","","","","","","","","","","","","","","","","","","","","","","","","","","","","","","","","","","","","","","","","","","","","","","","","","","","","","","","","","","","","","","","","","","","","","","","","","","SYN082AAXX  09014 94213 11/78 21303 10396 20183 39848 40075 60024 70111 81088 333 70019;","","","","","","","","","",""
"94213099999","2005-02-09T15:00:00","-17.0166666","128.2166666","205.0","WARMUN, AS","FM-12","4","","73","91","","||TS","","","56","","29.63","28.96","18.64","78","270","","6","","","","","","","","","","","","","","","","","","","","","","","","","","","","","","","","","","","","","","","","","","","","","","","","","","","","","","","","","","","","","","","","","","","","","","","","","","","","","","","","","","","","","","","","","","","SYN072AAXX  09074 94213 11680 72705 10326 20227 39808 40034 60001 71711 82290;","","","","","","","","","",""
"94213099999","2005-02-09T18:00:00","-17.0166666","128.2166666","205.0","WARMUN, AS","FM-12","4","","70","92","","","","","49","","29.63","28.97","18.64","77","180","","1","","","","","","","","","","","","","","","","","","","","","","","","","","","","","","","","","","","","","","","","","","","","","","","","","","","","","","","","","","","","","","","","","","","","","","","","","","","","","","","","","","","","","","","","","","","SYN066AAXX  09104 94213 41680 61801 10331 20211 39809 40035 71592 83810;","","","","","","","","","",""
"94213099999","2005-02-10T06:00:00","-17.0166666","128.2166666","205.0","WARMUN, AS","FM-12","4","","73","79","","","","","82","","29.82","29.15","12.43","75","200","","1","","","","","","","","","","","","","","","","","","","","","","","","","","","","","","","","","","","","","","","","","","","","","","","","","","","","","","","","","","","","","","","","","","","","","","","","","","","","","","","","","","","","","","","","","","","SYN066AAXX  09224 94213 41470 82001 10260 20226 39872 40099 70392 8688/;","","","","","","","","","",""
"94213099999","2005-02-10T09:00:00","-17.0166666","128.2166666","205.0","WARMUN, AS","FM-12","4","","74","87","","","","","65","","29.82","29.15","16.78","78","130","","5","","","","","","","","","","","","","","","","","","","","","","","","","","","","","","","","","","","","","","","","","","","","","","","","","","","","","","","","","","","","","","","","","","","","","","","","","","","","","","","","","","","","","","","","","","","SYN082AAXX  10014 94213 11577 81304 10307 20233 39871 40098 69904 70222 8648/ 333 79999;","","","","","","","","","",""
"94213099999","2005-02-10T15:00:00","-17.0166666","128.2166666","205.0","WARMUN, AS","FM-12","4","","68","99","","","","","37","","29.68","29.01","18.64","77","310","","3","","","","","","","","","","","","","","","","","","","","","","","","","","","","","","","","","","","","","","","","","","","","","","","","","","","","","","","","","","","","","","","","","","","","","","","","","","","","","","","","","","","","","","","","","","","SYN072AAXX  10074 94213 11880 53103 10370 20199 39824 40050 60001 70222 84850;","","","","","","","","","",""
"94213099999","2005-02-10T18:00:00","-17.0166666","128.2166666","205.0","WARMUN, AS","FM-12","4","","67","95","","","","","40","","29.69","29.03","15.53","76","340","","7","","","","","","","","","","","","","","","","","","","","","","","","","","","","","","","","","","","","","","","","","","","","","","","","","","","","","","","","","","","","","","","","","","","","","","","","","","","","","","","","","","","","","","","","","","","SYN066AAXX  10104 94213 41875 73406 10349 20194 39829 40055 70322 87800;","","","","","","","","","",""
"94213099999","2005-02-11T06:00:00","-17.0166666","128.2166666","205.0","WARMUN, AS","FM-12","4","","73","79","","","","","81","CLR:00","29.81","29.14","12.43","75","000","","0","","","","","","","","","","","","","","","","","","","","","","","","","","","","","","","","","","","","","","","","","","","","","","","","","","","","","","","","","","","","","","","","","","","","","","","","","","","","","","","","","","","","","","","","","","","SYN060AAXX  10224 94213 41970 00000 10262 20227 39869 40096 70111;","","","","","","","","","",""
"94213099999","2005-02-11T09:00:00","-17.0166666","128.2166666","205.0","WARMUN, AS","FM-12","4","","70","95","","","","","45","","29.83","29.16","16.16","77","160","","6","","","","","","","","","","","","","","","","","","","","","","","","","","","","","","","","","","","","","","","","","","","","","","","","","","","","","","","","","","","","","","","","","","","","","","","","","","","","","","","","","","","","","","","","","","","SYN082AAXX  11014 94213 11876 31605 10348 20213 39875 40102 60004 70300 83900 333 70000;","","","","","","","","","",""
"94213099999","2005-02-11T15:00:00","-17.0166666","128.2166666","205.0","WARMUN, AS","FM-12","4","","71","105","","","","","33","","29.66","28.99","18.64","80","230","","2","","","","","","","","","","","","","","","","","","","","","","","","","","","","","","","","","","","","","","","","","","","","","","","","","","","","","","","","","","","","","","","","","","","","","","","","","","","","","","","","","","","","","","","","","","","SYN072AAXX  11074 94213 11880 42302 10406 20215 39818 40044 60001 70300 84900;","","","","","","","","","",""
"94213099999","2005-02-11T18:00:00","-17.0166666","128.2166666","205.0","WARMUN, AS","FM-12","4","","68","96","","||TS","","","40","","29.72","29.05","18.02","76","020","","5","","","","","","","","","","","","","","","","","","","","","","","","","","","","","","","","","","","","","","","","","","","","","","","","","","","","","","","","","","","","","","","","","","","","","","","","","","","","","","","","","","","","","","","","","","","SYN066AAXX  11104 94213 41779 70204 10356 20199 39836 40063 71711 83330;","","","","","","","","","",""
"94213099999","2005-02-12T06:00:00","-17.0166666","128.2166666","205.0","WARMUN, AS","FM-12","4","","76","78","","","","","94","","29.81","29.14","13.67","77","000","","0","","","","","","","","","","","","","","","","","","","","","","","","","","","","","","","","","","","","","","","","","","","","","","","","","","","","","","","","","","","","","","","","","","","","","","","","","","","","","","","","","","","","","","","","","","","SYN066AAXX  11224 94213 41/72 20000 10257 20247 39867 40094 70190 81088;","","","","","","","","","",""
"94213099999","2005-02-12T09:00:00","-17.0166666","128.2166666","205.0","WARMUN, AS","FM-12","4","","75","95","","","","","52","","29.82","29.15","15.53","80","130","","7","","","","","","","","","","","","","","","","","","","","","","","","","","","","","","","","","","","","","","","","","","","","","","","","","","","","","","","","","","","","","","","","","","","","","","","","","","","","","","","","","","","","","","","","","","","SYN082AAXX  12014 94213 11675 21306 10349 20238 39871 40098 60024 70290 81106 333 70020;","","","","","","","","","",""
"94213099999","2005-02-12T15:00:00","-17.0166666","128.2166666","205.0","WARMUN, AS","FM-12","4","","67","105","","","","","29","","29.66","29.00","18.64","78","000","","0","","","","","","","","","","","","","","","","","","","","","","","","","","","","","","","","","","","","","","","","","","","","","","","","","","","","","","","","","","","","","","","","","","","","","","","","","","","","","","","","","","","","","","","","","","","SYN072AAXX  12074 94213 11880 50000 10407 20193 39819 40045 60001 70391 84208;","","","","","","","","","",""
"94213099999","2005-02-12T18:00:00","-17.0166666","128.2166666","205.0","WARMUN, AS","FM-12","4","","67","96","","","","","39","","29.69","29.03","17.40","76","310","","3","","","","","","","","","","","","","","","","","","","","","","","","","","","","","","","","","","","","","","","","","","","","","","","","","","","","","","","","","","","","","","","","","","","","","","","","","","","","","","","","","","","","","","","","","","","SYN066AAXX  12104 94213 41778 73103 10357 20195 39829 40055 70322 842/6;","","","","","","","","","",""
"94213099999","2005-02-13T06:00:00","-17.0166666","128.2166666","205.0","WARMUN, AS","FM-12","4","","74","79","","","","","84","CLR:00","29.80","29.13","15.53","76","000","","0","","","","","","","","","","","","","","","","","","","","","","","","","","","","","","","","","","","","","","","","","","","","","","","","","","","","","","","","","","","","","","","","","","","","","","","","","","","","","","","","","","","","","","","","","","","SYN060AAXX  12224 94213 41975 00000 10260 20231 39865 40092 70000;","","","","","","","","","",""
"94213099999","2005-02-13T09:00:00","-17.0166666","128.2166666","205.0","WARMUN, AS","FM-12","4","","71","96","","","","","44","","29.81","29.14","17.40","78","160","","17","","","","","","","","","","","","","","","","","","","","","","","","","","","","","","","","","","","","","","","","","","","","","","","","","","","","","","","","","","","","","","","","","","","","","","","","","","","","","","","","","","","","","","","","","","","SYN082AAXX  13014 94213 11/78 11615 10355 20216 39867 40094 60004 70000 81030 333 70000;","","","","","","","","","",""
"94213099999","2005-02-13T15:00:00","-17.0166666","128.2166666","205.0","WARMUN, AS","FM-12","4","","54","107","","","","","18","","29.66","28.99","18.64","72","180","","23","","","","","","","","","","","","","","","","","","","","","","","","","","","","","","","","","","","","","","","","","","","","","","","","","","","","","","","","","","","","","","","","","","","","","","","","","","","","","","","","","","","","","","","","","","","SYN072AAXX  13074 94213 11880 51820 10415 20123 39818 40044 60001 70300 84460;","","","","","","","","","",""
"94213099999","2005-02-13T18:00:00","-17.0166666","128.2166666","205.0","WARMUN, AS","FM-12","4","","64","99","","","","","32","","29.68","29.02","17.40","75","000","","0","","","","","","","","","","","","","","","","","","","","","","","","","","","","","","","","","","","","","","","","","","","","","","","","","","","","","","","","","","","","","","","","","","","","","","","","","","","","","","","","","","","","","","","","","","","SYN066AAXX  13104 94213 41878 20000 10370 20179 39826 40052 70100 81580;","","","","","","","","","",""
"94213099999","2005-02-14T06:00:00","-17.0166666","128.2166666","205.0","WARMUN, AS","FM-12","4","","72","77","","","","","83","","29.83","29.16","12.43","74","000","","0","","","","","","","","","","","","","","","","","","","","","","","","","","","","","","","","","","","","","","","","","","","","","","","","","","","","","","","","","","","","","","","","","","","","","","","","","","","","","","","","","","","","","","","","","","","SYN066AAXX  13224 94213 41/70 20000 10250 20220 39874 40101 70300 80008;","","","","","","","","","",""
"94213099999","2005-02-14T09:00:00","-17.0166666","128.2166666","205.0","WARMUN, AS","FM-12","4","","74","92","","","","","56","","29.85","29.18","18.64","79","360","","11","","","","","","","","","","","","","","","","","","","","","","","","","","","","","","","","","","","","","","","","","","","","","","","","","","","","","","","","","","","","","","","","","","","","","","","","","","","","","","","","","","","","","","","","","","","SYN082AAXX  14014 94213 11680 23610 10335 20235 39882 40110 60004 70200 81280 333 70000;","","","","","","","","","",""
"94213099999","2005-02-14T15:00:00","-17.0166666","128.2166666","205.0","WARMUN, AS","FM-12","4","","58","102","","","","","23","","29.72","29.05","18.64","73","050","","11","","","","","","","","","","","","","","","","","","","","","","","","","","","","","","","","","","","","","","","","","","","","","","","","","","","","","","","","","","","","","","","","","","","","","","","","","","","","","","","","","","","","","","","","","","","SYN072AAXX  14074 94213 11980 60510 10390 20143 39839 40066 60001 70311 83260;","","","","","","","","","",""
"94213099999","2005-02-14T18:00:00","-17.0166666","128.2166666","205.0","WARMUN, AS","FM-12","4","","59","96","","","","","29","","29.75","29.08","17.40","72","360","","6","","","","","","","","","","","","","","","","","","","","","","","","","","","","","","","","","","","","","","","","","","","","","","","","","","","","","","","","","","","","","","","","","","","","","","","","","","","","","","","","","","","","","","","","","","","SYN066AAXX  14104 94213 41/78 13605 10355 20151 39849 40076 70100 81080;","","","","","","","","","",""
"94213099999","2005-02-15T06:00:00","-17.0166666","128.2166666","205.0","WARMUN, AS","FM-12","4","","67","75","","","","","75","CLR:00","29.86","29.19","15.53","70","000","","0","","","","","","","","","","","","","","","","","","","","","","","","","","","","","","","","","","","","","","","","","","","","","","","","","","","","","","","","","","","","","","","","","","","","","","","","","","","","","","","","","","","","","","","","","","","SYN060AAXX  14224 94213 41975 00000 10240 20193 39884 40112 70200;","","","","","","","","","",""
"94213099999","2005-02-15T09:00:00","-17.0166666","128.2166666","205.0","WARMUN, AS","FM-12","4","","62","96","","","","","33","CLR:00","29.87","29.20","18.64","73","090","","11","","","","","","","","","","","","","","","","","","","","","","","","","","","","","","","","","","","","","","","","","","","","","","","","","","","","","","","","","","","","","","","","","","","","","","","","","","","","","","","","","","","","","","","","","","","SYN076AAXX  15014 94213 11980 00910 10355 20168 39888 40116 60004 70200 333 70000;","","","","","","","","","",""
"94213099999","2005-02-15T15:00:00","-17.0166666","128.2166666","205.0","WARMUN, AS","FM-12","4","","58","105","","","","","21","","29.74","29.07","18.64","74","000","","0","","","","","","","","","","","","","","","","","","","","","","","","","","","","","","","","","","","","","","","","","","","","","","","","","","","","","","","","","","","","","","","","","","","","","","","","","","","","","","","","","","","","","","","","","","","SYN072AAXX  15074 94213 11980 40000 10405 20144 39843 40070 60001 70300 82180;","","","","","","","","","",""
"94213099999","2005-02-15T18:00:00","-17.0166666","128.2166666","205.0","WARMUN, AS","FM-12","4","","62","90","","","","","39","","29.75","29.08","18.64","72","360","","17","","","","","","","","","","","","","","","","","","","","","","","","","","","","","","","","","","","","","","","","","","","","","","","","","","","","","","","","","","","","","","","","","","","","","","","","","","","","","","","","","","","","","","","","","","","SYN066AAXX  15104 94213 41/80 23615 10325 20168 39849 40076 70100 82080;","","","","","","","","","",""
"94213099999","2005-02-16T06:00:00","-17.0166666","128.2166666","205.0","WARMUN, AS","FM-12","4","","66","79","","","","","65","","29.83","29.16","15.53","70","000","","0","","","","","","","","","","","","","","","","","","","","","","","","","","","","","","","","","","","","","","","","","","","","","","","","","","","","","","","","","","","","","","","","","","","","","","","","","","","","","","","","","","","","","","","","","","","SYN066AAXX  15224 94213 41575 10000 10260 20190 39875 40102 70200 81100;","","","","","","","","","",""
"94213099999","2005-02-16T09:00:00","-17.0166666","128.2166666","205.0","WARMUN, AS","FM-12","4","","63","98","","","","","32","","29.87","29.19","18.64","74","360","","11","","","","","","","","","","","","","","","","","","","","","","","","","","","","","","","","","","","","","","","","","","","","","","","","","","","","","","","","","","","","","","","","","","","","","","","","","","","","","","","","","","","","","","","","","","","SYN082AAXX  16014 94213 11/80 13610 10365 20172 39886 40114 60004 70200 81080 333 70000;","","","","","","","","","",""
"94213099999","2005-02-16T15:00:00","-17.0166666","128.2166666","205.0","WARMUN, AS","FM-12","4","","56","105","","","","","20","","29.70","29.03","18.64","73","090","","6","","","","","","","","","","","","","","","","","","","","","","","","","","","","","","","","","","","","","","","","","","","","","","","","","","","","","","","","","","","","","","","","","","","","","","","","","","","","","","","","","","","","","","","","","","","SYN072AAXX  16074 94213 11980 60905 10403 20133 39831 40057 60001 70311 84360;","","","","","","","","","",""
"94213099999","2005-02-16T18:00:00","-17.0166666","128.2166666","205.0","WARMUN, AS","FM-12","4","","67","95","","","","","39","","29.75","29.08","18.64","76","050","","14","","","","","","","","","","","","","","","","","","","","","","","","","","","","","","","","","","","","","","","","","","","","","","","","","","","","","","","","","","","","","","","","","","","","","","","","","","","","","","","","","","","","","","","","","","","SYN066AAXX  16104 94213 41/80 40512 10352 20192 39848 40075 70322 82046;","","","","","","","","","",""
"94213099999","2005-02-17T06:00:00","-17.0166666","128.2166666","205.0","WARMUN, AS","FM-12","4","","73","81","","","","","77","CLR:00","29.79","29.12","15.53","75","000","","0","","","","","","","","","","","","","","","","","","","","","","","","","","","","","","","","","","","","","","","","","","","","","","","","","","","","","","","","","","","","","","","","","","","","","","","","","","","","","","","","","","","","","","","","","","","SYN060AAXX  16224 94213 41975 00000 10270 20226 39861 40088 70200;","","","","","","","","","",""
"94213099999","2005-02-17T09:00:00","-17.0166666","128.2166666","205.0","WARMUN, AS","FM-12","4","","68","98","","","","","37","CLR:00","29.79","29.12","18.64","77","290","","6","","","","","","","","","","","","","","","","","","","","","","","","","","","","","","","","","","","","","","","","","","","","","","","","","","","","","","","","","","","","","","","","","","","","","","","","","","","","","","","","","","","","","","","","","","","SYN076AAXX  17014 94213 11980 02905 10368 20200 39862 40089 60004 70200 333 70000;","","","","","","","","","",""
"94213099999","2005-02-17T15:00:00","-17.0166666","128.2166666","205.0","WARMUN, AS","FM-12","4","","54","106","","","","","18","","29.65","28.99","18.64","72","090","","6","","","","","","","","","","","","","","","","","","","","","","","","","","","","","","","","","","","","","","","","","","","","","","","","","","","","","","","","","","","","","","","","","","","","","","","","","","","","","","","","","","","","","","","","","","","SYN072AAXX  17074 94213 11980 40905 10410 20124 39816 40042 60001 70300 82280;","","","","","","","","","",""
"94213099999","2005-02-17T18:00:00","-17.0166666","128.2166666","205.0","WARMUN, AS","FM-12","4","","58","99","","","","","25","","29.67","29.01","18.64","72","340","","7","","","","","","","","","","","","","","","","","","","","","","","","","","","","","","","","","","","","","","","","","","","","","","","","","","","","","","","","","","","","","","","","","","","","","","","","","","","","","","","","","","","","","","","","","","","SYN066AAXX  17104 94213 41980 13406 10375 20143 39823 40049 70100 81100;","","","","","","","","","",""
"94213099999","2005-02-18T06:00:00","-17.0166666","128.2166666","205.0","WARMUN, AS","FM-12","4","","70","84","","","","","62","","29.78","29.11","15.53","74","000","","0","","","","","","","","","","","","","","","","","","","","","","","","","","","","","","","","","","","","","","","","","","","","","","","","","","","","","","","","","","","","","","","","","","","","","","","","","","","","","","","","","","","","","","","","","","","SYN066AAXX  17224 94213 41/75 10000 10290 20211 39858 40085 70200 81080;","","","","","","","","","",""
"94213099999","2005-02-18T09:00:00","-17.0166666","128.2166666","205.0","WARMUN, AS","FM-12","4","","67","99","","","","","35","CLR:00","29.78","29.11","15.53","77","000","","0","","","","","","","","","","","","","","","","","","","","","","","","","","","","","","","","","","","","","","","","","","","","","","","","","","","","","","","","","","","","","","","","","","","","","","","","","","","","","","","","","","","","","","","","","","","SYN076AAXX  18014 94213 11975 00000 10374 20197 39859 40086 60004 70100 333 70000;","","","","","","","","","",""
"94213099999","2005-02-18T15:00:00","-17.0166666","128.2166666","205.0","WARMUN, AS","FM-12","4","","56","107","","","","","19","","29.62","28.96","18.64","73","310","","8","","","","","","","","","","","","","","","","","","","","","","","","","","","","","","","","","","","","","","","","","","","","","","","","","","","","","","","","","","","","","","","","","","","","","","","","","","","","","","","","","","","","","","","","","","","SYN072AAXX  18074 94213 11980 33107 10418 20136 39806 40032 60001 70300 83200;","","","","","","","","","",""
"94213099999","2005-02-18T18:00:00","-17.0166666","128.2166666","205.0","WARMUN, AS","FM-12","4","","65","93","","||RA","","","40","","29.68","29.02","15.53","74","090","","5","","","","","","","","","","","","","","","","","","","","","","","","","","","","","","","","","","","","","","","","","","","","","","","","","","","","","","","","","","","","","","","","","","","","","","","","","","","","","","","","","","","","","","","","","","","SYN066AAXX  18104 94213 41775 70904 10338 20183 39826 40052 76311 8689/;","","","","","","","","","",""
"94213099999","2005-02-19T06:00:00","-17.0166666","128.2166666","205.0","WARMUN, AS","FM-12","4","","70","82","","","","","69","","29.76","29.09","13.67","74","","","","","","","","","","","","","","","","","","","","","","","","","","","","","","","","","","","","","","","","","","","","","","","","","","","","","","","","","","","","","","","","","","","","","","","","","","","","","","","","","","","","","","","","","","","","","","SYN066AAXX  18224 94213 41/72 6//02 10276 20213 39850 40077 70162 80008;","","","","","","","","","",""
"94213099999","2005-02-19T09:00:00","-17.0166666","128.2166666","205.0","WARMUN, AS","FM-12","4","","66","98","","","","","34","","29.78","29.11","16.78","76","230","","5","","","","","","","","","","","","","","","","","","","","","","","","","","","","","","","","","","","","","","","","","","","","","","","","","","","","","","","","","","","","","","","","","","","","","","","","","","","","","","","","","","","","","","","","","","","SYN082AAXX  19014 94213 11/77 42304 10369 20188 39858 40085 69904 70162 80008 333 79999;","","","","","","","","","",""
"94213099999","2005-02-19T15:00:00","-17.0166666","128.2166666","205.0","WARMUN, AS","FM-12","4","","62","92","","","","","37","","","","18.64","","230","","25","","","","","","","","","","","","","","","","","","","","","","","","","","","","","","","","","","","","","","","","","","","","","","","","","","","","","","","","","","","","","","","","","","","","","","","","","","","","","","","","","","","","","","","","","","","SYN060AAXX  19074 94213 11/80 72322 10335 20169 60031 725// 84359;","","","","","","","","","",""
"94213099999","2005-02-19T18:00:00","-17.0166666","128.2166666","205.0","WARMUN, AS","FM-12","4","","70","87","","","","","56","","29.76","29.09","17.40","75","130","","6","","","","","","","","","","","","","","","","","","","","","","","","","","","","","","","","","","","","","","","","","","","","","","","","","","","","","","","","","","","","","","","","","","","","","","","","","","","","","","","","","","","","","","","","","","","SYN066AAXX  19104 94213 41/78 81305 10306 20209 39852 40079 71522 88090;","","","","","","","","","",""
"94213099999","2005-02-20T06:00:00","-17.0166666","128.2166666","205.0","WARMUN, AS","FM-12","4","","74","77","","||DZ","","","91","","29.84","29.17","13.67","75","","","","","","","","","","","","","","","","","","","","","","","","","","","","","","","","","","","","","","","","","","","","","","","","","","","","","","","","","","","","","","","","","","","","","","","","","","","","","","","","","","","","","","","","","","","","","","SYN066AAXX  19224 94213 41272 8//01 10250 20234 39878 40105 75022 8129/;","","","","","","","","","",""
"94213099999","2005-02-20T09:00:00","-17.0166666","128.2166666","205.0","WARMUN, AS","FM-12","4","","69","86","","","","","57","","29.86","29.19","17.40","74","020","","6","","","","","","","","","","","","","","","","","","","","","","","","","","","","","","","","","","","","","","","","","","","","","","","","","","","","","","","","","","","","","","","","","","","","","","","","","","","","","","","","","","","","","","","","","","","SYN082AAXX  20014 94213 11678 70205 10300 20205 39884 40112 60044 70152 8629/ 333 70044;","","","","","","","","","",""
"94213099999","2005-02-20T15:00:00","-17.0166666","128.2166666","205.0","WARMUN, AS","FM-12","4","","64","98","","","","","32","","29.72","29.05","18.64","75","090","","6","","","","","","","","","","","","","","","","","","","","","","","","","","","","","","","","","","","","","","","","","","","","","","","","","","","","","","","","","","","","","","","","","","","","","","","","","","","","","","","","","","","","","","","","","","","SYN072AAXX  20074 94213 11880 70905 10369 20178 39836 40063 69901 70252 862/3;","","","","","","","","","",""
"94213099999","2005-02-20T18:00:00","-17.0166666","128.2166666","205.0","WARMUN, AS","FM-12","4","","69","86","","","","","58","","29.75","29.08","17.40","74","310","","7","","","","","","","","","","","","","","","","","","","","","","","","","","","","","","","","","","","","","","","","","","","","","","","","","","","","","","","","","","","","","","","","","","","","","","","","","","","","","","","","","","","","","","","","","","","SYN066AAXX  20104 94213 41678 63106 10298 20208 39849 40076 70262 85309;","","","","","","","","","",""
"94213099999","2005-02-21T06:00:00","-17.0166666","128.2166666","205.0","WARMUN, AS","FM-12","4","","70","75","","||DZ","","","83","","29.90","29.22","6.21","72","020","","23","","","","","","","","","","","","","","","","","","","","","","","","","","","","","","","","","","","","","","","","","","","","","","","","","","","","","","","","","","","","","","","","","","","","","","","","","","","","","","","","","","","","","","","","","","","SYN066AAXX  20224 94213 41460 80220 10240 20210 39896 40124 75122 88300;","","","","","","","","","",""
"94213099999","2005-02-21T09:00:00","-17.0166666","128.2166666","205.0","WARMUN, AS","FM-12","4","","72","80","","","","","77","","29.91","29.23","12.43","74","050","","6","","","","","","","","","","","","","","","","","","","","","","","","","","","","","","","","","","","","","","","","","","","","","","","","","","","","","","","","","","","","","","","","","","","","","","","","","","","","","","","","","","","","","","","","","","","SYN082AAXX  21014 94213 11470 70505 10264 20221 39899 40127 60044 70165 84338 333 70042;","","","","","","","","","",""
"94213099999","2005-02-21T15:00:00","-17.0166666","128.2166666","205.0","WARMUN, AS","FM-12","4","","65","94","","","","","39","","29.77","29.10","18.64","74","310","","23","","","","","","","","","","","","","","","","","","","","","","","","","","","","","","","","","","","","","","","","","","","","","","","","","","","","","","","","","","","","","","","","","","","","","","","","","","","","","","","","","","","","","","","","","","","SYN072AAXX  21074 94213 11880 43120 10345 20185 39853 40080 60001 70122 82930;","","","","","","","","","",""
"94213099999","2005-02-21T18:00:00","-17.0166666","128.2166666","205.0","WARMUN, AS","FM-12","4","","62","89","","","","","42","","29.82","29.15","17.40","71","050","","8","","","","","","","","","","","","","","","","","","","","","","","","","","","","","","","","","","","","","","","","","","","","","","","","","","","","","","","","","","","","","","","","","","","","","","","","","","","","","","","","","","","","","","","","","","","SYN066AAXX  21104 94213 41878 30507 10315 20169 39871 40098 70100 81240;","","","","","","","","","",""
"94213099999","2005-02-22T06:00:00","-17.0166666","128.2166666","205.0","WARMUN, AS","FM-12","4","","72","76","","","","","89","","29.91","29.23","12.43","73","000","","0","","","","","","","","","","","","","","","","","","","","","","","","","","","","","","","","","","","","","","","","","","","","","","","","","","","","","","","","","","","","","","","","","","","","","","","","","","","","","","","","","","","","","","","","","","","SYN066AAXX  21224 94213 41/70 20000 10243 20224 39899 40127 70200 82080;","","","","","","","","","",""
"94213099999","2005-02-22T09:00:00","-17.0166666","128.2166666","205.0","WARMUN, AS","FM-12","4","","67","90","","","","","47","CLR:00","29.91","29.24","18.64","74","000","","0","","","","","","","","","","","","","","","","","","","","","","","","","","","","","","","","","","","","","","","","","","","","","","","","","","","","","","","","","","","","","","","","","","","","","","","","","","","","","","","","","","","","","","","","","","","SYN076AAXX  22014 94213 11980 00000 10325 20197 39901 40129 60004 70200 333 70000;","","","","","","","","","",""
"94213099999","2005-02-22T18:00:00","-17.0166666","128.2166666","205.0","WARMUN, AS","FM-12","4","","66","94","","","","","40","","29.81","29.14","18.64","75","360","","8","","","","","","","","","","","","","","","","","","","","","","","","","","","","","","","","","","","","","","","","","","","","","","","","","","","","","","","","","","","","","","","","","","","","","","","","","","","","","","","","","","","","","","","","","","","SYN066AAXX  22104 94213 41/80 23607 10342 20187 39868 40095 70200 80005;","","","","","","","","","",""
"94213099999","2005-02-23T06:00:00","-17.0166666","128.2166666","205.0","WARMUN, AS","FM-12","4","","74","78","","","","","86","","29.88","29.21","15.53","75","000","","0","","","","","","","","","","","","","","","","","","","","","","","","","","","","","","","","","","","","","","","","","","","","","","","","","","","","","","","","","","","","","","","","","","","","","","","","","","","","","","","","","","","","","","","","","","","SYN066AAXX  22224 94213 41475 60000 10257 20232 39891 40119 70300 84880;","","","","","","","","","",""
"94213099999","2005-02-23T09:00:00","-17.0166666","128.2166666","205.0","WARMUN, AS","FM-12","4","","70","94","","","","","46","","29.89","29.21","18.64","77","290","","6","","","","","","","","","","","","","","","","","","","","","","","","","","","","","","","","","","","","","","","","","","","","","","","","","","","","","","","","","","","","","","","","","","","","","","","","","","","","","","","","","","","","","","","","","","","SYN082AAXX  23014 94213 11/80 52905 10345 20213 39893 40121 60004 70222 81019 333 70000;","","","","","","","","","",""
"94213099999","2005-02-23T15:00:00","-17.0166666","128.2166666","205.0","WARMUN, AS","FM-12","4","","69","90","","","","","50","","29.78","29.11","18.64","75","050","","23","","","","","","","","","","","","","","","","","","","","","","","","","","","","","","","","","","","","","","","","","","","","","","","","","","","","","","","","","","","","","","","","","","","","","","","","","","","","","","","","","","","","","","","","","","","SYN072AAXX  23074 94213 11680 70520 10324 20208 39858 40085 60021 72162 85971;","","","","","","","","","",""
"94213099999","2005-02-23T18:00:00","-17.0166666","128.2166666","205.0","WARMUN, AS","FM-12","4","","75","85","","","","","73","","29.78","29.11","15.53","78","000","","0","","","","","","","","","","","","","","","","","","","","","","","","","","","","","","","","","","","","","","","","","","","","","","","","","","","","","","","","","","","","","","","","","","","","","","","","","","","","","","","","","","","","","","","","","","","SYN066AAXX  23104 94213 41575 70000 10292 20239 39858 40085 70222 82578;","","","","","","","","","",""
"94213099999","2005-02-24T06:00:00","-17.0166666","128.2166666","205.0","WARMUN, AS","FM-12","4","","74","75","","","","","96","","29.81","29.14","15.53","74","000","","0","","","","","","","","","","","","","","","","","","","","","","","","","","","","","","","","","","","","","","","","","","","","","","","","","","","","","","","","","","","","","","","","","","","","","","","","","","","","","","","","","","","","","","","","","","","SYN066AAXX  23224 94213 41/75 10000 10240 20233 39869 40096 70200 80001;","","","","","","","","","",""
"94213099999","2005-02-24T09:00:00","-17.0166666","128.2166666","205.0","WARMUN, AS","FM-12","4","","72","94","","","","","48","","29.85","29.18","17.40","78","110","","6","","","","","","","","","","","","","","","","","","","","","","","","","","","","","","","","","","","","","","","","","","","","","","","","","","","","","","","","","","","","","","","","","","","","","","","","","","","","","","","","","","","","","","","","","","","SYN082AAXX  24014 94213 11/78 11105 10345 20221 39882 40110 60024 70200 81040 333 70023;","","","","","","","","","",""
"94213099999","2005-02-24T15:00:00","-17.0166666","128.2166666","205.0","WARMUN, AS","FM-12","4","","64","105","","","","","27","","29.69","29.02","18.64","76","050","","11","","","","","","","","","","","","","","","","","","","","","","","","","","","","","","","","","","","","","","","","","","","","","","","","","","","","","","","","","","","","","","","","","","","","","","","","","","","","","","","","","","","","","","","","","","","SYN072AAXX  24074 94213 11980 40510 10405 20178 39828 40054 60001 70300 83208;","","","","","","","","","",""
"94213099999","2005-02-24T18:00:00","-17.0166666","128.2166666","205.0","WARMUN, AS","FM-12","4","","65","100","","","","","31","","29.70","29.03","18.64","76","000","","0","","","","","","","","","","","","","","","","","","","","","","","","","","","","","","","","","","","","","","","","","","","","","","","","","","","","","","","","","","","","","","","","","","","","","","","","","","","","","","","","","","","","","","","","","","","SYN066AAXX  24104 94213 41880 60000 10380 20183 39832 40058 70322 84363;","","","","","","","","","",""
"94213099999","2005-02-25T06:00:00","-17.0166666","128.2166666","205.0","WARMUN, AS","FM-12","4","","73","80","","","","","80","","29.81","29.14","12.43","75","000","","0","","","","","","","","","","","","","","","","","","","","","","","","","","","","","","","","","","","","","","","","","","","","","","","","","","","","","","","","","","","","","","","","","","","","","","","","","","","","","","","","","","","","","","","","","","","SYN066AAXX  24224 94213 41/70 40000 10264 20226 39869 40096 70100 82088;","","","","","","","","","",""
"94213099999","2005-02-25T09:00:00","-17.0166666","128.2166666","205.0","WARMUN, AS","FM-12","4","","67","97","","","","","38","","29.84","29.17","18.64","76","000","","0","","","","","","","","","","","","","","","","","","","","","","","","","","","","","","","","","","","","","","","","","","","","","","","","","","","","","","","","","","","","","","","","","","","","","","","","","","","","","","","","","","","","","","","","","","","SYN082AAXX  25014 94213 11/80 40000 10360 20195 39878 40105 60004 70200 80005 333 70000;","","","","","","","","","",""
"94213099999","2005-02-25T15:00:00","-17.0166666","128.2166666","205.0","WARMUN, AS","FM-12","4","","62","106","","","","","24","","29.70","29.03","18.64","76","310","","9","","","","","","","","","","","","","","","","","","","","","","","","","","","","","","","","","","","","","","","","","","","","","","","","","","","","","","","","","","","","","","","","","","","","","","","","","","","","","","","","","","","","","","","","","","","SYN072AAXX  25074 94213 11880 53108 10410 20164 39830 40056 60001 70300 83408;","","","","","","","","","",""
"94213099999","2005-02-25T18:00:00","-17.0166666","128.2166666","205.0","WARMUN, AS","FM-12","4","","63","97","","","","","33","","29.75","29.08","17.40","74","310","","9","","","","","","","","","","","","","","","","","","","","","","","","","","","","","","","","","","","","","","","","","","","","","","","","","","","","","","","","","","","","","","","","","","","","","","","","","","","","","","","","","","","","","","","","","","","SYN066AAXX  25104 94213 41878 63108 10361 20175 39849 40076 70322 85480;","","","","","","","","","",""
"94213099999","2005-02-26T06:00:00","-17.0166666","128.2166666","205.0","WARMUN, AS","FM-12","4","","71","81","","","","","73","","29.87","29.19","15.53","74","360","","6","","","","","","","","","","","","","","","","","","","","","","","","","","","","","","","","","","","","","","","","","","","","","","","","","","","","","","","","","","","","","","","","","","","","","","","","","","","","","","","","","","","","","","","","","","","SYN066AAXX  25224 94213 41/75 43605 10270 20218 39886 40114 70200 82086;","","","","","","","","","",""
"94213099999","2005-02-26T09:00:00","-17.0166666","128.2166666","205.0","WARMUN, AS","FM-12","4","","68","95","","","","","41","","29.91","29.23","18.64","76","310","","11","","","","","","","","","","","","","","","","","","","","","","","","","","","","","","","","","","","","","","","","","","","","","","","","","","","","","","","","","","","","","","","","","","","","","","","","","","","","","","","","","","","","","","","","","","","SYN082AAXX  26014 94213 11/80 43110 10352 20200 39899 40127 60004 70200 82038 333 70000;","","","","","","","","","",""
"94213099999","2005-02-26T15:00:00","-17.0166666","128.2166666","205.0","WARMUN, AS","FM-12","4","","64","99","","||TS","","","32","","29.76","29.09","18.64","75","290","","14","","","","","","","","","","","","","","","","","","","","","","","","","","","","","","","","","","","","","","","","","","","","","","","","","","","","","","","","","","","","","","","","","","","","","","","","","","","","","","","","","","","","","","","","","","","SYN072AAXX  26074 94213 11880 62912 10370 20179 39851 40078 60001 71722 86900;","","","","","","","","","",""
"94213099999","2005-02-26T18:00:00","-17.0166666","128.2166666","205.0","WARMUN, AS","FM-12","4","","64","93","","","","","38","","29.77","29.10","18.64","73","050","","6","","","","","","","","","","","","","","","","","","","","","","","","","","","","","","","","","","","","","","","","","","","","","","","","","","","","","","","","","","","","","","","","","","","","","","","","","","","","","","","","","","","","","","","","","","","SYN066AAXX  26104 94213 41780 60505 10340 20178 39853 40080 71392 85980;","","","","","","","","","",""
"94213099999","2005-02-27T06:00:00","-17.0166666","128.2166666","205.0","WARMUN, AS","FM-12","4","","70","80","","","","","73","","29.83","29.16","15.53","73","000","","0","","","","","","","","","","","","","","","","","","","","","","","","","","","","","","","","","","","","","","","","","","","","","","","","","","","","","","","","","","","","","","","","","","","","","","","","","","","","","","","","","","","","","","","","","","","SYN066AAXX  26224 94213 41475 30000 10265 20212 39876 40103 70100 81586;","","","","","","","","","",""
"94213099999","2005-02-27T09:00:00","-17.0166666","128.2166666","205.0","WARMUN, AS","FM-12","4","","67","94","","","","","41","","29.87","29.19","17.40","75","340","","9","","","","","","","","","","","","","","","","","","","","","","","","","","","","","","","","","","","","","","","","","","","","","","","","","","","","","","","","","","","","","","","","","","","","","","","","","","","","","","","","","","","","","","","","","","","SYN082AAXX  27014 94213 11/78 53408 10345 20194 39886 40114 60004 70311 81086 333 70000;","","","","","","","","","",""
"94213099999","2005-02-27T15:00:00","-17.0166666","128.2166666","205.0","WARMUN, AS","FM-12","4","","55","105","","","","","19","","29.70","29.03","18.64","72","020","","23","","","","","","","","","","","","","","","","","","","","","","","","","","","","","","","","","","","","","","","","","","","","","","","","","","","","","","","","","","","","","","","","","","","","","","","","","","","","","","","","","","","","","","","","","","","SYN072AAXX  27074 94213 11980 70220 10406 20130 39830 40056 60001 70322 83336;","","","","","","","","","",""
"94213099999","2005-02-27T18:00:00","-17.0166666","128.2166666","205.0","WARMUN, AS","FM-12","4","","65","94","","","","","39","","29.73","29.06","15.53","74","000","","0","","","","","","","","","","","","","","","","","","","","","","","","","","","","","","","","","","","","","","","","","","","","","","","","","","","","","","","","","","","","","","","","","","","","","","","","","","","","","","","","","","","","","","","","","","","SYN066AAXX  27104 94213 41875 80000 10345 20185 39841 40068 70222 85540;","","","","","","","","","",""
"94213099999","2005-02-28T06:00:00","-17.0166666","128.2166666","205.0","WARMUN, AS","FM-12","4","","70","81","","","","","69","","29.82","29.15","15.53","74","000","","0","","","","","","","","","","","","","","","","","","","","","","","","","","","","","","","","","","","","","","","","","","","","","","","","","","","","","","","","","","","","","","","","","","","","","","","","","","","","","","","","","","","","","","","","","","","SYN066AAXX  27224 94213 41/75 10000 10272 20209 39872 40099 70200 81030;","","","","","","","","","",""
"94213099999","2005-02-28T09:00:00","-17.0166666","128.2166666","205.0","WARMUN, AS","FM-12","4","","71","97","","","","","43","CLR:00","29.81","29.14","16.16","78","360","","6","","","","","","","","","","","","","","","","","","","","","","","","","","","","","","","","","","","","","","","","","","","","","","","","","","","","","","","","","","","","","","","","","","","","","","","","","","","","","","","","","","","","","","","","","","","SYN076AAXX  28014 94213 11976 03605 10360 20214 39867 40094 60004 70200 333 70000;","","","","","","","","","",""
"94213099999","2005-02-28T15:00:00","-17.0166666","128.2166666","205.0","WARMUN, AS","FM-12","4","","60","101","","","","","26","","29.67","29.00","18.64","74","360","","23","","","","","","","","","","","","","","","","","","","","","","","","","","","","","","","","","","","","","","","","","","","","","","","","","","","","","","","","","","","","","","","","","","","","","","","","","","","","","","","","","","","","","","","","","","","SYN072AAXX  28074 94213 11980 63620 10386 20158 39820 40046 60001 71522 85960;","","","","","","","","","",""
"94213099999","2005-02-28T18:00:00","-17.0166666","128.2166666","205.0","WARMUN, AS","FM-12","4","","67","88","","","","","51","","29.76","29.09","15.53","74","310","","7","","","","","","","","","","","","","","","","","","","","","","","","","","","","","","","","","","","","","","","","","","","","","","","","","","","","","","","","","","","","","","","","","","","","","","","","","","","","","","","","","","","","","","","","","","","SYN066AAXX  28104 94213 41675 53106 10310 20196 39850 40077 70122 84406;","","","","","","","","","",""
"94213099999","2005-03-01T06:00:00","-17.0166666","128.2166666","205.0","WARMUN, AS","FM-12","4","","76","79","","","","","92","","29.87","29.19","15.53","77","000","","0","","","","","","","","","","","","","","","","","","","","","","","","","","","","","","","","","","","","","","","","","","","","","","","","","","","","","","","","","","","","","","","","","","","","","","","","","","","","","","","","","","","","","","","","","","","SYN066AAXX  28224 94213 41375 30000 10260 20246 39886 40114 70161 82808;","","","","","","","","","",""
"94213099999","2005-03-01T09:00:00","-17.0166666","128.2166666","205.0","WARMUN, AS","FM-12","4","","68","93","","","","","43","","29.90","29.22","18.02","76","110","","6","","","","","","","","","","","","","","","","","","","","","","","","","","","","","","","","","","","","","","","","","","","","","","","","","","","","","","","","","","","","","","","","","","","","","","","","","","","","","","","","","","","","","","","","","","","SYN082AAXX  01014 94213 11/79 31105 10340 20199 39895 40124 60044 70200 81048 333 70040;","","","","","","","","","",""
"94213099999","2005-03-01T15:00:00","-17.0166666","128.2166666","205.0","WARMUN, AS","FM-12","4","","60","102","","","","","25","","29.73","29.06","18.64","74","090","","19","","","","","","","","","","","","","","","","","","","","","","","","","","","","","","","","","","","","","","","","","","","","","","","","","","","","","","","","","","","","","","","","","","","","","","","","","","","","","","","","","","","","","","","","","","","SYN072AAXX  01074 94213 11980 60917 10390 20155 39842 40069 60001 70311 85903;","","","","","","","","","",""
"94213099999","2005-03-01T18:00:00","-17.0166666","128.2166666","205.0","WARMUN, AS","FM-12","4","","67","85","","","","","56","","29.80","29.13","15.53","73","130","","3","","","","","","","","","","","","","","","","","","","","","","","","","","","","","","","","","","","","","","","","","","","","","","","","","","","","","","","","","","","","","","","","","","","","","","","","","","","","","","","","","","","","","","","","","","","SYN066AAXX  01104 94213 41675 81303 10293 20197 39865 40093 71322 86990;","","","","","","","","","",""
"94213099999","2005-03-02T06:00:00","-17.0166666","128.2166666","205.0","WARMUN, AS","FM-12","4","","69","79","","","","","71","","29.89","29.22","15.53","72","160","","6","","","","","","","","","","","","","","","","","","","","","","","","","","","","","","","","","","","","","","","","","","","","","","","","","","","","","","","","","","","","","","","","","","","","","","","","","","","","","","","","","","","","","","","","","","","SYN066AAXX  01224 94213 41/75 11605 10262 20206 39894 40123 70200 80008;","","","","","","","","","",""
"94213099999","2005-03-02T09:00:00","-17.0166666","128.2166666","205.0","WARMUN, AS","FM-12","4","","67","94","","","","","41","","29.91","29.23","17.40","75","090","","6","","","","","","","","","","","","","","","","","","","","","","","","","","","","","","","","","","","","","","","","","","","","","","","","","","","","","","","","","","","","","","","","","","","","","","","","","","","","","","","","","","","","","","","","","","","SYN082AAXX  02014 94213 11778 20905 10345 20196 39899 40128 60004 70200 81408 333 70000;","","","","","","","","","",""
"94213099999","2005-03-02T15:00:00","-17.0166666","128.2166666","205.0","WARMUN, AS","FM-12","4","","58","99","","","","","25","","29.75","29.08","18.64","72","020","","25","","","","","","","","","","","","","","","","","","","","","","","","","","","","","","","","","","","","","","","","","","","","","","","","","","","","","","","","","","","","","","","","","","","","","","","","","","","","","","","","","","","","","","","","","","","SYN072AAXX  02074 94213 11780 60222 10375 20143 39847 40075 60001 70322 85330;","","","","","","","","","",""
"94213099999","2005-03-02T18:00:00","-17.0166666","128.2166666","205.0","WARMUN, AS","FM-12","4","","72","80s","","","","","76","","29.80","29.13","15.53","74","000","","0","","","","","","","","","","","","","","","","","","","","","","","","","","","","","","","","","","","","","","","","","","","","","","","","","","","","","","","","","","","","","","","","","","","","","","","","","","","","","","","","","","","","","","","","","","","SYN066AAXX  02104 94213 41475 60000 10265 20220 39864 40092 72122 84808;","","","","","","","","","",""
"94213099999","2005-03-03T06:00:00","-17.0166666","128.2166666","205.0","WARMUN, AS","FM-12","4","","73","80","","","","","80","","29.88","29.21","15.53","75","000","","0","","","","","","","","","","","","","","","","","","","","","","","","","","","","","","","","","","","","","","","","","","","","","","","","","","","","","","","","","","","","","","","","","","","","","","","","","","","","","","","","","","","","","","","","","","","SYN066AAXX  02224 94213 41/75 10000 10265 20228 39891 40120 70200 80008;","","","","","","","","","",""
"94213099999","2005-03-03T09:00:00","-17.0166666","128.2166666","205.0","WARMUN, AS","FM-12","4","","67","95","","","","","40","","29.89","29.21","18.64","76","310","","11","","","","","","","","","","","","","","","","","","","","","","","","","","","","","","","","","","","","","","","","","","","","","","","","","","","","","","","","","","","","","","","","","","","","","","","","","","","","","","","","","","","","","","","","","","","SYN082AAXX  03014 94213 11780 43110 10348 20194 39893 40122 60034 70300 83808 333 70028;","","","","","","","","","",""
"94213099999","2005-03-03T15:00:00","-17.0166666","128.2166666","205.0","WARMUN, AS","FM-12","4","","59","102","","","","","24","","29.72","29.05","18.64","73","360","","11","","","","","","","","","","","","","","","","","","","","","","","","","","","","","","","","","","","","","","","","","","","","","","","","","","","","","","","","","","","","","","","","","","","","","","","","","","","","","","","","","","","","","","","","","","","SYN072AAXX  03074 94213 11880 43610 10390 20150 39838 40065 60001 70200 84800;","","","","","","","","","",""
"94213099999","2005-03-03T18:00:00","-17.0166666","128.2166666","205.0","WARMUN, AS","FM-12","4","","61","96","","","","","31","","29.78","29.10","12.43","73","020","","6","","","","","","","","","","","","","","","","","","","","","","","","","","","","","","","","","","","","","","","","","","","","","","","","","","","","","","","","","","","","","","","","","","","","","","","","","","","","","","","","","","","","","","","","","","","SYN066AAXX  03104 94213 41870 60205 10356 20161 39855 40083 71522 86300;","","","","","","","","","",""
"94213099999","2005-03-04T06:00:00","-17.0166666","128.2166666","205.0","WARMUN, AS","FM-12","4","","72","80","","","","","77","","29.85","29.18","12.43","74","000","","0","","","","","","","","","","","","","","","","","","","","","","","","","","","","","","","","","","","","","","","","","","","","","","","","","","","","","","","","","","","","","","","","","","","","","","","","","","","","","","","","","","","","","","","","","","","SYN066AAXX  03224 94213 41/70 20000 10264 20221 39882 40110 70100 80006;","","","","","","","","","",""
"94213099999","2005-03-04T09:00:00","-17.0166666","128.2166666","205.0","WARMUN, AS","FM-12","4","","68","96","","","","","41","","29.87","29.20","18.64","76","310","","6","","","","","","","","","","","","","","","","","","","","","","","","","","","","","","","","","","","","","","","","","","","","","","","","","","","","","","","","","","","","","","","","","","","","","","","","","","","","","","","","","","","","","","","","","","","SYN082AAXX  04014 94213 11/80 23105 10354 20202 39887 40116 60004 70200 80006 333 70000;","","","","","","","","","",""
"94213099999","2005-03-04T15:00:00","-17.0166666","128.2166666","205.0","WARMUN, AS","FM-12","4","","72","90","","","","","55","","29.75","29.07","18.64","77","230","","9","","","","","","","","","","","","","","","","","","","","","","","","","","","","","","","","","","","","","","","","","","","","","","","","","","","","","","","","","","","","","","","","","","","","","","","","","","","","","","","","","","","","","","","","","","","SYN072AAXX  04074 94213 11680 62308 10324 20223 39845 40073 60051 72122 84333;","","","","","","","","","",""
"94213099999","2005-03-04T18:00:00","-17.0166666","128.2166666","205.0","WARMUN, AS","FM-12","4","","71","90","","","","","53","","29.80","29.12","12.43","77","360","","3","","","","","","","","","","","","","","","","","","","","","","","","","","","","","","","","","","","","","","","","","","","","","","","","","","","","","","","","","","","","","","","","","","","","","","","","","","","","","","","","","","","","","","","","","","","SYN066AAXX  04104 94213 41670 73603 10324 20215 39862 40090 71522 84390;","","","","","","","","","",""
"94213099999","2005-03-05T06:00:00","-17.0166666","128.2166666","205.0","WARMUN, AS","FM-12","4","","72","78","","","","","84","","29.86","29.18","15.53","74","000","","0","","","","","","","","","","","","","","","","","","","","","","","","","","","","","","","","","","","","","","","","","","","","","","","","","","","","","","","","","","","","","","","","","","","","","","","","","","","","","","","","","","","","","","","","","","","SYN066AAXX  04224 94213 41475 20000 10255 20225 39883 40111 70200 81108;","","","","","","","","","",""
"94213099999","2005-03-05T09:00:00","-17.0166666","128.2166666","205.0","WARMUN, AS","FM-12","4","","69","94","","","","","44","","29.87","29.20","15.53","77","270","","11","","","","","","","","","","","","","","","","","","","","","","","","","","","","","","","","","","","","","","","","","","","","","","","","","","","","","","","","","","","","","","","","","","","","","","","","","","","","","","","","","","","","","","","","","","","SYN082AAXX  05014 94213 11775 32710 10346 20207 39887 40116 60054 70300 82108 333 70048;","","","","","","","","","",""
"94213099999","2005-03-05T15:00:00","-17.0166666","128.2166666","205.0","WARMUN, AS","FM-12","4","","62","106","","","","","24","","29.69","29.02","18.64","76","000","","0","","","","","","","","","","","","","","","","","","","","","","","","","","","","","","","","","","","","","","","","","","","","","","","","","","","","","","","","","","","","","","","","","","","","","","","","","","","","","","","","","","","","","","","","","","","SYN072AAXX  05074 94213 11780 40000 10410 20164 39828 40055 60001 70211 83330;","","","","","","","","","",""
"94213099999","2005-03-05T18:00:00","-17.0166666","128.2166666","205.0","WARMUN, AS","FM-12","4","","65","98","","","","","34","","29.73","29.06","15.53","75","130","","5","","","","","","","","","","","","","","","","","","","","","","","","","","","","","","","","","","","","","","","","","","","","","","","","","","","","","","","","","","","","","","","","","","","","","","","","","","","","","","","","","","","","","","","","","","","SYN066AAXX  05104 94213 41875 31304 10365 20184 39841 40068 71511 82380;","","","","","","","","","",""
"94213099999","2005-03-06T06:00:00","-17.0166666","128.2166666","205.0","WARMUN, AS","FM-12","4","","72","76","","","","","88","","29.92","29.24","15.53","73","050","","11","","","","","","","","","","","","","","","","","","","","","","","","","","","","","","","","","","","","","","","","","","","","","","","","","","","","","","","","","","","","","","","","","","","","","","","","","","","","","","","","","","","","","","","","","","","SYN066AAXX  05224 94213 41375 70510 10245 20223 39903 40132 70262 85840;","","","","","","","","","",""
"94213099999","2005-03-06T09:00:00","-17.0166666","128.2166666","205.0","WARMUN, AS","FM-12","4","","72","83","","","","","69","","29.93","29.26","16.78","75","020","","8","","","","","","","","","","","","","","","","","","","","","","","","","","","","","","","","","","","","","","","","","","","","","","","","","","","","","","","","","","","","","","","","","","","","","","","","","","","","","","","","","","","","","","","","","","","SYN082AAXX  06014 94213 11577 70207 10285 20223 39907 40136 60074 70222 84870 333 70068;","","","","","","","","","",""
"94213099999","2005-03-06T15:00:00","-17.0166666","128.2166666","205.0","WARMUN, AS","FM-12","4","","69","94","","","","","44","","29.75","29.08","18.64","76","020","","3","","","","","","","","","","","","","","","","","","","","","","","","","","","","","","","","","","","","","","","","","","","","","","","","","","","","","","","","","","","","","","","","","","","","","","","","","","","","","","","","","","","","","","","","","","","SYN072AAXX  06074 94213 11780 70203 10345 20204 39846 40074 60001 70222 81236;","","","","","","","","","",""
"94213099999","2005-03-06T18:00:00","-17.0166666","128.2166666","205.0","WARMUN, AS","FM-12","4","","71","90","","","","","54","","29.79","29.12","18.64","77","310","","1","","","","","","","","","","","","","","","","","","","","","","","","","","","","","","","","","","","","","","","","","","","","","","","","","","","","","","","","","","","","","","","","","","","","","","","","","","","","","","","","","","","","","","","","","","","SYN066AAXX  06104 94213 41680 73101 10322 20216 39861 40089 70222 84438;","","","","","","","","","",""
"94213099999","2005-03-07T06:00:00","-17.0166666","128.2166666","205.0","WARMUN, AS","FM-12","4","","76","80","","","","","88","","29.88","29.21","15.53","77","000","","0","","","","","","","","","","","","","","","","","","","","","","","","","","","","","","","","","","","","","","","","","","","","","","","","","","","","","","","","","","","","","","","","","","","","","","","","","","","","","","","","","","","","","","","","","","","SYN066AAXX  06224 94213 41375 40000 10265 20243 39891 40120 70211 81283;","","","","","","","","","",""
"94213099999","2005-03-07T09:00:00","-17.0166666","128.2166666","205.0","WARMUN, AS","FM-12","4","","70","92","","","","","47","","29.90","29.23","17.40","77","","","","","","","","","","","","","","","","","","","","","","","","","","","","","","","","","","","","","","","","","","","","","","","","","","","","","","","","","","","","","","","","","","","","","","","","","","","","","","","","","","","","","","","","","","","","","","SYN082AAXX  07014 94213 11778 313// 10336 20209 39897 40126 60004 70200 83200 333 70000;","","","","","","","","","",""
"94213099999","2005-03-07T15:00:00","-17.0166666","128.2166666","205.0","WARMUN, AS","FM-12","4","","78","84","","","","","81","","29.78","29.11","18.64","80","","","","","","","","","","","","","","","","","","","","","","","","","","","","","","","","","","","","","","","","","","","","","","","","","","","","","","","","","","","","","","","","","","","","","","","","","","","","","","","","","","","","","","","","","","","","","","SYN072AAXX  07074 94213 11480 6//// 10290 20255 39858 40086 60011 72122 83335;","","","","","","","","","",""
"94213099999","2005-03-07T18:00:00","-17.0166666","128.2166666","205.0","WARMUN, AS","FM-12","4","","76","86","","","","","72","","29.83","29.16","18.64","79","","","","","","","","","","","","","","","","","","","","","","","","","","","","","","","","","","","","","","","","","","","","","","","","","","","","","","","","","","","","","","","","","","","","","","","","","","","","","","","","","","","","","","","","","","","","","","SYN066AAXX  07104 94213 41580 7//// 10300 20243 39874 40102 70322 84290;","","","","","","","","","",""
"94213099999","2005-03-08T06:00:00","-17.0166666","128.2166666","205.0","WARMUN, AS","FM-12","4","","75","76","","||RA","","","96","","29.93","29.26","7.46","75","360","","3","","","","","","","","","","","","","","","","","","","","","","","","","","","","","","","","","","","","","","","","","","","","","","","","","","","","","","","","","","","","","","","","","","","","","","","","","","","","","","","","","","","","","","","","","","","SYN066AAXX  07224 94213 41162 83603 10245 20238 39908 40137 76122 88600;","","","","","","","","","",""
"94213099999","2005-03-08T09:00:00","-17.0166666","128.2166666","205.0","WARMUN, AS","FM-12","4","","75","85","","","","","71","","29.93","29.25","18.02","78","090","","8","","","","","","","","","","","","","","","","","","","","","","","","","","","","","","","","","","","","","","","","","","","","","","","","","","","","","","","","","","","","","","","","","","","","","","","","","","","","","","","","","","","","","","","","","","","SYN082AAXX  08014 94213 11579 60907 10295 20237 39906 40135 60034 70122 82268 333 70031;","","","","","","","","","",""
"94213099999","2005-03-08T15:00:00","-17.0166666","128.2166666","205.0","WARMUN, AS","FM-12","4","","66","98","","","","","35","","29.77","29.10","18.64","76","360","","13","","","","","","","","","","","","","","","","","","","","","","","","","","","","","","","","","","","","","","","","","","","","","","","","","","","","","","","","","","","","","","","","","","","","","","","","","","","","","","","","","","","","","","","","","","","SYN072AAXX  08074 94213 11880 33611 10367 20187 39854 40082 60001 70100 82208;","","","","","","","","","",""
"94213099999","2005-03-08T18:00:00","-17.0166666","128.2166666","205.0","WARMUN, AS","FM-12","4","","67","93","","","","","42","","29.83","29.15","17.40","75","360","","28","","","","","","","","","","","","","","","","","","","","","","","","","","","","","","","","","","","","","","","","","","","","","","","","","","","","","","","","","","","","","","","","","","","","","","","","","","","","","","","","","","","","","","","","","","","SYN066AAXX  08104 94213 41778 33624 10340 20192 39872 40100 70200 82301;","","","","","","","","","",""
"94213099999","2005-03-09T06:00:00","-17.0166666","128.2166666","205.0","WARMUN, AS","FM-12","4","","68","72","","","","","87","","29.93","29.26","15.53","69","200","","11","","","","","","","","","","","","","","","","","","","","","","","","","","","","","","","","","","","","","","","","","","","","","","","","","","","","","","","","","","","","","","","","","","","","","","","","","","","","","","","","","","","","","","","","","","","SYN066AAXX  08224 94213 41375 72010 10225 20202 39908 40137 72122 85370;","","","","","","","","","",""
"94213099999","2005-03-09T09:00:00","-17.0166666","128.2166666","205.0","WARMUN, AS","FM-12","4","","72","82","","","","","73","","29.92","29.25","17.40","75","000","","0","","","","","","","","","","","","","","","","","","","","","","","","","","","","","","","","","","","","","","","","","","","","","","","","","","","","","","","","","","","","","","","","","","","","","","","","","","","","","","","","","","","","","","","","","","","SYN082AAXX  09014 94213 11/78 40000 10277 20224 39904 40133 60134 70111 83086 333 70128;","","","","","","","","","",""
"94213099999","2005-03-09T15:00:00","-17.0166666","128.2166666","205.0","WARMUN, AS","FM-12","4","","76","90","","","","","64","","29.78","29.11","18.64","80","000","","0","","","","","","","","","","","","","","","","","","","","","","","","","","","","","","","","","","","","","","","","","","","","","","","","","","","","","","","","","","","","","","","","","","","","","","","","","","","","","","","","","","","","","","","","","","","SYN072AAXX  09074 94213 11580 40000 10322 20245 39858 40086 60021 72100 82283;","","","","","","","","","",""
"94213099999","2005-03-09T18:00:00","-17.0166666","128.2166666","205.0","WARMUN, AS","FM-12","4","","66","93","","","","","41","","29.81","29.14","18.02","75","360","","9","","","","","","","","","","","","","","","","","","","","","","","","","","","","","","","","","","","","","","","","","","","","","","","","","","","","","","","","","","","","","","","","","","","","","","","","","","","","","","","","","","","","","","","","","","","SYN066AAXX  09104 94213 41779 33608 10340 20188 39868 40096 70200 81283;","","","","","","","","","",""
"94213099999","2005-03-10T06:00:00","-17.0166666","128.2166666","205.0","WARMUN, AS","FM-12","4","","73","76","","","","","91","","29.84","29.17","15.53","74","000","","0","","","","","","","","","","","","","","","","","","","","","","","","","","","","","","","","","","","","","","","","","","","","","","","","","","","","","","","","","","","","","","","","","","","","","","","","","","","","","","","","","","","","","","","","","","","SYN066AAXX  09224 94213 41/75 10000 10245 20230 39878 40106 70100 80006;","","","","","","","","","",""
"94213099999","2005-03-10T09:00:00","-17.0166666","128.2166666","205.0","WARMUN, AS","FM-12","4","","73","92","","","","","53","","29.88","29.20","17.40","78","200","","6","","","","","","","","","","","","","","","","","","","","","","","","","","","","","","","","","","","","","","","","","","","","","","","","","","","","","","","","","","","","","","","","","","","","","","","","","","","","","","","","","","","","","","","","","","","SYN082AAXX  10014 94213 11/78 22005 10335 20226 39888 40117 60024 70300 80008 333 70018;","","","","","","","","","",""
"94213099999","2005-03-10T15:00:00","-17.0166666","128.2166666","205.0","WARMUN, AS","FM-12","4","","56","103","","","","","21","","29.73","29.06","18.64","72","020","","5","","","","","","","","","","","","","","","","","","","","","","","","","","","","","","","","","","","","","","","","","","","","","","","","","","","","","","","","","","","","","","","","","","","","","","","","","","","","","","","","","","","","","","","","","","","SYN072AAXX  10074 94213 11980 40204 10392 20134 39842 40069 60001 70300 82288;","","","","","","","","","",""
"94213099999","2005-03-10T18:00:00","-17.0166666","128.2166666","205.0","WARMUN, AS","FM-12","4","","60","97","","","","","29","","29.75","29.08","18.64","72","360","","8","","","","","","","","","","","","","","","","","","","","","","","","","","","","","","","","","","","","","","","","","","","","","","","","","","","","","","","","","","","","","","","","","","","","","","","","","","","","","","","","","","","","","","","","","","","SYN066AAXX  10104 94213 41980 23607 10360 20154 39847 40075 70100 81204;","","","","","","","","","",""
"94213099999","2005-03-11T06:00:00","-17.0166666","128.2166666","205.0","WARMUN, AS","FM-12","4","","70","78","","","","","76","","29.81","29.14","17.40","73","180","","3","","","","","","","","","","","","","","","","","","","","","","","","","","","","","","","","","","","","","","","","","","","","","","","","","","","","","","","","","","","","","","","","","","","","","","","","","","","","","","","","","","","","","","","","","","","SYN066AAXX  10224 94213 41/78 11803 10255 20210 39867 40095 70200 80008;","","","","","","","","","",""
"94213099999","2005-03-11T09:00:00","-17.0166666","128.2166666","205.0","WARMUN, AS","FM-12","4","","70","95","","","","","43","","29.83","29.15","17.40","77","180","","11","","","","","","","","","","","","","","","","","","","","","","","","","","","","","","","","","","","","","","","","","","","","","","","","","","","","","","","","","","","","","","","","","","","","","","","","","","","","","","","","","","","","","","","","","","","SYN082AAXX  11014 94213 11778 11810 10352 20209 39873 40101 60004 70200 81900 333 70000;","","","","","","","","","",""
"94213099999","2005-03-11T15:00:00","-17.0166666","128.2166666","205.0","WARMUN, AS","FM-12","4","","51","105","","","","","16","","29.70","29.03","18.64","71","130","","6","","","","","","","","","","","","","","","","","","","","","","","","","","","","","","","","","","","","","","","","","","","","","","","","","","","","","","","","","","","","","","","","","","","","","","","","","","","","","","","","","","","","","","","","","","","SYN072AAXX  11074 94213 11980 21305 10406 20103 39829 40056 60001 70300 81108;","","","","","","","","","",""
"94213099999","2005-03-11T18:00:00","-17.0166666","128.2166666","205.0","WARMUN, AS","FM-12","4","","54","93","","","","","27","","29.70","29.03","18.64","68","000","","0","","","","","","","","","","","","","","","","","","","","","","","","","","","","","","","","","","","","","","","","","","","","","","","","","","","","","","","","","","","","","","","","","","","","","","","","","","","","","","","","","","","","","","","","","","","SYN066AAXX  11104 94213 41/80 10000 10340 20123 39831 40058 70100 80008;","","","","","","","","","",""
"94213099999","2005-03-12T06:00:00","-17.0166666","128.2166666","205.0","WARMUN, AS","FM-12","4","","60","81","","","","","49","","29.75","29.08","16.78","68","200","","9","","","","","","","","","","","","","","","","","","","","","","","","","","","","","","","","","","","","","","","","","","","","","","","","","","","","","","","","","","","","","","","","","","","","","","","","","","","","","","","","","","","","","","","","","","","SYN066AAXX  11224 94213 41677 62008 10272 20154 39847 40075 70322 82338;","","","","","","","","","",""
"94213099999","2005-03-12T09:00:00","-17.0166666","128.2166666","205.0","WARMUN, AS","FM-12","4","","66","95","","","","","39","","29.77","29.09","17.40","75","130","","28","","","","","","","","","","","","","","","","","","","","","","","","","","","","","","","","","","","","","","","","","","","","","","","","","","","","","","","","","","","","","","","","","","","","","","","","","","","","","","","","","","","","","","","","","","","SYN082AAXX  12014 94213 11778 31324 10350 20191 39852 40080 60004 70100 81140 333 70000;","","","","","","","","","",""
"94213099999","2005-03-12T15:00:00","-17.0166666","128.2166666","205.0","WARMUN, AS","FM-12","4","","59","106","","","","","22","","29.64","28.97","18.64","74","020","","19","","","","","","","","","","","","","","","","","","","","","","","","","","","","","","","","","","","","","","","","","","","","","","","","","","","","","","","","","","","","","","","","","","","","","","","","","","","","","","","","","","","","","","","","","","","SYN072AAXX  12074 94213 11980 70217 10410 20152 39811 40038 60001 70322 84366;","","","","","","","","","",""
"94213099999","2005-03-12T18:00:00","-17.0166666","128.2166666","205.0","WARMUN, AS","FM-12","4","","71","95","","||RA","","","45","","29.72","29.05","9.32","78","130","","29","","","","","","","","","","","","","","","","","","","","","","","","","","","","","","","","","","","","","","","","","","","","","","","","","","","","","","","","","","","","","","","","","","","","","","","","","","","","","","","","","","","","","","","","","","","SYN066AAXX  12104 94213 41765 71325 10350 20214 39837 40064 76322 87300;","","","","","","","","","",""
"94213099999","2005-03-13T06:00:00","-17.0166666","128.2166666","205.0","WARMUN, AS","FM-12","4","","70","80","","","","","73","","29.71","29.04","17.40","73","130","","6","","","","","","","","","","","","","","","","","","","","","","","","","","","","","","","","","","","","","","","","","","","","","","","","","","","","","","","","","","","","","","","","","","","","","","","","","","","","","","","","","","","","","","","","","","","SYN066AAXX  12224 94213 41578 71305 10265 20212 39835 40062 70162 81108;","","","","","","","","","",""
"94213099999","2005-03-13T09:00:00","-17.0166666","128.2166666","205.0","WARMUN, AS","FM-12","4","","68","92","","","","","46","","29.77","29.10","18.02","75","050","","9","","","","","","","","","","","","","","","","","","","","","","","","","","","","","","","","","","","","","","","","","","","","","","","","","","","","","","","","","","","","","","","","","","","","","","","","","","","","","","","","","","","","","","","","","","","SYN082AAXX  13014 94213 11/79 30508 10334 20201 39853 40081 60024 70100 83040 333 70016;","","","","","","","","","",""
"94213099999","2005-03-13T15:00:00","-17.0166666","128.2166666","205.0","WARMUN, AS","FM-12","4","","61","103","","","","","25","","29.60","28.93","18.64","74","160","","6","","","","","","","","","","","","","","","","","","","","","","","","","","","","","","","","","","","","","","","","","","","","","","","","","","","","","","","","","","","","","","","","","","","","","","","","","","","","","","","","","","","","","","","","","","","SYN072AAXX  13074 94213 11980 61605 10395 20163 39797 40023 60001 70322 84330;","","","","","","","","","",""
"94213099999","2005-03-13T18:00:00","-17.0166666","128.2166666","205.0","WARMUN, AS","FM-12","4","","54","99","","","","","22","","29.60","28.94","18.64","70","130","","19","","","","","","","","","","","","","","","","","","","","","","","","","","","","","","","","","","","","","","","","","","","","","","","","","","","","","","","","","","","","","","","","","","","","","","","","","","","","","","","","","","","","","","","","","","","SYN066AAXX  13104 94213 41980 41317 10370 20122 39799 40025 70100 83108;","","","","","","","","","",""
"94213099999","2005-03-14T06:00:00","-17.0166666","128.2166666","205.0","WARMUN, AS","FM-12","4","","72","78","","","","","82","","29.72","29.05","17.40","74","000","","0","","","","","","","","","","","","","","","","","","","","","","","","","","","","","","","","","","","","","","","","","","","","","","","","","","","","","","","","","","","","","","","","","","","","","","","","","","","","","","","","","","","","","","","","","","","SYN066AAXX  13224 94213 41478 40000 10255 20221 39838 40065 70200 82208;","","","","","","","","","",""
"94213099999","2005-03-14T09:00:00","-17.0166666","128.2166666","205.0","WARMUN, AS","FM-12","4","","66","91","","","","","44","","29.75","29.08","18.64","74","090","","16","","","","","","","","","","","","","","","","","","","","","","","","","","","","","","","","","","","","","","","","","","","","","","","","","","","","","","","","","","","","","","","","","","","","","","","","","","","","","","","","","","","","","","","","","","","SYN082AAXX  14014 94213 11/80 30914 10330 20190 39848 40076 60004 70100 80008 333 70000;","","","","","","","","","",""
"94213099999","2005-03-14T15:00:00","-17.0166666","128.2166666","205.0","WARMUN, AS","FM-12","4","","57","101","","","","","23","","29.61","28.94","18.64","72","090","","30","","","","","","","","","","","","","","","","","","","","","","","","","","","","","","","","","","","","","","","","","","","","","","","","","","","","","","","","","","","","","","","","","","","","","","","","","","","","","","","","","","","","","","","","","","","SYN072AAXX  14074 94213 11980 50926 10382 20137 39801 40028 60001 70300 82338;","","","","","","","","","",""
"94213099999","2005-03-14T18:00:00","-17.0166666","128.2166666","205.0","WARMUN, AS","FM-12","4","","59","95","","","","","30","CLR:00","29.63","28.96","9.32","71","090","","11","","","","","","","","","","","","","","","","","","","","","","","","","","","","","","","","","","","","","","","","","","","","","","","","","","","","","","","","","","","","","","","","","","","","","","","","","","","","","","","","","","","","","","","","","","","SYN060AAXX  14104 94213 41965 00910 10350 20150 39806 40033 70322;","","","","","","","","","",""
"94213099999","2005-03-15T06:00:00","-17.0166666","128.2166666","205.0","WARMUN, AS","FM-12","4","","73","80","","","","","80","","29.75","29.08","17.40","75","000","","0","","","","","","","","","","","","","","","","","","","","","","","","","","","","","","","","","","","","","","","","","","","","","","","","","","","","","","","","","","","","","","","","","","","","","","","","","","","","","","","","","","","","","","","","","","","SYN066AAXX  14224 94213 41978 70000 10265 20228 39847 40075 70322 84358;","","","","","","","","","",""
"94213099999","2005-03-15T09:00:00","-17.0166666","128.2166666","205.0","WARMUN, AS","FM-12","4","","70","93","","","","","47","","29.76","29.08","18.02","77","160","","9","","","","","","","","","","","","","","","","","","","","","","","","","","","","","","","","","","","","","","","","","","","","","","","","","","","","","","","","","","","","","","","","","","","","","","","","","","","","","","","","","","","","","","","","","","","SYN082AAXX  15014 94213 11879 61608 10340 20210 39849 40077 60004 70322 83358 333 70000;","","","","","","","","","",""
"94213099999","2005-03-15T15:00:00","-17.0166666","128.2166666","205.0","WARMUN, AS","FM-12","4","","74","81","","","","","79","","29.64","28.97","18.64","76","000","","0","","","","","","","","","","","","","","","","","","","","","","","","","","","","","","","","","","","","","","","","","","","","","","","","","","","","","","","","","","","","","","","","","","","","","","","","","","","","","","","","","","","","","","","","","","","SYN072AAXX  15074 94213 11480 70000 10275 20236 39810 40037 69941 72522 82338;","","","","","","","","","",""
"94213099999","2005-03-15T18:00:00","-17.0166666","128.2166666","205.0","WARMUN, AS","FM-12","4","","70","88","","","","","55","","29.68","29.01","17.40","75","000","","0","","","","","","","","","","","","","","","","","","","","","","","","","","","","","","","","","","","","","","","","","","","","","","","","","","","","","","","","","","","","","","","","","","","","","","","","","","","","","","","","","","","","","","","","","","","SYN066AAXX  15104 94213 41678 70000 10310 20209 39825 40052 70322 85460;","","","","","","","","","",""
"94213099999","2005-03-16T06:00:00","-17.0166666","128.2166666","205.0","WARMUN, AS","FM-12","4","","69","71","","||RA","","","94","","29.77","29.10","6.21","70","160","","23","","","","","","","","","","","","","","","","","","","","","","","","","","","","","","","","","","","","","","","","","","","","","","","","","","","","","","","","","","","","","","","","","","","","","","","","","","","","","","","","","","","","","","","","","","","SYN066AAXX  15224 94213 41460 81620 10217 20206 39853 40081 76322 82090;","","","","","","","","","",""
"94213099999","2005-03-16T09:00:00","-17.0166666","128.2166666","205.0","WARMUN, AS","FM-12","4","","69","75","","||RA","","","83","","29.78","29.10","8.70","71","000","","0","","","","","","","","","","","","","","","","","","","","","","","","","","","","","","","","","","","","","","","","","","","","","","","","","","","","","","","","","","","","","","","","","","","","","","","","","","","","","","","","","","","","","","","","","","","SYN082AAXX  16014 94213 11/64 80000 10238 20208 39855 40083 60114 76262 88000 333 70114;","","","","","","","","","",""
"94213099999","2005-03-16T15:00:00","-17.0166666","128.2166666","205.0","WARMUN, AS","FM-12","4","","71","78","","","","","78","","29.67","29.00","18.64","73","090","","19","","","","","","","","","","","","","","","","","","","","","","","","","","","","","","","","","","","","","","","","","","","","","","","","","","","","","","","","","","","","","","","","","","","","","","","","","","","","","","","","","","","","","","","","","","","SYN072AAXX  16074 94213 11480 80917 10258 20216 39822 40049 60101 70266 844/3;","","","","","","","","","",""
"94213099999","2005-03-16T18:00:00","-17.0166666","128.2166666","205.0","WARMUN, AS","FM-12","4","","73","73","","||RA","","","100","","29.69","29.02","6.21","73","000","","0","","","","","","","","","","","","","","","","","","","","","","","","","","","","","","","","","","","","","","","","","","","","","","","","","","","","","","","","","","","","","","","","","","","","","","","","","","","","","","","","","","","","","","","","","","","SYN066AAXX  16104 94213 41/60 80000 10230 20230 39826 40053 76362 88000;","","","","","","","","","",""
"94213099999","2005-03-17T06:00:00","-17.0166666","128.2166666","205.0","WARMUN, AS","FM-12","4","","67","68","","||RA","","","98","","29.65","28.97","6.21","67","130","","13","","","","","","","","","","","","","","","","","","","","","","","","","","","","","","","","","","","","","","","","","","","","","","","","","","","","","","","","","","","","","","","","","","","","","","","","","","","","","","","","","","","","","","","","","","","SYN066AAXX  16224 94213 41/60 81311 10198 20195 39812 40039 76562 880//;","","","","","","","","","",""
"94213099999","2005-03-17T09:00:00","-17.0166666","128.2166666","205.0","WARMUN, AS","FM-12","4","","67","68","","||RA","","","95","","29.66","28.99","8.70","67","110","","13","","","","","","","","","","","","","","","","","","","","","","","","","","","","","","","","","","","","","","","","","","","","","","","","","","","","","","","","","","","","","","","","","","","","","","","","","","","","","","","","","","","","","","","","","","","SYN082AAXX  17014 94213 11864 81111 10200 20192 39818 40045 61364 76366 84490 333 71358;","","","","","","","","","",""
"94213099999","2005-03-17T15:00:00","-17.0166666","128.2166666","205.0","WARMUN, AS","FM-12","4","","66","74","","","","","75","","29.62","28.95","18.02","69","130","","32","","","","","","","","","","","","","","","","","","","","","","","","","","","","","","","","","","","","","","","","","","","","","","","","","","","","","","","","","","","","","","","","","","","","","","","","","","","","","","","","","","","","","","","","","","","SYN072AAXX  17074 94213 11479 71328 10235 20188 39805 40032 60041 70166 83261;","","","","","","","","","",""
"94213099999","2005-03-18T06:00:00","-17.0166666","128.2166666","205.0","WARMUN, AS","FM-12","4","","70","70","","","","","99","","29.72","29.05","16.16","70","000","","0","","","","","","","","","","","","","","","","","","","","","","","","","","","","","","","","","","","","","","","","","","","","","","","","","","","","","","","","","","","","","","","","","","","","","","","","","","","","","","","","","","","","","","","","","","","SYN066AAXX  17224 94213 41/76 50000 10213 20211 39836 40063 70162 82208;","","","","","","","","","",""
"94213099999","2005-03-18T09:00:00","-17.0166666","128.2166666","205.0","WARMUN, AS","FM-12","4","","67","77","","","","","72","","29.75","29.08","14.91","70","130","","6","","","","","","","","","","","","","","","","","","","","","","","","","","","","","","","","","","","","","","","","","","","","","","","","","","","","","","","","","","","","","","","","","","","","","","","","","","","","","","","","","","","","","","","","","","","SYN082AAXX  18014 94213 11574 71305 10250 20196 39847 40075 60044 70322 83990 333 70042;","","","","","","","","","",""
"94213099999","2005-03-18T15:00:00","-17.0166666","128.2166666","205.0","WARMUN, AS","FM-12","4","","67","88","","","","","50","","29.63","28.96","16.78","74","130","","10","","","","","","","","","","","","","","","","","","","","","","","","","","","","","","","","","","","","","","","","","","","","","","","","","","","","","","","","","","","","","","","","","","","","","","","","","","","","","","","","","","","","","","","","","","","SYN072AAXX  18074 94213 11777 51309 10312 20195 39807 40034 60001 70122 82338;","","","","","","","","","",""
"94213099999","2005-03-19T06:00:00","-17.0166666","128.2166666","205.0","WARMUN, AS","FM-12","4","","69","76","","","","","79","","29.74","29.07","16.78","71","130","","3","","","","","","","","","","","","","","","","","","","","","","","","","","","","","","","","","","","","","","","","","","","","","","","","","","","","","","","","","","","","","","","","","","","","","","","","","","","","","","","","","","","","","","","","","","","SYN066AAXX  18224 94213 41477 61303 10245 20207 39844 40072 70322 84108;","","","","","","","","","",""
"94213099999","2005-03-19T09:00:00","-17.0166666","128.2166666","205.0","WARMUN, AS","FM-12","4","","68","88","","","","","53","","29.77","29.10","18.02","74","160","","11","","","","","","","","","","","","","","","","","","","","","","","","","","","","","","","","","","","","","","","","","","","","","","","","","","","","","","","","","","","","","","","","","","","","","","","","","","","","","","","","","","","","","","","","","","","SYN082AAXX  19014 94213 11679 41610 10310 20202 39854 40082 60004 70100 82880 333 70000;","","","","","","","","","",""
"94213099999","2005-03-19T15:00:00","-17.0166666","128.2166666","205.0","WARMUN, AS","FM-12","4","","66","92","","","","","41","","29.66","28.99","18.64","74","160","","11","","","","","","","","","","","","","","","","","","","","","","","","","","","","","","","","","","","","","","","","","","","","","","","","","","","","","","","","","","","","","","","","","","","","","","","","","","","","","","","","","","","","","","","","","","","SYN072AAXX  19074 94213 11580 31610 10335 20187 39816 40043 60001 70100 83200;","","","","","","","","","",""
"94213099999","2005-03-20T06:00:00","-17.0166666","128.2166666","205.0","WARMUN, AS","FM-12","4","","74","78","","","","","88","","29.78","29.10","12.43","75","200","","6","","","","","","","","","","","","","","","","","","","","","","","","","","","","","","","","","","","","","","","","","","","","","","","","","","","","","","","","","","","","","","","","","","","","","","","","","","","","","","","","","","","","","","","","","","","SYN066AAXX  19224 94213 41370 72005 10255 20233 39856 40084 70222 84580;","","","","","","","","","",""
"94213099999","2005-03-20T09:00:00","-17.0166666","128.2166666","205.0","WARMUN, AS","FM-12","4","","73","89","","","","","58","","29.79","29.11","15.53","78","090","","5","","","","","","","","","","","","","","","","","","","","","","","","","","","","","","","","","","","","","","","","","","","","","","","","","","","","","","","","","","","","","","","","","","","","","","","","","","","","","","","","","","","","","","","","","","","SYN082AAXX  20014 94213 11675 30904 10318 20226 39859 40087 60004 70111 81188 333 70000;","","","","","","","","","",""
"94213099999","2005-03-20T15:00:00","-17.0166666","128.2166666","205.0","WARMUN, AS","FM-12","4","","71","92","","","","","51","","29.67","29.00","18.64","77","090","","8","","","","","","","","","","","","","","","","","","","","","","","","","","","","","","","","","","","","","","","","","","","","","","","","","","","","","","","","","","","","","","","","","","","","","","","","","","","","","","","","","","","","","","","","","","","SYN072AAXX  20074 94213 11680 50907 10332 20219 39819 40046 60001 70311 83338;","","","","","","","","","",""
"94213099999","2005-03-21T06:00:00","-17.0166666","128.2166666","205.0","WARMUN, AS","FM-12","4","","74","77","","","","","91","","29.79","29.12","18.64","75","020","","5","","","","","","","","","","","","","","","","","","","","","","","","","","","","","","","","","","","","","","","","","","","","","","","","","","","","","","","","","","","","","","","","","","","","","","","","","","","","","","","","","","","","","","","","","","","SYN066AAXX  20224 94213 41880 60204 10250 20235 39860 40088 70122 84458;","","","","","","","","","",""
"94213099999","2005-03-21T09:00:00","-17.0166666","128.2166666","205.0","WARMUN, AS","FM-12","4","","75","83","","","","","77","","29.81","29.13","18.64","77","020","","10","","","","","","","","","","","","","","","","","","","","","","","","","","","","","","","","","","","","","","","","","","","","","","","","","","","","","","","","","","","","","","","","","","","","","","","","","","","","","","","","","","","","","","","","","","","SYN082AAXX  21014 94213 11480 50209 10285 20240 39866 40096 60044 70211 83338 333 70040;","","","","","","","","","",""
"94213099999","2005-03-21T15:00:00","-17.0166666","128.2166666","205.0","WARMUN, AS","FM-12","4","","71","90","","","","","54","","29.69","29.02","18.64","77","020","","19","","","","","","","","","","","","","","","","","","","","","","","","","","","","","","","","","","","","","","","","","","","","","","","","","","","","","","","","","","","","","","","","","","","","","","","","","","","","","","","","","","","","","","","","","","","SYN072AAXX  21074 94213 11680 60217 10320 20217 39827 40054 69941 70322 83438;","","","","","","","","","",""
"94213099999","2005-03-22T06:00:00","-17.0166666","128.2166666","205.0","WARMUN, AS","FM-12","4","","74","75","","","","","96","","29.77","29.10","18.02","74","000","","0","","","","","","","","","","","","","","","","","","","","","","","","","","","","","","","","","","","","","","","","","","","","","","","","","","","","","","","","","","","","","","","","","","","","","","","","","","","","","","","","","","","","","","","","","","","SYN066AAXX  21224 94213 41/79 20000 10240 20234 39853 40081 70111 80004;","","","","","","","","","",""
"94213099999","2005-03-22T09:00:00","-17.0166666","128.2166666","205.0","WARMUN, AS","FM-12","4","","76","83","","","","","78","","29.81","29.14","18.64","78","090","","5","","","","","","","","","","","","","","","","","","","","","","","","","","","","","","","","","","","","","","","","","","","","","","","","","","","","","","","","","","","","","","","","","","","","","","","","","","","","","","","","","","","","","","","","","","","SYN082AAXX  22014 94213 11980 50904 10285 20242 39867 40095 60074 70311 83231 333 70074;","","","","","","","","","",""
"94213099999","2005-03-23T06:00:00","-17.0166666","128.2166666","205.0","WARMUN, AS","FM-12","4","","75","76","","","","","96","","29.77","29.10","12.43","75","000","","0","","","","","","","","","","","","","","","","","","","","","","","","","","","","","","","","","","","","","","","","","","","","","","","","","","","","","","","","","","","","","","","","","","","","","","","","","","","","","","","","","","","","","","","","","","","SYN066AAXX  22224 94213 41/70 70000 10246 20240 39854 40082 70222 86078;","","","","","","","","","",""
"94213099999","2005-03-23T09:00:00","-17.0166666","128.2166666","205.0","WARMUN, AS","FM-12","4","","76","85","","","","","75","","29.79","29.12","13.67","79","000","","0","","","","","","","","","","","","","","","","","","","","","","","","","","","","","","","","","","","","","","","","","","","","","","","","","","","","","","","","","","","","","","","","","","","","","","","","","","","","","","","","","","","","","","","","","","","SYN082AAXX  23014 94213 11572 60000 10295 20245 39861 40089 60004 70122 83239 333 70000;","","","","","","","","","",""
"94213099999","2005-03-23T15:00:00","-17.0166666","128.2166666","205.0","WARMUN, AS","FM-12","4","","70","95","","","","","45","","29.68","29.01","18.64","77","310","","11","","","","","","","","","","","","","","","","","","","","","","","","","","","","","","","","","","","","","","","","","","","","","","","","","","","","","","","","","","","","","","","","","","","","","","","","","","","","","","","","","","","","","","","","","","","SYN072AAXX  23074 94213 11780 63110 10348 20211 39823 40050 60001 70222 84338;","","","","","","","","","",""
"94213099999","2005-03-24T06:00:00","-17.0166666","128.2166666","205.0","WARMUN, AS","FM-12","4","","76","79","","","","","92","","29.80","29.13","12.43","77","000","","0","","","","","","","","","","","","","","","","","","","","","","","","","","","","","","","","","","","","","","","","","","","","","","","","","","","","","","","","","","","","","","","","","","","","","","","","","","","","","","","","","","","","","","","","","","","SYN066AAXX  23224 94213 41270 60000 10260 20246 39865 40093 70222 82273;","","","","","","","","","",""
"94213099999","2005-03-24T09:00:00","-17.0166666","128.2166666","205.0","WARMUN, AS","FM-12","4","","74","90","","","","","59","","29.83","29.15","18.64","79","020","","17","","","","","","","","","","","","","","","","","","","","","","","","","","","","","","","","","","","","","","","","","","","","","","","","","","","","","","","","","","","","","","","","","","","","","","","","","","","","","","","","","","","","","","","","","","","SYN082AAXX  24014 94213 11680 10215 10325 20234 39872 40100 60004 70111 81100 333 70000;","","","","","","","","","",""
"94213099999","2005-03-24T15:00:00","-17.0166666","128.2166666","205.0","WARMUN, AS","FM-12","4","","68","96","","","","","40","","29.71","29.04","18.64","76","020","","17","","","","","","","","","","","","","","","","","","","","","","","","","","","","","","","","","","","","","","","","","","","","","","","","","","","","","","","","","","","","","","","","","","","","","","","","","","","","","","","","","","","","","","","","","","","SYN072AAXX  24074 94213 11780 40215 10355 20198 39835 40062 60001 70300 83303;","","","","","","","","","",""
"94213099999","2005-03-25T06:00:00","-17.0166666","128.2166666","205.0","WARMUN, AS","FM-12","4","","72","80","","","","","79","","29.85","29.17","18.02","74","230","","5","","","","","","","","","","","","","","","","","","","","","","","","","","","","","","","","","","","","","","","","","","","","","","","","","","","","","","","","","","","","","","","","","","","","","","","","","","","","","","","","","","","","","","","","","","","SYN066AAXX  24224 94213 41879 32304 10265 20225 39879 40107 70200 82480;","","","","","","","","","",""
"94213099999","2005-03-25T09:00:00","-17.0166666","128.2166666","205.0","WARMUN, AS","FM-12","4","","74","90","","","","","58","","29.88","29.21","18.64","79","180","","6","","","","","","","","","","","","","","","","","","","","","","","","","","","","","","","","","","","","","","","","","","","","","","","","","","","","","","","","","","","","","","","","","","","","","","","","","","","","","","","","","","","","","","","","","","","SYN082AAXX  25014 94213 11/80 11805 10325 20231 39890 40119 60004 70100 81040 333 70000;","","","","","","","","","",""
"94213099999","2005-03-25T15:00:00","-17.0166666","128.2166666","205.0","WARMUN, AS","FM-12","4","","58","99","","","","","26","","29.76","29.09","18.64","72","070","","8","","","","","","","","","","","","","","","","","","","","","","","","","","","","","","","","","","","","","","","","","","","","","","","","","","","","","","","","","","","","","","","","","","","","","","","","","","","","","","","","","","","","","","","","","","","SYN072AAXX  25074 94213 11/80 10707 10370 20147 39851 40079 60001 70200 81030;","","","","","","","","","",""
"94213099999","2005-03-26T06:00:00","-17.0166666","128.2166666","205.0","WARMUN, AS","FM-12","4","","74","75","","","","","96","","29.84","29.17","12.43","74","130","","6","","","","","","","","","","","","","","","","","","","","","","","","","","","","","","","","","","","","","","","","","","","","","","","","","","","","","","","","","","","","","","","","","","","","","","","","","","","","","","","","","","","","","","","","","","","SYN066AAXX  25224 94213 41/70 11305 10240 20233 39877 40105 70200 80008;","","","","","","","","","",""
"94213099999","2005-03-26T09:00:00","-17.0166666","128.2166666","205.0","WARMUN, AS","FM-12","4","","60","91","","","","","35","CLR:00","29.88","29.20","18.64","71","130","","6","","","","","","","","","","","","","","","","","","","","","","","","","","","","","","","","","","","","","","","","","","","","","","","","","","","","","","","","","","","","","","","","","","","","","","","","","","","","","","","","","","","","","","","","","","","SYN076AAXX  26014 94213 11980 01305 10330 20154 39889 40118 60004 70200 333 70000;","","","","","","","","","",""
"94213099999","2005-03-26T15:00:00","-17.0166666","128.2166666","205.0","WARMUN, AS","FM-12","4","","54","99","","","","","22","","29.79","29.11","18.64","70","110","","11","","","","","","","","","","","","","","","","","","","","","","","","","","","","","","","","","","","","","","","","","","","","","","","","","","","","","","","","","","","","","","","","","","","","","","","","","","","","","","","","","","","","","","","","","","","SYN072AAXX  26074 94213 11/80 11110 10370 20122 39859 40087 60001 70300 80006;","","","","","","","","","",""
"94213099999","2005-03-27T06:00:00","-17.0166666","128.2166666","205.0","WARMUN, AS","FM-12","4","","60","72","","","","","66","","29.87","29.19","17.40","65","090","","8","","","","","","","","","","","","","","","","","","","","","","","","","","","","","","","","","","","","","","","","","","","","","","","","","","","","","","","","","","","","","","","","","","","","","","","","","","","","","","","","","","","","","","","","","","","SYN066AAXX  26224 94213 41/78 20907 10220 20153 39886 40114 70200 80001;","","","","","","","","","",""
"94213099999","2005-03-27T09:00:00","-17.0166666","128.2166666","205.0","WARMUN, AS","FM-12","4","","56","89","","","","","33","","29.92","29.24","18.64","68","050","","5","","","","","","","","","","","","","","","","","","","","","","","","","","","","","","","","","","","","","","","","","","","","","","","","","","","","","","","","","","","","","","","","","","","","","","","","","","","","","","","","","","","","","","","","","","","SYN082AAXX  27014 94213 11/80 10504 10316 20136 39903 40132 60004 70100 80001 333 70000;","","","","","","","","","",""
"94213099999","2005-03-27T15:00:00","-17.0166666","128.2166666","205.0","WARMUN, AS","FM-12","4","","45","97","","","","","17","","29.82","29.14","18.64","66","110","","7","","","","","","","","","","","","","","","","","","","","","","","","","","","","","","","","","","","","","","","","","","","","","","","","","","","","","","","","","","","","","","","","","","","","","","","","","","","","","","","","","","","","","","","","","","","SYN072AAXX  27074 94213 11/80 11106 10362 20073 39869 40097 60001 70200 80008;","","","","","","","","","",""
"94213099999","2005-03-28T06:00:00","-17.0166666","128.2166666","205.0","WARMUN, AS","FM-12","4","","58","63","","","","","84","CLR:00","29.88","29.20","12.43","60","180","","6","","","","","","","","","","","","","","","","","","","","","","","","","","","","","","","","","","","","","","","","","","","","","","","","","","","","","","","","","","","","","","","","","","","","","","","","","","","","","","","","","","","","","","","","","","","SYN060AAXX  27224 94213 41970 01805 10170 20142 39889 40118 70200;","","","","","","","","","",""
"94213099999","2005-03-28T09:00:00","-17.0166666","128.2166666","205.0","WARMUN, AS","FM-12","4","","54","90","","","","","30","CLR:00","29.90","29.22","17.40","68","000","","0","","","","","","","","","","","","","","","","","","","","","","","","","","","","","","","","","","","","","","","","","","","","","","","","","","","","","","","","","","","","","","","","","","","","","","","","","","","","","","","","","","","","","","","","","","","SYN076AAXX  28014 94213 11978 00000 10323 20125 39895 40124 60004 70200 333 70000;","","","","","","","","","",""
"94213099999","2005-03-28T15:00:00","-17.0166666","128.2166666","205.0","WARMUN, AS","FM-12","4","","44","98","","","","","15","CLR:00","29.80","29.13","18.64","66","020","","11","","","","","","","","","","","","","","","","","","","","","","","","","","","","","","","","","","","","","","","","","","","","","","","","","","","","","","","","","","","","","","","","","","","","","","","","","","","","","","","","","","","","","","","","","","","SYN066AAXX  28074 94213 11980 00210 10368 20066 39865 40093 60001 70200;","","","","","","","","","",""
"94213099999","2005-03-29T06:00:00","-17.0166666","128.2166666","205.0","WARMUN, AS","FM-12","4","","61","65","","","","","85","CLR:00","29.88","29.21","18.64","63","000","","0","","","","","","","","","","","","","","","","","","","","","","","","","","","","","","","","","","","","","","","","","","","","","","","","","","","","","","","","","","","","","","","","","","","","","","","","","","","","","","","","","","","","","","","","","","","SYN060AAXX  28224 94213 41980 00000 10185 20160 39890 40119 70200;","","","","","","","","","",""
"94213099999","2005-03-29T09:00:00","-17.0166666","128.2166666","205.0","WARMUN, AS","FM-12","4","","60","91","","","","","35","CLR:00","29.90","29.23","18.64","71","000","","0","","","","","","","","","","","","","","","","","","","","","","","","","","","","","","","","","","","","","","","","","","","","","","","","","","","","","","","","","","","","","","","","","","","","","","","","","","","","","","","","","","","","","","","","","","","SYN076AAXX  29014 94213 11980 00000 10330 20154 39897 40126 60004 70200 333 70000;","","","","","","","","","",""
"94213099999","2005-03-29T15:00:00","-17.0166666","128.2166666","205.0","WARMUN, AS","FM-12","4","","53","99","","","","","21","CLR:00","29.78","29.11","18.64","70","310","","7","","","","","","","","","","","","","","","","","","","","","","","","","","","","","","","","","","","","","","","","","","","","","","","","","","","","","","","","","","","","","","","","","","","","","","","","","","","","","","","","","","","","","","","","","","","SYN066AAXX  29074 94213 11980 03106 10370 20114 39857 40085 60001 70200;","","","","","","","","","",""
"94213099999","2005-03-30T06:00:00","-17.0166666","128.2166666","205.0","WARMUN, AS","FM-12","4","","62","71","","","","","74","CLR:00","29.83","29.15","12.43","65","180","","3","","","","","","","","","","","","","","","","","","","","","","","","","","","","","","","","","","","","","","","","","","","","","","","","","","","","","","","","","","","","","","","","","","","","","","","","","","","","","","","","","","","","","","","","","","","SYN060AAXX  29224 94213 41970 01803 10215 20166 39872 40100 70200;","","","","","","","","","",""
"94213099999","2005-03-30T09:00:00","-17.0166666","128.2166666","205.0","WARMUN, AS","FM-12","4","","61","92","","","","","35","CLR:00","29.85","29.18","18.64","72","000","","0","","","","","","","","","","","","","","","","","","","","","","","","","","","","","","","","","","","","","","","","","","","","","","","","","","","","","","","","","","","","","","","","","","","","","","","","","","","","","","","","","","","","","","","","","","","SYN076AAXX  30014 94213 11980 00000 10335 20161 39882 40110 60004 70200 333 70000;","","","","","","","","","",""
"94213099999","2005-03-30T15:00:00","-17.0166666","128.2166666","205.0","WARMUN, AS","FM-12","4","","51","99","","","","","19","","29.74","29.07","18.64","69","050","","11","","","","","","","","","","","","","","","","","","","","","","","","","","","","","","","","","","","","","","","","","","","","","","","","","","","","","","","","","","","","","","","","","","","","","","","","","","","","","","","","","","","","","","","","","","","SYN072AAXX  30074 94213 11980 20510 10375 20104 39844 40072 60001 70300 81140;","","","","","","","","","",""
"94213099999","2005-03-31T06:00:00","-17.0166666","128.2166666","205.0","WARMUN, AS","FM-12","4","","68","71","","","","","90","","29.80","29.13","18.02","69","000","","0","","","","","","","","","","","","","","","","","","","","","","","","","","","","","","","","","","","","","","","","","","","","","","","","","","","","","","","","","","","","","","","","","","","","","","","","","","","","","","","","","","","","","","","","","","","SYN066AAXX  30224 94213 41879 20000 10216 20199 39865 40093 70300 82100;","","","","","","","","","",""
"94213099999","2005-03-31T09:00:00","-17.0166666","128.2166666","205.0","WARMUN, AS","FM-12","4","","69","93","","","","","45","CLR:00","29.82","29.15","18.64","76","050","","5","","","","","","","","","","","","","","","","","","","","","","","","","","","","","","","","","","","","","","","","","","","","","","","","","","","","","","","","","","","","","","","","","","","","","","","","","","","","","","","","","","","","","","","","","","","SYN076AAXX  31014 94213 11980 00504 10340 20203 39871 40099 60004 70100 333 70000;","","","","","","","","","",""
"94213099999","2005-03-31T15:00:00","-17.0166666","128.2166666","205.0","WARMUN, AS","FM-12","4","","67","97","","","","","38","","29.73","29.06","18.64","76","090","","7","","","","","","","","","","","","","","","","","","","","","","","","","","","","","","","","","","","","","","","","","","","","","","","","","","","","","","","","","","","","","","","","","","","","","","","","","","","","","","","","","","","","","","","","","","","SYN072AAXX  31074 94213 11880 50906 10360 20195 39841 40068 60001 70311 84260;","","","","","","","","","",""
"94213099999","2005-04-01T06:00:00","-17.0166666","128.2166666","205.0","WARMUN, AS","FM-12","4","","69","72","","","","","89","","29.85","29.17","17.40","70","000","","0","","","","","","","","","","","","","","","","","","","","","","","","","","","","","","","","","","","","","","","","","","","","","","","","","","","","","","","","","","","","","","","","","","","","","","","","","","","","","","","","","","","","","","","","","","","SYN066AAXX  31224 94213 41/78 20000 10225 20205 39878 40108 70100 81016;","","","","","","","","","",""
"94213099999","2005-04-01T09:00:00","-17.0166666","128.2166666","205.0","WARMUN, AS","FM-12","4","","69","90","","","","","49","CLR:00","29.88","29.20","18.02","75","020","","9","","","","","","","","","","","","","","","","","","","","","","","","","","","","","","","","","","","","","","","","","","","","","","","","","","","","","","","","","","","","","","","","","","","","","","","","","","","","","","","","","","","","","","","","","","","SYN076AAXX  01014 94213 11979 00208 10325 20204 39889 40119 60004 70100 333 70000;","","","","","","","","","",""
"94213099999","2005-04-01T15:00:00","-17.0166666","128.2166666","205.0","WARMUN, AS","FM-12","4","","62","97","","","","","31","","29.78","29.10","18.64","73","020","","9","","","","","","","","","","","","","","","","","","","","","","","","","","","","","","","","","","","","","","","","","","","","","","","","","","","","","","","","","","","","","","","","","","","","","","","","","","","","","","","","","","","","","","","","","","","SYN072AAXX  01074 94213 11/80 10208 10360 20165 39854 40084 60001 70300 80008;","","","","","","","","","",""
"94213099999","2005-04-02T06:00:00","-17.0166666","128.2166666","205.0","WARMUN, AS","FM-12","4","","71","71","","","","","100","CLR:00","29.88","29.20","12.43","71","000","","0","","","","","","","","","","","","","","","","","","","","","","","","","","","","","","","","","","","","","","","","","","","","","","","","","","","","","","","","","","","","","","","","","","","","","","","","","","","","","","","","","","","","","","","","","","","SYN060AAXX  01224 94213 41970 00000 10215 20215 39887 40117 70000;","","","","","","","","","",""
"94213099999","2005-04-02T09:00:00","-17.0166666","128.2166666","205.0","WARMUN, AS","FM-12","4","","63","93","","","","","37","","29.88","29.21","18.64","73","090","","5","","","","","","","","","","","","","","","","","","","","","","","","","","","","","","","","","","","","","","","","","","","","","","","","","","","","","","","","","","","","","","","","","","","","","","","","","","","","","","","","","","","","","","","","","","","SYN082AAXX  02014 94213 11/80 10904 10341 20175 39890 40120 60004 70300 81030 333 70000;","","","","","","","","","",""
"94213099999","2005-04-02T15:00:00","-17.0166666","128.2166666","205.0","WARMUN, AS","FM-12","4","","63","98","","","","","32","","29.77","29.09","18.64","74","340","","10","","","","","","","","","","","","","","","","","","","","","","","","","","","","","","","","","","","","","","","","","","","","","","","","","","","","","","","","","","","","","","","","","","","","","","","","","","","","","","","","","","","","","","","","","","","SYN072AAXX  02074 94213 11880 23409 10365 20174 39852 40082 60001 70300 82100;","","","","","","","","","",""
"94213099999","2005-04-03T06:00:00","-17.0166666","128.2166666","205.0","WARMUN, AS","FM-12","4","","68","76","","","","","75","","29.85","29.17","18.02","71","000","","0","","","","","","","","","","","","","","","","","","","","","","","","","","","","","","","","","","","","","","","","","","","","","","","","","","","","","","","","","","","","","","","","","","","","","","","","","","","","","","","","","","","","","","","","","","","SYN066AAXX  02224 94213 41/79 30000 10246 20198 39877 40107 70300 80001;","","","","","","","","","",""
"94213099999","2005-04-03T09:00:00","-17.0166666","128.2166666","205.0","WARMUN, AS","FM-12","4","","68","93","","","","","43","","29.88","29.20","18.64","76","000","","0","","","","","","","","","","","","","","","","","","","","","","","","","","","","","","","","","","","","","","","","","","","","","","","","","","","","","","","","","","","","","","","","","","","","","","","","","","","","","","","","","","","","","","","","","","","SYN082AAXX  03014 94213 11880 50000 10340 20199 39889 40119 60004 70311 84201 333 70000;","","","","","","","","","",""
"94213099999","2005-04-03T15:00:00","-17.0166666","128.2166666","205.0","WARMUN, AS","FM-12","4","","65","100","","","","","31","","29.75","29.08","18.64","76","000","","0","","","","","","","","","","","","","","","","","","","","","","","","","","","","","","","","","","","","","","","","","","","","","","","","","","","","","","","","","","","","","","","","","","","","","","","","","","","","","","","","","","","","","","","","","","","SYN072AAXX  03074 94213 11880 20000 10380 20181 39846 40075 60001 70111 82100;","","","","","","","","","",""
"94213099999","2005-04-04T06:00:00","-17.0166666","128.2166666","205.0","WARMUN, AS","FM-12","4","","69","77","","","","","77","","29.85","29.17","17.40","72","000","","0","","","","","","","","","","","","","","","","","","","","","","","","","","","","","","","","","","","","","","","","","","","","","","","","","","","","","","","","","","","","","","","","","","","","","","","","","","","","","","","","","","","","","","","","","","","SYN066AAXX  03224 94213 41478 10000 10251 20207 39877 40107 70200 81200;","","","","","","","","","",""
"94213099999","2005-04-04T09:00:00","-17.0166666","128.2166666","205.0","WARMUN, AS","FM-12","4","","69","93","","","","","45","","29.90","29.22","18.64","76","360","","5","","","","","","","","","","","","","","","","","","","","","","","","","","","","","","","","","","","","","","","","","","","","","","","","","","","","","","","","","","","","","","","","","","","","","","","","","","","","","","","","","","","","","","","","","","","SYN082AAXX  04014 94213 11480 13604 10340 20206 39895 40126 60004 70200 81200 333 70000;","","","","","","","","","",""
"94213099999","2005-04-04T15:00:00","-17.0166666","128.2166666","205.0","WARMUN, AS","FM-12","4","","61","98","","","","","30","","29.80","29.12","18.64","73","090","","10","","","","","","","","","","","","","","","","","","","","","","","","","","","","","","","","","","","","","","","","","","","","","","","","","","","","","","","","","","","","","","","","","","","","","","","","","","","","","","","","","","","","","","","","","","","SYN072AAXX  04074 94213 11880 50909 10366 20163 39860 40090 60001 70322 83468;","","","","","","","","","",""
"94213099999","2005-04-05T06:00:00","-17.0166666","128.2166666","205.0","WARMUN, AS","FM-12","4","","55","83","","","","","38","CLR:00","29.91","29.23","17.40","66","110","","17","","","","","","","","","","","","","","","","","","","","","","","","","","","","","","","","","","","","","","","","","","","","","","","","","","","","","","","","","","","","","","","","","","","","","","","","","","","","","","","","","","","","","","","","","","","SYN060AAXX  04224 94213 41978 01115 10281 20126 39898 40129 70111;","","","","","","","","","",""
"94213099999","2005-04-05T09:00:00","-17.0166666","128.2166666","205.0","WARMUN, AS","FM-12","4","","51","90","","","","","26","CLR:00","29.96","29.28","18.64","66","130","","25","","","","","","","","","","","","","","","","","","","","","","","","","","","","","","","","","","","","","","","","","","","","","","","","","","","","","","","","","","","","","","","","","","","","","","","","","","","","","","","","","","","","","","","","","","","SYN076AAXX  05014 94213 11980 01322 10321 20105 39914 40145 60004 70211 333 70000;","","","","","","","","","",""
"94213099999","2005-04-05T15:00:00","-17.0166666","128.2166666","205.0","WARMUN, AS","FM-12","4","","51","96","","","","","22","CLR:00","29.82","29.14","18.64","68","050","","11","","","","","","","","","","","","","","","","","","","","","","","","","","","","","","","","","","","","","","","","","","","","","","","","","","","","","","","","","","","","","","","","","","","","","","","","","","","","","","","","","","","","","","","","","","","SYN066AAXX  05074 94213 11980 00510 10358 20107 39867 40097 60001 70200;","","","","","","","","","",""
"94213099999","2005-04-06T06:00:00","-17.0166666","128.2166666","205.0","WARMUN, AS","FM-12","4","","58","70","","","","","65","","29.86","29.18","12.43","63","000","","0","","","","","","","","","","","","","","","","","","","","","","","","","","","","","","","","","","","","","","","","","","","","","","","","","","","","","","","","","","","","","","","","","","","","","","","","","","","","","","","","","","","","","","","","","","","SYN066AAXX  05224 94213 41/70 10000 10210 20142 39882 40112 70300 80008;","","","","","","","","","",""
"94213099999","2005-04-06T09:00:00","-17.0166666","128.2166666","205.0","WARMUN, AS","FM-12","4","","51","92","","","","","25","","29.88","29.21","15.53","67","090","","17","","","","","","","","","","","","","","","","","","","","","","","","","","","","","","","","","","","","","","","","","","","","","","","","","","","","","","","","","","","","","","","","","","","","","","","","","","","","","","","","","","","","","","","","","","","SYN082AAXX  06014 94213 11/75 10915 10335 20107 39890 40120 60004 70200 80008 333 70000;","","","","","","","","","",""
"94213099999","2005-04-06T15:00:00","-17.0166666","128.2166666","205.0","WARMUN, AS","FM-12","4","","53","98","","","","","22","","29.76","29.08","18.64","70","090","","11","","","","","","","","","","","","","","","","","","","","","","","","","","","","","","","","","","","","","","","","","","","","","","","","","","","","","","","","","","","","","","","","","","","","","","","","","","","","","","","","","","","","","","","","","","","SYN072AAXX  06074 94213 11980 30910 10365 20114 39849 40078 60001 70322 83200;","","","","","","","","","",""
"94213099999","2005-04-07T06:00:00","-17.0166666","128.2166666","205.0","WARMUN, AS","FM-12","4","","60","70","","","","","71","","29.81","29.13","12.43","64","000","","0","","","","","","","","","","","","","","","","","","","","","","","","","","","","","","","","","","","","","","","","","","","","","","","","","","","","","","","","","","","","","","","","","","","","","","","","","","","","","","","","","","","","","","","","","","","SYN066AAXX  06224 94213 41/70 10000 10210 20155 39865 40095 70200 80003;","","","","","","","","","",""
"94213099999","2005-04-07T09:00:00","-17.0166666","128.2166666","205.0","WARMUN, AS","FM-12","4","","61","92","","","","","35","","29.84","29.16","15.53","72","180","","11","","","","","","","","","","","","","","","","","","","","","","","","","","","","","","","","","","","","","","","","","","","","","","","","","","","","","","","","","","","","","","","","","","","","","","","","","","","","","","","","","","","","","","","","","","","SYN082AAXX  07014 94213 11/75 11810 10335 20161 39876 40106 60004 70200 80008 333 70000;","","","","","","","","","",""
"94213099999","2005-04-07T15:00:00","-17.0166666","128.2166666","205.0","WARMUN, AS","FM-12","4","","52","96","","","","","22","","29.73","29.06","18.64","69","090","","11","","","","","","","","","","","","","","","","","","","","","","","","","","","","","","","","","","","","","","","","","","","","","","","","","","","","","","","","","","","","","","","","","","","","","","","","","","","","","","","","","","","","","","","","","","","SYN072AAXX  07074 94213 11980 40910 10355 20110 39840 40069 60001 70300 84200;","","","","","","","","","",""
"94213099999","2005-04-08T06:00:00","-17.0166666","128.2166666","205.0","WARMUN, AS","FM-12","4","","63","68","","","","","84","","29.80","29.12","18.02","65","000","","0","","","","","","","","","","","","","","","","","","","","","","","","","","","","","","","","","","","","","","","","","","","","","","","","","","","","","","","","","","","","","","","","","","","","","","","","","","","","","","","","","","","","","","","","","","","SYN066AAXX  07224 94213 41/79 20000 10202 20174 39862 40092 70100 80008;","","","","","","","","","",""
"94213099999","2005-04-08T09:00:00","-17.0166666","128.2166666","205.0","WARMUN, AS","FM-12","4","","65","92","","","","","40","","29.85","29.17","18.64","74","360","","2","","","","","","","","","","","","","","","","","","","","","","","","","","","","","","","","","","","","","","","","","","","","","","","","","","","","","","","","","","","","","","","","","","","","","","","","","","","","","","","","","","","","","","","","","","","SYN082AAXX  08014 94213 11/80 13602 10334 20182 39878 40108 60004 70100 80008 333 70000;","","","","","","","","","",""
"94213099999","2005-04-08T15:00:00","-17.0166666","128.2166666","205.0","WARMUN, AS","FM-12","4","","55","98","","","","","24","","29.74","29.06","18.64","70","050","","10","","","","","","","","","","","","","","","","","","","","","","","","","","","","","","","","","","","","","","","","","","","","","","","","","","","","","","","","","","","","","","","","","","","","","","","","","","","","","","","","","","","","","","","","","","","SYN072AAXX  08074 94213 11980 60509 10365 20126 39842 40072 60001 70311 85280;","","","","","","","","","",""
"94213099999","2005-04-09T06:00:00","-17.0166666","128.2166666","205.0","WARMUN, AS","FM-12","4","","65","71","","","","","83","","29.87","29.19","18.64","67","000","","0","","","","","","","","","","","","","","","","","","","","","","","","","","","","","","","","","","","","","","","","","","","","","","","","","","","","","","","","","","","","","","","","","","","","","","","","","","","","","","","","","","","","","","","","","","","SYN066AAXX  08224 94213 41/80 30000 10214 20184 39884 40114 70111 83040;","","","","","","","","","",""
"94213099999","2005-04-09T09:00:00","-17.0166666","128.2166666","205.0","WARMUN, AS","FM-12","4","","67","93","","","","","43","","29.89","29.21","18.64","75","180","","5","","","","","","","","","","","","","","","","","","","","","","","","","","","","","","","","","","","","","","","","","","","","","","","","","","","","","","","","","","","","","","","","","","","","","","","","","","","","","","","","","","","","","","","","","","","SYN082AAXX  09014 94213 11880 31804 10340 20197 39891 40121 60004 70211 81140 333 70000;","","","","","","","","","",""
"94213099999","2005-04-09T15:00:00","-17.0166666","128.2166666","205.0","WARMUN, AS","FM-12","4","","56","99","","","","","24","","29.76","29.09","18.64","71","310","","7","","","","","","","","","","","","","","","","","","","","","","","","","","","","","","","","","","","","","","","","","","","","","","","","","","","","","","","","","","","","","","","","","","","","","","","","","","","","","","","","","","","","","","","","","","","SYN072AAXX  09074 94213 11780 33106 10371 20134 39850 40079 60001 70200 82108;","","","","","","","","","",""
"94213099999","2005-04-10T06:00:00","-17.0166666","128.2166666","205.0","WARMUN, AS","FM-12","4","","66","72","","","","","81","","29.88","29.20","12.43","68","000","","0","","","","","","","","","","","","","","","","","","","","","","","","","","","","","","","","","","","","","","","","","","","","","","","","","","","","","","","","","","","","","","","","","","","","","","","","","","","","","","","","","","","","","","","","","","","SYN066AAXX  09224 94213 41470 70000 10222 20187 39887 40117 70222 84570;","","","","","","","","","",""
"94213099999","2005-04-10T09:00:00","-17.0166666","128.2166666","205.0","WARMUN, AS","FM-12","4","","66","95","","","","","39","","29.88","29.20","15.53","75","270","","11","","","","","","","","","","","","","","","","","","","","","","","","","","","","","","","","","","","","","","","","","","","","","","","","","","","","","","","","","","","","","","","","","","","","","","","","","","","","","","","","","","","","","","","","","","","SYN082AAXX  10014 94213 11/75 52710 10350 20191 39888 40118 60004 70222 80005 333 70000;","","","","","","","","","",""
"94213099999","2005-04-10T15:00:00","-17.0166666","128.2166666","205.0","WARMUN, AS","FM-12","4","","60","101","","","","","26","","29.77","29.09","18.64","74","090","","11","","","","","","","","","","","","","","","","","","","","","","","","","","","","","","","","","","","","","","","","","","","","","","","","","","","","","","","","","","","","","","","","","","","","","","","","","","","","","","","","","","","","","","","","","","","SYN072AAXX  10074 94213 11980 60910 10385 20158 39851 40080 60001 70222 82236;","","","","","","","","","",""
"94213099999","2005-04-11T06:00:00","-17.0166666","128.2166666","205.0","WARMUN, AS","FM-12","4","","69","76","","","","","79","","29.85","29.17","17.40","71","000","","0","","","","","","","","","","","","","","","","","","","","","","","","","","","","","","","","","","","","","","","","","","","","","","","","","","","","","","","","","","","","","","","","","","","","","","","","","","","","","","","","","","","","","","","","","","","SYN066AAXX  10224 94213 41778 70000 10245 20207 39877 40107 70322 86508;","","","","","","","","","",""
"94213099999","2005-04-11T09:00:00","-17.0166666","128.2166666","205.0","WARMUN, AS","FM-12","4","","66","95","","","","","39","","29.88","29.20","18.64","75","130","","6","","","","","","","","","","","","","","","","","","","","","","","","","","","","","","","","","","","","","","","","","","","","","","","","","","","","","","","","","","","","","","","","","","","","","","","","","","","","","","","","","","","","","","","","","","","SYN082AAXX  11014 94213 11/80 61305 10350 20191 39887 40117 60004 70222 86070 333 70000;","","","","","","","","","",""
"94213099999","2005-04-11T15:00:00","-17.0166666","128.2166666","205.0","WARMUN, AS","FM-12","4","","66","99","","","","","33","","29.75","29.07","18.64","76","090","","8","","","","","","","","","","","","","","","","","","","","","","","","","","","","","","","","","","","","","","","","","","","","","","","","","","","","","","","","","","","","","","","","","","","","","","","","","","","","","","","","","","","","","","","","","","","SYN072AAXX  11074 94213 11880 60907 10374 20187 39844 40073 60001 70322 82238;","","","","","","","","","",""
"94213099999","2005-04-12T06:00:00","-17.0166666","128.2166666","205.0","WARMUN, AS","FM-12","4","","68","81","","","","","66","","29.81","29.13","17.40","72","130","","5","","","","","","","","","","","","","","","","","","","","","","","","","","","","","","","","","","","","","","","","","","","","","","","","","","","","","","","","","","","","","","","","","","","","","","","","","","","","","","","","","","","","","","","","","","","SYN066AAXX  11224 94213 41/78 21304 10270 20201 39865 40095 70111 81018;","","","","","","","","","",""
"94213099999","2005-04-12T09:00:00","-17.0166666","128.2166666","205.0","WARMUN, AS","FM-12","4","","71","94","","","","","48","","29.83","29.15","18.02","78","130","","6","","","","","","","","","","","","","","","","","","","","","","","","","","","","","","","","","","","","","","","","","","","","","","","","","","","","","","","","","","","","","","","","","","","","","","","","","","","","","","","","","","","","","","","","","","","SYN082AAXX  12014 94213 11/79 61305 10346 20219 39871 40101 60004 70311 84036 333 70000;","","","","","","","","","",""
"94213099999","2005-04-12T15:00:00","-17.0166666","128.2166666","205.0","WARMUN, AS","FM-12","4","","59","101","","","","","25","","29.74","29.06","18.64","73","130","","14","","","","","","","","","","","","","","","","","","","","","","","","","","","","","","","","","","","","","","","","","","","","","","","","","","","","","","","","","","","","","","","","","","","","","","","","","","","","","","","","","","","","","","","","","","","SYN072AAXX  12074 94213 11980 61312 10384 20148 39841 40070 60001 70311 83140;","","","","","","","","","",""
"94213099999","2005-04-13T06:00:00","-17.0166666","128.2166666","205.0","WARMUN, AS","FM-12","4","","68","78","","","","","72","","29.83","29.15","12.43","71","180","","6","","","","","","","","","","","","","","","","","","","","","","","","","","","","","","","","","","","","","","","","","","","","","","","","","","","","","","","","","","","","","","","","","","","","","","","","","","","","","","","","","","","","","","","","","","","SYN066AAXX  12224 94213 41570 51805 10255 20201 39871 40101 70222 83506;","","","","","","","","","",""
"94213099999","2005-04-13T09:00:00","-17.0166666","128.2166666","205.0","WARMUN, AS","FM-12","4","","70","91","","","","","50","","29.87","29.19","18.64","76","050","","9","","","","","","","","","","","","","","","","","","","","","","","","","","","","","","","","","","","","","","","","","","","","","","","","","","","","","","","","","","","","","","","","","","","","","","","","","","","","","","","","","","","","","","","","","","","SYN082AAXX  13014 94213 11/80 40508 10330 20212 39884 40114 60004 70122 80006 333 70000;","","","","","","","","","",""
"94213099999","2005-04-13T15:00:00","-17.0166666","128.2166666","205.0","WARMUN, AS","FM-12","4","","58","99","","","","","25","","29.75","29.08","18.64","72","110","","17","","","","","","","","","","","","","","","","","","","","","","","","","","","","","","","","","","","","","","","","","","","","","","","","","","","","","","","","","","","","","","","","","","","","","","","","","","","","","","","","","","","","","","","","","","","SYN072AAXX  13074 94213 11980 51115 10375 20143 39847 40076 60001 70322 82239;","","","","","","","","","",""
"94213099999","2005-04-14T06:00:00","-17.0166666","128.2166666","205.0","WARMUN, AS","FM-12","4","","63","69","","","","","81","","29.85","29.17","18.64","65","000","","0","","","","","","","","","","","","","","","","","","","","","","","","","","","","","","","","","","","","","","","","","","","","","","","","","","","","","","","","","","","","","","","","","","","","","","","","","","","","","","","","","","","","","","","","","","","SYN066AAXX  13224 94213 41/80 10000 10205 20172 39878 40108 70100 80008;","","","","","","","","","",""
"94213099999","2005-04-14T09:00:00","-17.0166666","128.2166666","205.0","WARMUN, AS","FM-12","4","","58","94","","","","","30","","29.90","29.22","15.53","71","050","","6","","","","","","","","","","","","","","","","","","","","","","","","","","","","","","","","","","","","","","","","","","","","","","","","","","","","","","","","","","","","","","","","","","","","","","","","","","","","","","","","","","","","","","","","","","","SYN082AAXX  14014 94213 11/75 10505 10345 20143 39894 40124 60004 70200 80008 333 70000;","","","","","","","","","",""
"94213099999","2005-04-14T15:00:00","-17.0166666","128.2166666","205.0","WARMUN, AS","FM-12","4","","51","100","","","","","19","","29.77","29.09","18.64","69","110","","9","","","","","","","","","","","","","","","","","","","","","","","","","","","","","","","","","","","","","","","","","","","","","","","","","","","","","","","","","","","","","","","","","","","","","","","","","","","","","","","","","","","","","","","","","","","SYN072AAXX  14074 94213 11/80 11108 10376 20103 39852 40082 60001 70200 80008;","","","","","","","","","",""
"94213099999","2005-04-15T06:00:00","-17.0166666","128.2166666","205.0","WARMUN, AS","FM-12","4","","59","70","","","","","69","","29.87","29.19","17.40","63","160","","5","","","","","","","","","","","","","","","","","","","","","","","","","","","","","","","","","","","","","","","","","","","","","","","","","","","","","","","","","","","","","","","","","","","","","","","","","","","","","","","","","","","","","","","","","","","SYN066AAXX  14224 94213 41/78 11604 10210 20151 39885 40115 70200 81050;","","","","","","","","","",""
"94213099999","2005-04-15T09:00:00","-17.0166666","128.2166666","205.0","WARMUN, AS","FM-12","4","","50","95","","","","","22","CLR:00","29.91","29.23","18.64","67","090","","17","","","","","","","","","","","","","","","","","","","","","","","","","","","","","","","","","","","","","","","","","","","","","","","","","","","","","","","","","","","","","","","","","","","","","","","","","","","","","","","","","","","","","","","","","","","SYN076AAXX  15014 94213 11980 00915 10350 20101 39898 40129 60004 70222 333 70000;","","","","","","","","","",""
"94213099999","2005-04-15T15:00:00","-17.0166666","128.2166666","205.0","WARMUN, AS","FM-12","4","","51","99","","","","","20","CLR:00","29.79","29.11","18.64","69","360","","6","","","","","","","","","","","","","","","","","","","","","","","","","","","","","","","","","","","","","","","","","","","","","","","","","","","","","","","","","","","","","","","","","","","","","","","","","","","","","","","","","","","","","","","","","","","SYN066AAXX  15074 94213 11980 03605 10375 20107 39858 40088 60001 70200;","","","","","","","","","",""
"94213099999","2005-04-16T06:00:00","-17.0166666","128.2166666","205.0","WARMUN, AS","FM-12","4","","59","68","","","","","74","","29.88","29.20","15.53","63","000","","0","","","","","","","","","","","","","","","","","","","","","","","","","","","","","","","","","","","","","","","","","","","","","","","","","","","","","","","","","","","","","","","","","","","","","","","","","","","","","","","","","","","","","","","","","","","SYN066AAXX  15224 94213 41/75 10000 10198 20151 39887 40117 70322 80008;","","","","","","","","","",""
"94213099999","2005-04-16T09:00:00","-17.0166666","128.2166666","205.0","WARMUN, AS","FM-12","4","","57","92","","","","","31","CLR:00","29.91","29.23","18.64","70","090","","6","","","","","","","","","","","","","","","","","","","","","","","","","","","","","","","","","","","","","","","","","","","","","","","","","","","","","","","","","","","","","","","","","","","","","","","","","","","","","","","","","","","","","","","","","","","SYN076AAXX  16014 94213 11980 00905 10335 20139 39897 40128 60004 70222 333 70000;","","","","","","","","","",""
"94213099999","2005-04-16T15:00:00","-17.0166666","128.2166666","205.0","WARMUN, AS","FM-12","4","","51","99","","","","","19","","29.79","29.11","18.64","69","090","","14","","","","","","","","","","","","","","","","","","","","","","","","","","","","","","","","","","","","","","","","","","","","","","","","","","","","","","","","","","","","","","","","","","","","","","","","","","","","","","","","","","","","","","","","","","","SYN072AAXX  16074 94213 11980 30912 10375 20104 39857 40087 60001 70300 83200;","","","","","","","","","",""
"94213099999","2005-04-17T06:00:00","-17.0166666","128.2166666","205.0","WARMUN, AS","FM-12","4","","60","69","","","","","74","","29.88","29.20","17.40","64","000","","0","","","","","","","","","","","","","","","","","","","","","","","","","","","","","","","","","","","","","","","","","","","","","","","","","","","","","","","","","","","","","","","","","","","","","","","","","","","","","","","","","","","","","","","","","","","SYN066AAXX  16224 94213 41478 30000 10204 20155 39889 40119 70300 82108;","","","","","","","","","",""
"94213099999","2005-04-17T09:00:00","-17.0166666","128.2166666","205.0","WARMUN, AS","FM-12","4","","60","93","","","","","33","CLR:00","29.91","29.23","18.02","71","000","","0","","","","","","","","","","","","","","","","","","","","","","","","","","","","","","","","","","","","","","","","","","","","","","","","","","","","","","","","","","","","","","","","","","","","","","","","","","","","","","","","","","","","","","","","","","","SYN076AAXX  17014 94213 11979 00000 10340 20157 39897 40128 60004 70100 333 70000;","","","","","","","","","",""
"94213099999","2005-04-17T15:00:00","-17.0166666","128.2166666","205.0","WARMUN, AS","FM-12","4","","49","99","","","","","19","","29.78","29.10","18.64","68","050","","17","","","","","","","","","","","","","","","","","","","","","","","","","","","","","","","","","","","","","","","","","","","","","","","","","","","","","","","","","","","","","","","","","","","","","","","","","","","","","","","","","","","","","","","","","","","SYN072AAXX  17074 94213 11980 30515 10370 20095 39853 40083 60001 70300 82108;","","","","","","","","","",""
"94213099999","2005-04-18T06:00:00","-17.0166666","128.2166666","205.0","WARMUN, AS","FM-12","4","","60","68","","","","","74","","29.90","29.22","18.02","63","000","","0","","","","","","","","","","","","","","","","","","","","","","","","","","","","","","","","","","","","","","","","","","","","","","","","","","","","","","","","","","","","","","","","","","","","","","","","","","","","","","","","","","","","","","","","","","","SYN066AAXX  17224 94213 41/79 10000 10201 20154 39894 40124 70100 81040;","","","","","","","","","",""
"94213099999","2005-04-18T09:00:00","-17.0166666","128.2166666","205.0","WARMUN, AS","FM-12","4","","57","92","","","","","31","","29.94","29.26","16.78","70","000","","0","","","","","","","","","","","","","","","","","","","","","","","","","","","","","","","","","","","","","","","","","","","","","","","","","","","","","","","","","","","","","","","","","","","","","","","","","","","","","","","","","","","","","","","","","","","SYN082AAXX  18014 94213 11/77 10000 10333 20138 39908 40139 60004 70200 81040 333 70000;","","","","","","","","","",""
"94213099999","2005-04-18T15:00:00","-17.0166666","128.2166666","205.0","WARMUN, AS","FM-12","4","","48","99","","","","","18","","29.82","29.14","18.64","68","090","","16","","","","","","","","","","","","","","","","","","","","","","","","","","","","","","","","","","","","","","","","","","","","","","","","","","","","","","","","","","","","","","","","","","","","","","","","","","","","","","","","","","","","","","","","","","","SYN072AAXX  18074 94213 11580 10914 10375 20090 39869 40099 60001 70200 81100;","","","","","","","","","",""
"94213099999","2005-04-19T06:00:00","-17.0166666","128.2166666","205.0","WARMUN, AS","FM-12","4","","61","67","","","","","81","CLR:00","","","18.02","","000","","0","","","","","","","","","","","","","","","","","","","","","","","","","","","","","","","","","","","","","","","","","","","","","","","","","","","","","","","","","","","","","","","","","","","","","","","","","","","","","","","","","","","","","","","","","","","SYN048AAXX  18224 94213 41979 00000 10195 20162 70100;","","","","","","","","","",""
"94213099999","2005-04-19T09:00:00","-17.0166666","128.2166666","205.0","WARMUN, AS","FM-12","4","","60","90","","","","","37","CLR:00","29.98","29.30","18.64","71","360","","6","","","","","","","","","","","","","","","","","","","","","","","","","","","","","","","","","","","","","","","","","","","","","","","","","","","","","","","","","","","","","","","","","","","","","","","","","","","","","","","","","","","","","","","","","","","SYN076AAXX  19014 94213 11980 03605 10325 20158 39921 40152 60004 70200 333 70000;","","","","","","","","","",""
"94213099999","2005-04-19T15:00:00","-17.0166666","128.2166666","205.0","WARMUN, AS","FM-12","4","","52","99","","","","","21","","29.86","29.18","18.64","69","020","","9","","","","","","","","","","","","","","","","","","","","","","","","","","","","","","","","","","","","","","","","","","","","","","","","","","","","","","","","","","","","","","","","","","","","","","","","","","","","","","","","","","","","","","","","","","","SYN072AAXX  19074 94213 11980 40208 10370 20109 39882 40112 60001 70300 84200;","","","","","","","","","",""
"94213099999","2005-04-20T06:00:00","-17.0166666","128.2166666","205.0","WARMUN, AS","FM-12","4","","57","71","","","","","62","","29.96","29.27","17.40","63","160","","8","","","","","","","","","","","","","","","","","","","","","","","","","","","","","","","","","","","","","","","","","","","","","","","","","","","","","","","","","","","","","","","","","","","","","","","","","","","","","","","","","","","","","","","","","","","SYN066AAXX  19224 94213 41478 31607 10215 20138 39913 40144 70300 82108;","","","","","","","","","",""
"94213099999","2005-04-20T09:00:00","-17.0166666","128.2166666","205.0","WARMUN, AS","FM-12","4","","55","93","","","","","28","CLR:00","30.00","29.32","18.64","69","130","","9","","","","","","","","","","","","","","","","","","","","","","","","","","","","","","","","","","","","","","","","","","","","","","","","","","","","","","","","","","","","","","","","","","","","","","","","","","","","","","","","","","","","","","","","","","","SYN076AAXX  20014 94213 11980 01308 10337 20126 39928 40159 60004 70100 333 70000;","","","","","","","","","",""
"94213099999","2005-04-20T15:00:00","-17.0166666","128.2166666","205.0","WARMUN, AS","FM-12","4","","44","99","","","","","15","","29.86","29.18","18.64","66","090","","19","","","","","","","","","","","","","","","","","","","","","","","","","","","","","","","","","","","","","","","","","","","","","","","","","","","","","","","","","","","","","","","","","","","","","","","","","","","","","","","","","","","","","","","","","","","SYN072AAXX  20074 94213 11/80 10917 10370 20064 39881 40111 60001 70300 80008;","","","","","","","","","",""
"94213099999","2005-04-21T06:00:00","-17.0166666","128.2166666","205.0","WARMUN, AS","FM-12","4","","47","75","","","","","36","","29.94","29.26","17.40","59","180","","7","","","","","","","","","","","","","","","","","","","","","","","","","","","","","","","","","","","","","","","","","","","","","","","","","","","","","","","","","","","","","","","","","","","","","","","","","","","","","","","","","","","","","","","","","","","SYN066AAXX  20224 94213 41578 21806 10240 20081 39908 40139 70300 82900;","","","","","","","","","",""
"94213099999","2005-04-21T09:00:00","-17.0166666","128.2166666","205.0","WARMUN, AS","FM-12","4","","42","95","","","","","16","CLR:00","29.99","29.31","18.02","64","090","","5","","","","","","","","","","","","","","","","","","","","","","","","","","","","","","","","","","","","","","","","","","","","","","","","","","","","","","","","","","","","","","","","","","","","","","","","","","","","","","","","","","","","","","","","","","","SYN076AAXX  21014 94213 11979 00904 10348 20057 39924 40155 60004 70100 333 70000;","","","","","","","","","",""
"94213099999","2005-04-21T15:00:00","-17.0166666","128.2166666","205.0","WARMUN, AS","FM-12","4","","46","98","","","","","17","","29.85","29.17","18.64","67","130","","11","","","","","","","","","","","","","","","","","","","","","","","","","","","","","","","","","","","","","","","","","","","","","","","","","","","","","","","","","","","","","","","","","","","","","","","","","","","","","","","","","","","","","","","","","","","SYN072AAXX  21074 94213 11980 31310 10365 20076 39878 40108 60001 70300 82240;","","","","","","","","","",""
"94213099999","2005-04-22T06:00:00","-17.0166666","128.2166666","205.0","WARMUN, AS","FM-12","4","","52","72","","","","","51","","29.94","29.26","15.53","60","130","","11","","","","","","","","","","","","","","","","","","","","","","","","","","","","","","","","","","","","","","","","","","","","","","","","","","","","","","","","","","","","","","","","","","","","","","","","","","","","","","","","","","","","","","","","","","","SYN066AAXX  21224 94213 41675 11310 10220 20113 39907 40138 70100 81100;","","","","","","","","","",""
"94213099999","2005-04-22T09:00:00","-17.0166666","128.2166666","205.0","WARMUN, AS","FM-12","4","","52","90","","||FU","","","27","","30.00","29.31","9.32","67","050","","17","","","","","","","","","","","","","","","","","","","","","","","","","","","","","","","","","","","","","","","","","","","","","","","","","","","","","","","","","","","","","","","","","","","","","","","","","","","","","","","","","","","","","","","","","","","SYN082AAXX  22014 94213 11/65 10515 10325 20111 39927 40158 60004 70400 81040 333 70000;","","","","","","","","","",""
"94213099999","2005-04-22T15:00:00","-17.0166666","128.2166666","205.0","WARMUN, AS","FM-12","4","","55","95","","","","","26","","29.88","29.20","18.64","70","090","","17","","","","","","","","","","","","","","","","","","","","","","","","","","","","","","","","","","","","","","","","","","","","","","","","","","","","","","","","","","","","","","","","","","","","","","","","","","","","","","","","","","","","","","","","","","","SYN072AAXX  22074 94213 11880 40915 10348 20126 39888 40118 60001 70300 84400;","","","","","","","","","",""
"94213099999","2005-04-23T06:00:00","-17.0166666","128.2166666","205.0","WARMUN, AS","FM-12","4","","62","78","","","","","56","","29.97","29.29","18.02","68","000","","0","","","","","","","","","","","","","","","","","","","","","","","","","","","","","","","","","","","","","","","","","","","","","","","","","","","","","","","","","","","","","","","","","","","","","","","","","","","","","","","","","","","","","","","","","","","SYN066AAXX  22224 94213 41679 70000 10258 20164 39918 40149 70322 87400;","","","","","","","","","",""
"94213099999","2005-04-23T09:00:00","-17.0166666","128.2166666","205.0","WARMUN, AS","FM-12","4","","55","90","","","","","30","CLR:00","30.03","29.35","18.64","68","050","","21","","","","","","","","","","","","","","","","","","","","","","","","","","","","","","","","","","","","","","","","","","","","","","","","","","","","","","","","","","","","","","","","","","","","","","","","","","","","","","","","","","","","","","","","","","","SYN076AAXX  23014 94213 11980 00518 10322 20126 39939 40171 60004 70100 333 70000;","","","","","","","","","",""
"94213099999","2005-04-23T15:00:00","-17.0166666","128.2166666","205.0","WARMUN, AS","FM-12","4","","56","95","","","","","27","","29.89","29.21","18.64","70","130","","9","","","","","","","","","","","","","","","","","","","","","","","","","","","","","","","","","","","","","","","","","","","","","","","","","","","","","","","","","","","","","","","","","","","","","","","","","","","","","","","","","","","","","","","","","","","SYN072AAXX  23074 94213 11880 61308 10350 20134 39891 40121 60001 70300 86200;","","","","","","","","","",""
"94213099999","2005-04-24T06:00:00","-17.0166666","128.2166666","205.0","WARMUN, AS","FM-12","4","","51","74","","","","","45","CLR:00","29.98","29.29","17.40","61","000","","0","","","","","","","","","","","","","","","","","","","","","","","","","","","","","","","","","","","","","","","","","","","","","","","","","","","","","","","","","","","","","","","","","","","","","","","","","","","","","","","","","","","","","","","","","","","SYN060AAXX  23224 94213 41978 00000 10235 20108 39920 40151 70111;","","","","","","","","","",""
"94213099999","2005-04-24T09:00:00","-17.0166666","128.2166666","205.0","WARMUN, AS","FM-12","4","","54","90","","","","","29","CLR:00","30.01","29.33","18.64","68","130","","11","","","","","","","","","","","","","","","","","","","","","","","","","","","","","","","","","","","","","","","","","","","","","","","","","","","","","","","","","","","","","","","","","","","","","","","","","","","","","","","","","","","","","","","","","","","SYN076AAXX  24014 94213 11980 01310 10325 20124 39933 40164 60004 70211 333 70000;","","","","","","","","","",""
"94213099999","2005-04-24T15:00:00","-17.0166666","128.2166666","205.0","WARMUN, AS","FM-12","4","","48","95","","","","","20","","29.88","29.20","18.64","67","050","","9","","","","","","","","","","","","","","","","","","","","","","","","","","","","","","","","","","","","","","","","","","","","","","","","","","","","","","","","","","","","","","","","","","","","","","","","","","","","","","","","","","","","","","","","","","","SYN072AAXX  24074 94213 11980 30508 10350 20087 39887 40117 60001 70300 83100;","","","","","","","","","",""
"94213099999","2005-04-25T06:00:00","-17.0166666","128.2166666","205.0","WARMUN, AS","FM-12","4","","55","69","","","","","60","","29.95","29.27","12.43","61","000","","0","","","","","","","","","","","","","","","","","","","","","","","","","","","","","","","","","","","","","","","","","","","","","","","","","","","","","","","","","","","","","","","","","","","","","","","","","","","","","","","","","","","","","","","","","","","SYN066AAXX  24224 94213 41570 10000 10208 20127 39911 40142 70200 81400;","","","","","","","","","",""
"94213099999","2005-04-25T09:00:00","-17.0166666","128.2166666","205.0","WARMUN, AS","FM-12","4","","46","91","","","","","21","CLR:00","30.00","29.31","17.40","65","020","","23","","","","","","","","","","","","","","","","","","","","","","","","","","","","","","","","","","","","","","","","","","","","","","","","","","","","","","","","","","","","","","","","","","","","","","","","","","","","","","","","","","","","","","","","","","","SYN076AAXX  25014 94213 11978 00220 10330 20079 39927 40158 60004 70200 333 70000;","","","","","","","","","",""
"94213099999","2005-04-25T15:00:00","-17.0166666","128.2166666","205.0","WARMUN, AS","FM-12","4","","51","95","","","","","22","","29.86","29.18","18.64","68","110","","11","","","","","","","","","","","","","","","","","","","","","","","","","","","","","","","","","","","","","","","","","","","","","","","","","","","","","","","","","","","","","","","","","","","","","","","","","","","","","","","","","","","","","","","","","","","SYN072AAXX  25074 94213 11980 21110 10352 20104 39883 40113 60001 70300 82100;","","","","","","","","","",""
"94213099999","2005-04-26T06:00:00","-17.0166666","128.2166666","205.0","WARMUN, AS","FM-12","4","","61","72","","","","","70","","29.95","29.27","12.43","65","000","","0","","","","","","","","","","","","","","","","","","","","","","","","","","","","","","","","","","","","","","","","","","","","","","","","","","","","","","","","","","","","","","","","","","","","","","","","","","","","","","","","","","","","","","","","","","","SYN066AAXX  25224 94213 41570 40000 10220 20162 39911 40142 70300 82180;","","","","","","","","","",""
"94213099999","2005-04-26T09:00:00","-17.0166666","128.2166666","205.0","WARMUN, AS","FM-12","4","","53","92","","","","","26","CLR:00","29.98","29.30","18.64","68","090","","23","","","","","","","","","","","","","","","","","","","","","","","","","","","","","","","","","","","","","","","","","","","","","","","","","","","","","","","","","","","","","","","","","","","","","","","","","","","","","","","","","","","","","","","","","","","SYN076AAXX  26014 94213 11980 00920 10335 20115 39922 40153 60004 70200 333 70000;","","","","","","","","","",""
"94213099999","2005-04-26T15:00:00","-17.0166666","128.2166666","205.0","WARMUN, AS","FM-12","4","","52","93","","","","","24","","29.88","29.20","18.64","68","110","","3","","","","","","","","","","","","","","","","","","","","","","","","","","","","","","","","","","","","","","","","","","","","","","","","","","","","","","","","","","","","","","","","","","","","","","","","","","","","","","","","","","","","","","","","","","","SYN072AAXX  26074 94213 11980 51103 10340 20110 39887 40117 60001 70311 84280;","","","","","","","","","",""
"94213099999","2005-04-27T06:00:00","-17.0166666","128.2166666","205.0","WARMUN, AS","FM-12","4","","59","73","","","","","62","","29.96","29.28","17.40","64","000","","0","","","","","","","","","","","","","","","","","","","","","","","","","","","","","","","","","","","","","","","","","","","","","","","","","","","","","","","","","","","","","","","","","","","","","","","","","","","","","","","","","","","","","","","","","","","SYN066AAXX  26224 94213 41578 60000 10226 20149 39915 40146 70311 84203;","","","","","","","","","",""
"94213099999","2005-04-27T09:00:00","-17.0166666","128.2166666","205.0","WARMUN, AS","FM-12","4","","57","89","","","","","34","CLR:00","30.00","29.32","18.02","69","020","","17","","","","","","","","","","","","","","","","","","","","","","","","","","","","","","","","","","","","","","","","","","","","","","","","","","","","","","","","","","","","","","","","","","","","","","","","","","","","","","","","","","","","","","","","","","","SYN076AAXX  27014 94213 11979 00215 10318 20141 39929 40160 60004 70111 333 70000;","","","","","","","","","",""
"94213099999","2005-04-27T15:00:00","-17.0166666","128.2166666","205.0","WARMUN, AS","FM-12","4","","56","93","","","","","29","","29.88","29.20","18.64","69","090","","7","","","","","","","","","","","","","","","","","","","","","","","","","","","","","","","","","","","","","","","","","","","","","","","","","","","","","","","","","","","","","","","","","","","","","","","","","","","","","","","","","","","","","","","","","","","SYN072AAXX  27074 94213 11780 50906 10340 20135 39888 40118 60001 70311 83208;","","","","","","","","","",""
"94213099999","2005-04-28T06:00:00","-17.0166666","128.2166666","205.0","WARMUN, AS","FM-12","4","","60","69","","","","","73","","29.98","29.30","18.02","64","180","","5","","","","","","","","","","","","","","","","","","","","","","","","","","","","","","","","","","","","","","","","","","","","","","","","","","","","","","","","","","","","","","","","","","","","","","","","","","","","","","","","","","","","","","","","","","","SYN066AAXX  27224 94213 41579 31804 10205 20155 39922 40153 70100 82208;","","","","","","","","","",""
"94213099999","2005-04-28T09:00:00","-17.0166666","128.2166666","205.0","WARMUN, AS","FM-12","4","","54","88","","","","","31","","30.02","29.34","18.64","67","050","","9","","","","","","","","","","","","","","","","","","","","","","","","","","","","","","","","","","","","","","","","","","","","","","","","","","","","","","","","","","","","","","","","","","","","","","","","","","","","","","","","","","","","","","","","","","","SYN082AAXX  28014 94213 11/80 10508 10312 20123 39935 40166 60004 70100 80008 333 70000;","","","","","","","","","",""
"94213099999","2005-04-28T15:00:00","-17.0166666","128.2166666","205.0","WARMUN, AS","FM-12","4","","55","93","","","","","28","","29.88","29.21","18.64","69","050","","8","","","","","","","","","","","","","","","","","","","","","","","","","","","","","","","","","","","","","","","","","","","","","","","","","","","","","","","","","","","","","","","","","","","","","","","","","","","","","","","","","","","","","","","","","","","SYN072AAXX  28074 94213 11880 30507 10337 20130 39890 40120 60001 70300 82208;","","","","","","","","","",""
"94213099999","2005-04-29T06:00:00","-17.0166666","128.2166666","205.0","WARMUN, AS","FM-12","4","","55","66","","","","","67","","29.96","29.28","16.16","60","000","","0","","","","","","","","","","","","","","","","","","","","","","","","","","","","","","","","","","","","","","","","","","","","","","","","","","","","","","","","","","","","","","","","","","","","","","","","","","","","","","","","","","","","","","","","","","","SYN066AAXX  28224 94213 41576 30000 10190 20128 39914 40145 70200 81901;","","","","","","","","","",""
"94213099999","2005-04-29T09:00:00","-17.0166666","128.2166666","205.0","WARMUN, AS","FM-12","4","","46","89","","","","","23","","29.99","29.31","18.64","64","050","","13","","","","","","","","","","","","","","","","","","","","","","","","","","","","","","","","","","","","","","","","","","","","","","","","","","","","","","","","","","","","","","","","","","","","","","","","","","","","","","","","","","","","","","","","","","","SYN082AAXX  29014 94213 11980 30511 10317 20078 39925 40156 60004 70200 81101 333 70000;","","","","","","","","","",""
"94213099999","2005-04-29T15:00:00","-17.0166666","128.2166666","205.0","WARMUN, AS","FM-12","4","","45","94","","","","","18","CLR:00","29.86","29.18","18.64","65","110","","8","","","","","","","","","","","","","","","","","","","","","","","","","","","","","","","","","","","","","","","","","","","","","","","","","","","","","","","","","","","","","","","","","","","","","","","","","","","","","","","","","","","","","","","","","","","SYN066AAXX  29074 94213 11980 01107 10346 20073 39881 40111 60001 70100;","","","","","","","","","",""
"94213099999","2005-04-30T06:00:00","-17.0166666","128.2166666","205.0","WARMUN, AS","FM-12","4","","58","70","","","","","65","","29.93","29.25","12.43","63","000","","0","","","","","","","","","","","","","","","","","","","","","","","","","","","","","","","","","","","","","","","","","","","","","","","","","","","","","","","","","","","","","","","","","","","","","","","","","","","","","","","","","","","","","","","","","","","SYN066AAXX  29224 94213 41/70 20000 10210 20142 39905 40136 70100 82080;","","","","","","","","","",""
"94213099999","2005-04-30T09:00:00","-17.0166666","128.2166666","205.0","WARMUN, AS","FM-12","4","","54","89","","","","","30","CLR:00","29.97","29.29","15.53","67","360","","6","","","","","","","","","","","","","","","","","","","","","","","","","","","","","","","","","","","","","","","","","","","","","","","","","","","","","","","","","","","","","","","","","","","","","","","","","","","","","","","","","","","","","","","","","","","SYN076AAXX  30014 94213 11975 03605 10315 20120 39919 40150 60004 70200 333 70000;","","","","","","","","","",""
"94213099999","2005-04-30T15:00:00","-17.0166666","128.2166666","205.0","WARMUN, AS","FM-12","4","","46","95","","","","","19","CLR:00","29.83","29.15","18.64","66","090","","23","","","","","","","","","","","","","","","","","","","","","","","","","","","","","","","","","","","","","","","","","","","","","","","","","","","","","","","","","","","","","","","","","","","","","","","","","","","","","","","","","","","","","","","","","","","SYN066AAXX  30074 94213 11980 00920 10350 20078 39873 40103 60001 70200;","","","","","","","","","",""
"94213099999","2005-05-01T06:00:00","-17.0166666","128.2166666","205.0","WARMUN, AS","FM-12","4","","54","69","","","","","59","","29.92","29.23","18.02","60","160","","6","","","","","","","","","","","","","","","","","","","","","","","","","","","","","","","","","","","","","","","","","","","","","","","","","","","","","","","","","","","","","","","","","","","","","","","","","","","","","","","","","","","","","","","","","","","SYN066AAXX  30224 94213 41/79 11605 10205 20122 39899 40132 70300 80008;","","","","","","","","","",""
"94213099999","2005-05-01T09:00:00","-17.0166666","128.2166666","205.0","WARMUN, AS","FM-12","4","","51","89","","","","","28","CLR:00","29.94","29.25","18.64","66","090","","8","","","","","","","","","","","","","","","","","","","","","","","","","","","","","","","","","","","","","","","","","","","","","","","","","","","","","","","","","","","","","","","","","","","","","","","","","","","","","","","","","","","","","","","","","","","SYN076AAXX  01014 94213 11980 00907 10316 20107 39906 40140 60004 70100 333 70000;","","","","","","","","","",""
"94213099999","2005-05-01T15:00:00","-17.0166666","128.2166666","205.0","WARMUN, AS","FM-12","4","","47","96","","","","","19","CLR:00","29.79","29.11","18.64","67","050","","21","","","","","","","","","","","","","","","","","","","","","","","","","","","","","","","","","","","","","","","","","","","","","","","","","","","","","","","","","","","","","","","","","","","","","","","","","","","","","","","","","","","","","","","","","","","SYN066AAXX  01074 94213 11980 00518 10353 20083 39857 40089 60001 70200;","","","","","","","","","",""
"94213099999","2005-05-02T06:00:00","-17.0166666","128.2166666","205.0","WARMUN, AS","FM-12","4","","54","77","","","","","45","","29.94","29.25","18.64","63","000","","0","","","","","","","","","","","","","","","","","","","","","","","","","","","","","","","","","","","","","","","","","","","","","","","","","","","","","","","","","","","","","","","","","","","","","","","","","","","","","","","","","","","","","","","","","","","SYN066AAXX  01224 94213 41/80 20000 10248 20121 39906 40140 703// 81041;","","","","","","","","","",""
"94213099999","2005-05-02T09:00:00","-17.0166666","128.2166666","205.0","WARMUN, AS","FM-12","4","","50","89","","","","","26","","29.97","29.28","15.53","66","030","","8","","","","","","","","","","","","","","","","","","","","","","","","","","","","","","","","","","","","","","","","","","","","","","","","","","","","","","","","","","","","","","","","","","","","","","","","","","","","","","","","","","","","","","","","","","","SYN082AAXX  02014 94213 11/75 30307 10318 20102 39915 40150 60004 703// 800/2 333 70000;","","","","","","","","","",""
"94213099999","2005-05-02T15:00:00","-17.0166666","128.2166666","205.0","WARMUN, AS","FM-12","4","","53","96","","","","","23","","29.84","29.15","18.64","69","030","","8","","","","","","","","","","","","","","","","","","","","","","","","","","","","","","","","","","","","","","","","","","","","","","","","","","","","","","","","","","","","","","","","","","","","","","","","","","","","","","","","","","","","","","","","","","","SYN066AAXX  02074 94213 11/80 40307 10354 20115 39870 40104 60001 841//;","","","","","","","","","",""
"94213099999","2005-05-03T06:00:00","-17.0166666","128.2166666","205.0","WARMUN, AS","FM-12","4","","51","66","","","","","58","","29.95","29.26","15.53","58","000","","0","","","","","","","","","","","","","","","","","","","","","","","","","","","","","","","","","","","","","","","","","","","","","","","","","","","","","","","","","","","","","","","","","","","","","","","","","","","","","","","","","","","","","","","","","","","SYN066AAXX  02224 94213 41/75 30000 10190 20105 39908 40142 701// 800/5;","","","","","","","","","",""
"94213099999","2005-05-03T09:00:00","-17.0166666","128.2166666","205.0","WARMUN, AS","FM-12","4","","39","88","","","","","18","","30.01","29.31","18.64","61","110","","2","","","","","","","","","","","","","","","","","","","","","","","","","","","","","","","","","","","","","","","","","","","","","","","","","","","","","","","","","","","","","","","","","","","","","","","","","","","","","","","","","","","","","","","","","","","SYN082AAXX  03014 94213 11/80 31102 10310 20039 39926 40161 60004 70200 80005 333 70000;","","","","","","","","","",""
"94213099999","2005-05-03T15:00:00","-17.0166666","128.2166666","205.0","WARMUN, AS","FM-12","4","","47","94","","","","","20","","29.84","29.15","18.64","66","090","","5","","","","","","","","","","","","","","","","","","","","","","","","","","","","","","","","","","","","","","","","","","","","","","","","","","","","","","","","","","","","","","","","","","","","","","","","","","","","","","","","","","","","","","","","","","","SYN066AAXX  03074 94213 11/80 20904 10344 20081 39872 40106 6///0 80005;","","","","","","","","","",""
"94213099999","2005-05-04T06:00:00","-17.0166666","128.2166666","205.0","WARMUN, AS","FM-12","4","","48","64","","","","","56","","29.93","29.24","15.53","55","000","","0","","","","","","","","","","","","","","","","","","","","","","","","","","","","","","","","","","","","","","","","","","","","","","","","","","","","","","","","","","","","","","","","","","","","","","","","","","","","","","","","","","","","","","","","","","","SYN066AAXX  03224 94213 41/75 30000 10176 20087 39902 40136 703// 82201;","","","","","","","","","",""
"94213099999","2005-05-04T09:00:00","-17.0166666","128.2166666","205.0","WARMUN, AS","FM-12","4","","44","87","","","","","22","","29.97","29.28","18.64","62","020","","9","","","","","","","","","","","","","","","","","","","","","","","","","","","","","","","","","","","","","","","","","","","","","","","","","","","","","","","","","","","","","","","","","","","","","","","","","","","","","","","","","","","","","","","","","","","SYN082AAXX  04014 94213 11/80 20208 10306 20064 39914 40149 60004 70100 81108 333 70000;","","","","","","","","","",""
"94213099999","2005-05-04T15:00:00","-17.0166666","128.2166666","205.0","WARMUN, AS","FM-12","4","","47","93","","","","","21","","29.80","29.11","18.64","66","340","","8","","","","","","","","","","","","","","","","","","","","","","","","","","","","","","","","","","","","","","","","","","","","","","","","","","","","","","","","","","","","","","","","","","","","","","","","","","","","","","","","","","","","","","","","","","","SYN072AAXX  04074 94213 11/80 63407 10340 20085 39859 40092 6///0 70311 80006;","","","","","","","","","",""
"94213099999","2005-05-05T06:00:00","-17.0166666","128.2166666","205.0","WARMUN, AS","FM-12","4","","55","62","","","","","77","","29.91","29.22","15.53","58","","","","","","","","","","","","","","","","","","","","","","","","","","","","","","","","","","","","","","","","","","","","","","","","","","","","","","","","","","","","","","","","","","","","","","","","","","","","","","","","","","","","","","","","","","","","","","SYN066AAXX  04224 94213 41/75 3//// 10169 20128 39895 40129 702// 80005;","","","","","","","","","",""
"94213099999","2005-05-05T09:00:00","-17.0166666","128.2166666","205.0","WARMUN, AS","FM-12","4","","47","89","","","","","23","","29.93","29.23","17.40","64","050","","7","","","","","","","","","","","","","","","","","","","","","","","","","","","","","","","","","","","","","","","","","","","","","","","","","","","","","","","","","","","","","","","","","","","","","","","","","","","","","","","","","","","","","","","","","","","SYN082AAXX  05014 94213 11/78 10506 10314 20081 39900 40134 60004 70100 80008 333 70000;","","","","","","","","","",""
"94213099999","2005-05-05T15:00:00","-17.0166666","128.2166666","205.0","WARMUN, AS","FM-12","4","","47","93","","","","","20","","29.78","29.10","18.64","66","090","","11","","","","","","","","","","","","","","","","","","","","","","","","","","","","","","","","","","","","","","","","","","","","","","","","","","","","","","","","","","","","","","","","","","","","","","","","","","","","","","","","","","","","","","","","","","","SYN072AAXX  05074 94213 11/80 40910 10340 20082 39853 40086 60001 70300 80008;","","","","","","","","","",""
"94213099999","2005-05-06T06:00:00","-17.0166666","128.2166666","205.0","WARMUN, AS","FM-12","4","","53","65","","","","","66","","29.90","29.21","15.53","58","000","","0","","","","","","","","","","","","","","","","","","","","","","","","","","","","","","","","","","","","","","","","","","","","","","","","","","","","","","","","","","","","","","","","","","","","","","","","","","","","","","","","","","","","","","","","","","","SYN066AAXX  05224 94213 41/75 10000 10184 20119 39891 40125 70100 80001;","","","","","","","","","",""
"94213099999","2005-05-06T09:00:00","-17.0166666","128.2166666","205.0","WARMUN, AS","FM-12","4","","47","88","","","","","25","","29.93","29.24","17.40","64","360","","1","","","","","","","","","","","","","","","","","","","","","","","","","","","","","","","","","","","","","","","","","","","","","","","","","","","","","","","","","","","","","","","","","","","","","","","","","","","","","","","","","","","","","","","","","","","SYN082AAXX  06014 94213 11/78 13601 10310 20086 39901 40135 60004 70200 80001 333 70000;","","","","","","","","","",""
"94213099999","2005-05-06T15:00:00","-17.0166666","128.2166666","205.0","WARMUN, AS","FM-12","4","","46","91","","","","","21","","29.80","29.11","17.40","65","140","","5","","","","","","","","","","","","","","","","","","","","","","","","","","","","","","","","","","","","","","","","","","","","","","","","","","","","","","","","","","","","","","","","","","","","","","","","","","","","","","","","","","","","","","","","","","","SYN072AAXX  06074 94213 11/78 71404 10330 20078 39859 40092 60001 70322 8708/;","","","","","","","","","",""
"94213099999","2005-05-07T06:00:00","-17.0166666","128.2166666","205.0","WARMUN, AS","FM-12","4","","54","67","","","","","64","","29.91","29.22","12.43","60","000","","0","","","","","","","","","","","","","","","","","","","","","","","","","","","","","","","","","","","","","","","","","","","","","","","","","","","","","","","","","","","","","","","","","","","","","","","","","","","","","","","","","","","","","","","","","","","SYN066AAXX  06224 94213 41/70 60000 10195 20124 39895 40129 702// 865//;","","","","","","","","","",""
"94213099999","2005-05-07T09:00:00","-17.0166666","128.2166666","205.0","WARMUN, AS","FM-12","4","","42","88","","","","","20","","29.94","29.25","16.16","62","090","","11","","","","","","","","","","","","","","","","","","","","","","","","","","","","","","","","","","","","","","","","","","","","","","","","","","","","","","","","","","","","","","","","","","","","","","","","","","","","","","","","","","","","","","","","","","","SYN082AAXX  07014 94213 11/76 20910 10313 20058 39904 40138 60004 70100 8208/ 333 70000;","","","","","","","","","",""
"94213099999","2005-05-07T15:00:00","-17.0166666","128.2166666","205.0","WARMUN, AS","FM-12","4","","44","94","","","","","17","","29.82","29.13","18.64","65","020","","14","","","","","","","","","","","","","","","","","","","","","","","","","","","","","","","","","","","","","","","","","","","","","","","","","","","","","","","","","","","","","","","","","","","","","","","","","","","","","","","","","","","","","","","","","","","SYN072AAXX  07074 94213 11/80 30212 10345 20064 39864 40097 60001 70200 8308/;","","","","","","","","","",""
"94213099999","2005-05-08T06:00:00","-17.0166666","128.2166666","205.0","WARMUN, AS","FM-12","4","","55","72","","","","","54","","29.93","29.24","16.16","62","000","","0","","","","","","","","","","","","","","","","","","","","","","","","","","","","","","","","","","","","","","","","","","","","","","","","","","","","","","","","","","","","","","","","","","","","","","","","","","","","","","","","","","","","","","","","","","","SYN066AAXX  07224 94213 41/76 50000 10225 20127 39902 40136 70311 84072;","","","","","","","","","",""
"94213099999","2005-05-08T09:00:00","-17.0166666","128.2166666","205.0","WARMUN, AS","FM-12","4","","44","89","","","","","21","","29.94","29.25","18.64","63","110","","10","","","","","","","","","","","","","","","","","","","","","","","","","","","","","","","","","","","","","","","","","","","","","","","","","","","","","","","","","","","","","","","","","","","","","","","","","","","","","","","","","","","","","","","","","","","SYN082AAXX  08014 94213 11/80 11109 10315 20065 39906 40140 6///0 70100 81080 333 7////;","","","","","","","","","",""
"94213099999","2005-05-08T15:00:00","-17.0166666","128.2166666","205.0","WARMUN, AS","FM-12","4","","48","95","","","","","20","","29.84","29.15","17.40","67","110","","6","","","","","","","","","","","","","","","","","","","","","","","","","","","","","","","","","","","","","","","","","","","","","","","","","","","","","","","","","","","","","","","","","","","","","","","","","","","","","","","","","","","","","","","","","","","SYN072AAXX  08074 94213 11778 41105 10350 20087 39871 40104 60001 70300 84200;","","","","","","","","","",""
"94213099999","2005-05-09T06:00:00","-17.0166666","128.2166666","205.0","WARMUN, AS","FM-12","4","","54","65","","","","","68","","29.89","29.20","15.53","59","000","","0","","","","","","","","","","","","","","","","","","","","","","","","","","","","","","","","","","","","","","","","","","","","","","","","","","","","","","","","","","","","","","","","","","","","","","","","","","","","","","","","","","","","","","","","","","","SYN066AAXX  08224 94213 41575 10000 10183 20122 39889 40122 70100 81200;","","","","","","","","","",""
"94213099999","2005-05-09T09:00:00","-17.0166666","128.2166666","205.0","WARMUN, AS","FM-12","4","","47","89","","","","","23","CLR:00","29.92","29.23","17.40","64","070","","11","","","","","","","","","","","","","","","","","","","","","","","","","","","","","","","","","","","","","","","","","","","","","","","","","","","","","","","","","","","","","","","","","","","","","","","","","","","","","","","","","","","","","","","","","","","SYN076AAXX  09014 94213 11978 00710 10315 20081 39900 40133 60004 70100 333 70000;","","","","","","","","","",""
"94213099999","2005-05-09T15:00:00","-17.0166666","128.2166666","205.0","WARMUN, AS","FM-12","4","","48","95","","","","","20","","29.79","29.10","18.64","67","110","","5","","","","","","","","","","","","","","","","","","","","","","","","","","","","","","","","","","","","","","","","","","","","","","","","","","","","","","","","","","","","","","","","","","","","","","","","","","","","","","","","","","","","","","","","","","","SYN072AAXX  09074 94213 11980 61104 10350 20087 39855 40087 60001 70322 84280;","","","","","","","","","",""
"94213099999","2005-05-10T06:00:00","-17.0166666","128.2166666","205.0","WARMUN, AS","FM-12","4","","56","63","","","","","78","","29.92","29.23","14.91","59","000","","0","","","","","","","","","","","","","","","","","","","","","","","","","","","","","","","","","","","","","","","","","","","","","","","","","","","","","","","","","","","","","","","","","","","","","","","","","","","","","","","","","","","","","","","","","","","SYN066AAXX  09224 94213 41/74 10000 10172 20133 39898 40132 70200 8104/;","","","","","","","","","",""
"94213099999","2005-05-10T09:00:00","-17.0166666","128.2166666","205.0","WARMUN, AS","FM-12","4","","57","90","","","","","33","CLR:00","29.96","29.26","15.53","69","140","","2","","","","","","","","","","","","","","","","","","","","","","","","","","","","","","","","","","","","","","","","","","","","","","","","","","","","","","","","","","","","","","","","","","","","","","","","","","","","","","","","","","","","","","","","","","","SYN076AAXX  10014 94213 11975 01402 10320 20139 39910 40144 60004 702// 333 70000;","","","","","","","","","",""
"94213099999","2005-05-10T15:00:00","-17.0166666","128.2166666","205.0","WARMUN, AS","FM-12","4","","45","95","","","","","18","","29.83","29.15","18.64","65","160","","2","","","","","","","","","","","","","","","","","","","","","","","","","","","","","","","","","","","","","","","","","","","","","","","","","","","","","","","","","","","","","","","","","","","","","","","","","","","","","","","","","","","","","","","","","","","SYN072AAXX  10074 94213 11980 41602 10349 20072 39870 40103 60001 70300 83280;","","","","","","","","","",""
"94213099999","2005-05-11T06:00:00","-17.0166666","128.2166666","205.0","WARMUN, AS","FM-12","4","","49","64","","","","","59","","29.93","29.24","16.16","56","000","","0","","","","","","","","","","","","","","","","","","","","","","","","","","","","","","","","","","","","","","","","","","","","","","","","","","","","","","","","","","","","","","","","","","","","","","","","","","","","","","","","","","","","","","","","","","","SYN066AAXX  10224 94213 41676 20000 10180 20097 39902 40135 70100 82100;","","","","","","","","","",""
"94213099999","2005-05-11T09:00:00","-17.0166666","128.2166666","205.0","WARMUN, AS","FM-12","4","","45","89","","","","","22","CLR:00","29.98","29.28","18.02","64","230","","5","","","","","","","","","","","","","","","","","","","","","","","","","","","","","","","","","","","","","","","","","","","","","","","","","","","","","","","","","","","","","","","","","","","","","","","","","","","","","","","","","","","","","","","","","","","SYN076AAXX  11014 94213 11979 02304 10315 20072 39917 40151 60004 70100 333 70000;","","","","","","","","","",""
"94213099999","2005-05-11T15:00:00","-17.0166666","128.2166666","205.0","WARMUN, AS","FM-12","4","","43","94","","","","","17","CLR:00","29.84","29.15","18.64","64","000","","0","","","","","","","","","","","","","","","","","","","","","","","","","","","","","","","","","","","","","","","","","","","","","","","","","","","","","","","","","","","","","","","","","","","","","","","","","","","","","","","","","","","","","","","","","","","SYN066AAXX  11074 94213 11980 00000 10347 20059 39873 40106 60001 70200;","","","","","","","","","",""
"94213099999","2005-05-12T06:00:00","-17.0166666","128.2166666","205.0","WARMUN, AS","FM-12","4","","46","59","","","","","64","CLR:00","29.95","29.26","14.91","52","000","","0","","","","","","","","","","","","","","","","","","","","","","","","","","","","","","","","","","","","","","","","","","","","","","","","","","","","","","","","","","","","","","","","","","","","","","","","","","","","","","","","","","","","","","","","","","","SYN060AAXX  11224 94213 41974 00000 10148 20080 39907 40141 70200;","","","","","","","","","",""
"94213099999","2005-05-12T09:00:00","-17.0166666","128.2166666","205.0","WARMUN, AS","FM-12","4","","45","86","","","","","24","CLR:00","29.97","29.28","17.40","62","360","","1","","","","","","","","","","","","","","","","","","","","","","","","","","","","","","","","","","","","","","","","","","","","","","","","","","","","","","","","","","","","","","","","","","","","","","","","","","","","","","","","","","","","","","","","","","","SYN076AAXX  12014 94213 11978 03601 10300 20071 39916 40150 60004 70200 333 70000;","","","","","","","","","",""
"94213099999","2005-05-12T15:00:00","-17.0166666","128.2166666","205.0","WARMUN, AS","FM-12","4","","42","94","","","","","17","CLR:00","29.85","29.16","18.64","64","130","","5","","","","","","","","","","","","","","","","","","","","","","","","","","","","","","","","","","","","","","","","","","","","","","","","","","","","","","","","","","","","","","","","","","","","","","","","","","","","","","","","","","","","","","","","","","","SYN066AAXX  12074 94213 11980 01304 10342 20058 39874 40107 60001 70200;","","","","","","","","","",""
"94213099999","2005-05-13T06:00:00","-17.0166666","128.2166666","205.0","WARMUN, AS","FM-12","4","","48","57","","","","","73","CLR:00","29.93","29.25","16.16","52","000","","0","","","","","","","","","","","","","","","","","","","","","","","","","","","","","","","","","","","","","","","","","","","","","","","","","","","","","","","","","","","","","","","","","","","","","","","","","","","","","","","","","","","","","","","","","","","SYN060AAXX  12224 94213 41976 00000 10139 20090 39904 40137 70200;","","","","","","","","","",""
"94213099999","2005-05-13T09:00:00","-17.0166666","128.2166666","205.0","WARMUN, AS","FM-12","4","","42","86s","","","","","21","CLR:00","29.94","29.25","16.16","61","360","","3","","","","","","","","","","","","","","","","","","","","","","","","","","","","","","","","","","","","","","","","","","","","","","","","","","","","","","","","","","","","","","","","","","","","","","","","","","","","","","","","","","","","","","","","","","","SYN076AAXX  13014 94213 11976 03603 10302 20053 39906 40140 60004 70200 333 70000;","","","","","","","","","",""
"94213099999","2005-05-13T15:00:00","-17.0166666","128.2166666","205.0","WARMUN, AS","FM-12","4","","42","94","","","","","16","CLR:00","29.81","29.13","18.64","64","360","","2","","","","","","","","","","","","","","","","","","","","","","","","","","","","","","","","","","","","","","","","","","","","","","","","","","","","","","","","","","","","","","","","","","","","","","","","","","","","","","","","","","","","","","","","","","","SYN066AAXX  13074 94213 11980 03602 10345 20054 39863 40096 60001 70200;","","","","","","","","","",""
"94213099999","2005-05-14T06:00:00","-17.0166666","128.2166666","205.0","WARMUN, AS","FM-12","4","","48","58","","","-0.00","0","70","","29.95","29.26","14.91","53","000","","0","","","","","","","","","","","","","","","","","","","","","","","","","","","","","","","","","","","","","","","","","","","","","","","","","","","","","","","","","","","","","","","","","","","","","","","","","","","","","","","","","","","","","","","","","","","SYN072AAXX  13224 94213 41/74 10000 10144 20089 39908 40142 50000 70300 81040;","","","","","","","","","",""
"94213099999","2005-05-14T09:00:00","-17.0166666","128.2166666","205.0","WARMUN, AS","FM-12","4","","42","86","","","","","21","CLR:00","29.99","29.30","15.53","61","050","","5","","","","","","","","","","","","","","","","","","","","","","","","","","","","","","","","","","","","","","","","","","","","","","","","","","","","","","","","","","","","","","","","","","","","","","","","","","","","","","","","","","","","","","","","","","","SYN076AAXX  14014 94213 11975 00504 10300 20053 39923 40157 60004 70100 333 70000;","","","","","","","","","",""
"94213099999","2005-05-14T15:00:00","-17.0166666","128.2166666","205.0","WARMUN, AS","FM-12","4","","41","94","","","","","16","CLR:00","29.88","29.19","18.64","64","360","","1","","","","","","","","","","","","","","","","","","","","","","","","","","","","","","","","","","","","","","","","","","","","","","","","","","","","","","","","","","","","","","","","","","","","","","","","","","","","","","","","","","","","","","","","","","","SYN066AAXX  14074 94213 11980 03601 10344 20052 39884 40117 60001 70200;","","","","","","","","","",""
"94213099999","2005-05-15T06:00:00","-17.0166666","128.2166666","205.0","WARMUN, AS","FM-12","4","","48","57","","","","","71","CLR:00","29.95","29.26","16.16","52","000","","0","","","","","","","","","","","","","","","","","","","","","","","","","","","","","","","","","","","","","","","","","","","","","","","","","","","","","","","","","","","","","","","","","","","","","","","","","","","","","","","","","","","","","","","","","","","SYN060AAXX  14224 94213 41976 00000 10141 20088 39909 40143 70200;","","","","","","","","","",""
"94213099999","2005-05-15T09:00:00","-17.0166666","128.2166666","205.0","WARMUN, AS","FM-12","4","","38","90s","","","","","16","CLR:00","29.99","29.30","16.16","61","020","","11","","","","","","","","","","","","","","","","","","","","","","","","","","","","","","","","","","","","","","","","","","","","","","","","","","","","","","","","","","","","","","","","","","","","","","","","","","","","","","","","","","","","","","","","","","","SYN076AAXX  15014 94213 11976 00210 10320 20035 39921 40155 60004 70200 333 70000;","","","","","","","","","",""
"94213099999","2005-05-15T15:00:00","-17.0166666","128.2166666","205.0","WARMUN, AS","FM-12","4","","37","95","","","","","13","CLR:00","29.87","29.18","18.64","63","130","","8","","","","","","","","","","","","","","","","","","","","","","","","","","","","","","","","","","","","","","","","","","","","","","","","","","","","","","","","","","","","","","","","","","","","","","","","","","","","","","","","","","","","","","","","","","","SYN066AAXX  15074 94213 11980 01307 10350 20029 39883 40116 60001 70200;","","","","","","","","","",""
"94213099999","2005-05-16T06:00:00","-17.0166666","128.2166666","205.0","WARMUN, AS","FM-12","4","","45","60","","","","","59","CLR:00","29.97","29.28","16.16","52","000","","0","","","","","","","","","","","","","","","","","","","","","","","","","","","","","","","","","","","","","","","","","","","","","","","","","","","","","","","","","","","","","","","","","","","","","","","","","","","","","","","","","","","","","","","","","","","SYN060AAXX  15224 94213 41976 00000 10155 20075 39914 40148 70200;","","","","","","","","","",""
"94213099999","2005-05-16T09:00:00","-17.0166666","128.2166666","205.0","WARMUN, AS","FM-12","4","","48","88","","","","","25","CLR:00","29.99","29.30","16.16","64","000","","0","","","","","","","","","","","","","","","","","","","","","","","","","","","","","","","","","","","","","","","","","","","","","","","","","","","","","","","","","","","","","","","","","","","","","","","","","","","","","","","","","","","","","","","","","","","SYN076AAXX  16014 94213 11976 00000 10312 20087 39922 40156 60004 70200 333 70000;","","","","","","","","","",""
"94213099999","2005-05-16T15:00:00","-17.0166666","128.2166666","205.0","WARMUN, AS","FM-12","4","","34","94","","","","","12","","29.87","29.18","18.64","62","070","","7","","","","","","","","","","","","","","","","","","","","","","","","","","","","","","","","","","","","","","","","","","","","","","","","","","","","","","","","","","","","","","","","","","","","","","","","","","","","","","","","","","","","","","","","","","","SYN072AAXX  16074 94213 11/80 20706 10347 20009 39883 40116 60001 70300 80008;","","","","","","","","","",""
"94213099999","2005-05-17T06:00:00","-17.0166666","128.2166666","205.0","WARMUN, AS","FM-12","4","","44","56","","","","","65","","29.98","29.29","17.40","50","000","","0","","","","","","","","","","","","","","","","","","","","","","","","","","","","","","","","","","","","","","","","","","","","","","","","","","","","","","","","","","","","","","","","","","","","","","","","","","","","","","","","","","","","","","","","","","","SYN066AAXX  16224 94213 41/78 10000 10134 20068 39919 40154 702// 80008;","","","","","","","","","",""
"94213099999","2005-05-17T09:00:00","-17.0166666","128.2166666","205.0","WARMUN, AS","FM-12","4","","39","85","","","","","20","CLR:00","30.01","29.32","18.64","60","360","","5","","","","","","","","","","","","","","","","","","","","","","","","","","","","","","","","","","","","","","","","","","","","","","","","","","","","","","","","","","","","","","","","","","","","","","","","","","","","","","","","","","","","","","","","","","","SYN076AAXX  17014 94213 11980 03604 10292 20037 39928 40162 60004 70100 333 70000;","","","","","","","","","",""
"94213099999","2005-05-17T15:00:00","-17.0166666","128.2166666","205.0","WARMUN, AS","FM-12","4","","43","92","","","","","19","","29.89","29.21","18.64","64","090","","6","","","","","","","","","","","","","","","","","","","","","","","","","","","","","","","","","","","","","","","","","","","","","","","","","","","","","","","","","","","","","","","","","","","","","","","","","","","","","","","","","","","","","","","","","","","SYN066AAXX  17074 94213 11/80 10905 10331 20062 39890 40123 60001 70300;","","","","","","","","","",""
"94213099999","2005-05-18T06:00:00","-17.0166666","128.2166666","205.0","WARMUN, AS","FM-12","4","","42","55","","","","","62","CLR:00","","","12.43","","000","","0","","","","","","","","","","","","","","","","","","","","","","","","","","","","","","","","","","","","","","","","","","","","","","","","","","","","","","","","","","","","","","","","","","","","","","","","","","","","","","","","","","","","","","","","","","","SYN048AAXX  17224 94213 41970 00000 10130 20058 701//;","","","","","","","","","",""
"94213099999","2005-05-18T09:00:00","-17.0166666","128.2166666","205.0","WARMUN, AS","FM-12","4","","35","81","","","","","19","","","","18.64","","120","","5","","","","","","","","","","","","","","","","","","","","","","","","","","","","","","","","","","","","","","","","","","","","","","","","","","","","","","","","","","","","","","","","","","","","","","","","","","","","","","","","","","","","","","","","","","","SYN070AAXX  18014 94213 11/80 11204 10275 20018 60004 70300 80006 333 70000;","","","","","","","","","",""
"94213099999","2005-05-18T15:00:00","-17.0166666","128.2166666","205.0","WARMUN, AS","FM-12","4","","33","89","","","","","13","CLR:00","29.91","29.22","18.64","60","110","","8","","","","","","","","","","","","","","","","","","","","","","","","","","","","","","","","","","","","","","","","","","","","","","","","","","","","","","","","","","","","","","","","","","","","","","","","","","","","","","","","","","","","","","","","","","","SYN066AAXX  18074 94213 11980 01107 10315 20004 39895 40128 60001 70100;","","","","","","","","","",""
"94213099999","2005-05-19T06:00:00","-17.0166666","128.2166666","205.0","WARMUN, AS","FM-12","4","","38","58","","","","","47","CLR:00","30.04","29.35","12.43","48","130","","3","","","","","","","","","","","","","","","","","","","","","","","","","","","","","","","","","","","","","","","","","","","","","","","","","","","","","","","","","","","","","","","","","","","","","","","","","","","","","","","","","","","","","","","","","","","SYN060AAXX  18224 94213 41970 01303 10146 20034 39939 40173 70200;","","","","","","","","","",""
"94213099999","2005-05-19T09:00:00","-17.0166666","128.2166666","205.0","WARMUN, AS","FM-12","4","","26","82","","","","","13","CLR:00","30.07","29.38","18.64","55","020","","7","","","","","","","","","","","","","","","","","","","","","","","","","","","","","","","","","","","","","","","","","","","","","","","","","","","","","","","","","","","","","","","","","","","","","","","","","","","","","","","","","","","","","","","","","","","SYN076AAXX  19014 94213 11980 00206 10279 21032 39948 40183 60004 70200 333 70000;","","","","","","","","","",""
"94213099999","2005-05-19T15:00:00","-17.0166666","128.2166666","205.0","WARMUN, AS","FM-12","4","","28","88","","","","","11","CLR:00","29.92","29.23","18.64","58","050","","8","","","","","","","","","","","","","","","","","","","","","","","","","","","","","","","","","","","","","","","","","","","","","","","","","","","","","","","","","","","","","","","","","","","","","","","","","","","","","","","","","","","","","","","","","","","SYN066AAXX  19074 94213 11980 00507 10310 21024 39898 40131 60001 70200;","","","","","","","","","",""
"94213099999","2005-05-20T06:00:00","-17.0166666","128.2166666","205.0","WARMUN, AS","FM-12","4","","38","60","","","","","45","CLR:00","30.03","29.33","17.40","49","000","","0","","","","","","","","","","","","","","","","","","","","","","","","","","","","","","","","","","","","","","","","","","","","","","","","","","","","","","","","","","","","","","","","","","","","","","","","","","","","","","","","","","","","","","","","","","","SYN060AAXX  19224 94213 41978 00000 10155 20035 39933 40168 70200;","","","","","","","","","",""
"94213099999","2005-05-20T09:00:00","-17.0166666","128.2166666","205.0","WARMUN, AS","FM-12","4","","30","81","","","","","16","CLR:00","30.05","29.36","18.64","56","090","","28","","","","","","","","","","","","","","","","","","","","","","","","","","","","","","","","","","","","","","","","","","","","","","","","","","","","","","","","","","","","","","","","","","","","","","","","","","","","","","","","","","","","","","","","","","","SYN076AAXX  20014 94213 11980 00924 10270 21013 39941 40175 60004 70200 333 70000;","","","","","","","","","",""
"94213099999","2005-05-20T15:00:00","-17.0166666","128.2166666","205.0","WARMUN, AS","FM-12","4","","40","87","","","","","19","CLR:00","29.91","29.22","18.64","61","070","","9","","","","","","","","","","","","","","","","","","","","","","","","","","","","","","","","","","","","","","","","","","","","","","","","","","","","","","","","","","","","","","","","","","","","","","","","","","","","","","","","","","","","","","","","","","","SYN066AAXX  20074 94213 11980 00708 10307 20043 39894 40127 60001 70200;","","","","","","","","","",""
"94213099999","2005-05-21T06:00:00","-17.0166666","128.2166666","205.0","WARMUN, AS","FM-12","4","","40","51","","","","","67","","30.01","29.32","13.67","46","000","","0","","","","","","","","","","","","","","","","","","","","","","","","","","","","","","","","","","","","","","","","","","","","","","","","","","","","","","","","","","","","","","","","","","","","","","","","","","","","","","","","","","","","","","","","","","","SYN066AAXX  20224 94213 41/72 10000 10105 20045 39929 40163 70300 81040;","","","","","","","","","",""
"94213099999","2005-05-21T09:00:00","-17.0166666","128.2166666","205.0","WARMUN, AS","FM-12","4","","38","80s","","","","","22","CLR:00","30.05","29.36","16.78","58","360","","2","","","","","","","","","","","","","","","","","","","","","","","","","","","","","","","","","","","","","","","","","","","","","","","","","","","","","","","","","","","","","","","","","","","","","","","","","","","","","","","","","","","","","","","","","","","SYN076AAXX  21014 94213 11977 03602 10266 20033 39942 40176 60004 70100 333 70000;","","","","","","","","","",""
"94213099999","2005-05-21T15:00:00","-17.0166666","128.2166666","205.0","WARMUN, AS","FM-12","4","","42","89","","","","","19","CLR:00","29.91","29.22","18.64","62","050","","2","","","","","","","","","","","","","","","","","","","","","","","","","","","","","","","","","","","","","","","","","","","","","","","","","","","","","","","","","","","","","","","","","","","","","","","","","","","","","","","","","","","","","","","","","","","SYN066AAXX  21074 94213 11980 00502 10315 20053 39894 40127 60001 70200;","","","","","","","","","",""
"94213099999","2005-05-22T06:00:00","-17.0166666","128.2166666","205.0","WARMUN, AS","FM-12","4","","43","52","","","","","70","","30.02","29.33","16.16","48","000","","0","","","","","","","","","","","","","","","","","","","","","","","","","","","","","","","","","","","","","","","","","","","","","","","","","","","","","","","","","","","","","","","","","","","","","","","","","","","","","","","","","","","","","","","","","","","SYN066AAXX  21224 94213 41/76 30000 10112 20059 39932 40166 70100 80008;","","","","","","","","","",""
"94213099999","2005-05-22T15:00:00","-17.0166666","128.2166666","205.0","WARMUN, AS","FM-12","4","","42","88","","","","","20","CLR:00","29.91","29.22","18.64","62","360","","6","","","","","","","","","","","","","","","","","","","","","","","","","","","","","","","","","","","","","","","","","","","","","","","","","","","","","","","","","","","","","","","","","","","","","","","","","","","","","","","","","","","","","","","","","","","SYN066AAXX  22074 94213 11980 03605 10310 20056 39895 40128 60004 70200;","","","","","","","","","",""
"94213099999","2005-05-23T06:00:00","-17.0166666","128.2166666","205.0","WARMUN, AS","FM-12","4","","45","54","","","","","71","","30.00","29.31","15.53","49","000","","0","","","","","","","","","","","","","","","","","","","","","","","","","","","","","","","","","","","","","","","","","","","","","","","","","","","","","","","","","","","","","","","","","","","","","","","","","","","","","","","","","","","","","","","","","","","SYN066AAXX  22224 94213 41/75 20000 10125 20074 39926 40160 70200 80008;","","","","","","","","","",""
"94213099999","2005-05-23T09:00:00","-17.0166666","128.2166666","205.0","WARMUN, AS","FM-12","4","","39","81","","","","","22","CLR:00","30.05","29.36","17.40","58","050","","2","","","","","","","","","","","","","","","","","","","","","","","","","","","","","","","","","","","","","","","","","","","","","","","","","","","","","","","","","","","","","","","","","","","","","","","","","","","","","","","","","","","","","","","","","","","SYN076AAXX  23014 94213 11978 00502 10275 20040 39942 40176 60000 70200 333 7////;","","","","","","","","","",""
"94213099999","2005-05-23T15:00:00","-17.0166666","128.2166666","205.0","WARMUN, AS","FM-12","4","","42","90","","","","","18","","29.91","29.23","18.64","63","360","","5","","","","","","","","","","","","","","","","","","","","","","","","","","","","","","","","","","","","","","","","","","","","","","","","","","","","","","","","","","","","","","","","","","","","","","","","","","","","","","","","","","","","","","","","","","","SYN072AAXX  23074 94213 11/80 13604 10325 20053 39897 40130 60001 70200 80008;","","","","","","","","","",""
"94213099999","2005-05-24T06:00:00","-17.0166666","128.2166666","205.0","WARMUN, AS","FM-12","4","","44","55","","","","","67","CLR:00","30.02","29.32","15.53","49","180","","3","","","","","","","","","","","","","","","","","","","","","","","","","","","","","","","","","","","","","","","","","","","","","","","","","","","","","","","","","","","","","","","","","","","","","","","","","","","","","","","","","","","","","","","","","","","SYN060AAXX  23224 94213 41975 01803 10129 20069 39930 40165 70200;","","","","","","","","","",""
"94213099999","2005-05-24T09:00:00","-17.0166666","128.2166666","205.0","WARMUN, AS","FM-12","4","","45","82","","","","","27","CLR:00","30.05","29.36","17.40","61","020","","3","","","","","","","","","","","","","","","","","","","","","","","","","","","","","","","","","","","","","","","","","","","","","","","","","","","","","","","","","","","","","","","","","","","","","","","","","","","","","","","","","","","","","","","","","","","SYN076AAXX  24014 94213 11978 00203 10276 20070 39942 40176 60004 70200 333 70000;","","","","","","","","","",""
"94213099999","2005-05-24T15:00:00","-17.0166666","128.2166666","205.0","WARMUN, AS","FM-12","4","","46","91","","","","","21","CLR:00","29.91","29.22","18.64","65","130","","5","","","","","","","","","","","","","","","","","","","","","","","","","","","","","","","","","","","","","","","","","","","","","","","","","","","","","","","","","","","","","","","","","","","","","","","","","","","","","","","","","","","","","","","","","","","SYN066AAXX  24074 94213 11980 01304 10329 20080 39895 40128 60001 70200;","","","","","","","","","",""
"94213099999","2005-05-25T06:00:00","-17.0166666","128.2166666","205.0","WARMUN, AS","FM-12","4","","46","58","","","-0.00","0","65","","30.01","29.32","13.67","52","000","","0","","","","","","","","","","","","","","","","","","","","","","","","","","","","","","","","","","","","","","","","","","","","","","","","","","","","","","","","","","","","","","","","","","","","","","","","","","","","","","","","","","","","","","","","","","","SYN072AAXX  24224 94213 41/72 30000 10145 20079 39929 40163 50000 70300 80008;","","","","","","","","","",""
"94213099999","2005-05-25T09:00:00","-17.0166666","128.2166666","205.0","WARMUN, AS","FM-12","4","","40","83","","","","","22","","30.03","29.34","18.02","60","050","","6","","","","","","","","","","","","","","","","","","","","","","","","","","","","","","","","","","","","","","","","","","","","","","","","","","","","","","","","","","","","","","","","","","","","","","","","","","","","","","","","","","","","","","","","","","","SYN082AAXX  25014 94213 11/79 30505 10282 20044 39936 40170 60004 70200 80008 333 70000;","","","","","","","","","",""
"94213099999","2005-05-25T15:00:00","-17.0166666","128.2166666","205.0","WARMUN, AS","FM-12","4","","41","89","","","","","19","","29.92","29.23","18.02","62","050","","6","","","","","","","","","","","","","","","","","","","","","","","","","","","","","","","","","","","","","","","","","","","","","","","","","","","","","","","","","","","","","","","","","","","","","","","","","","","","","","","","","","","","","","","","","","","SYN072AAXX  25074 94213 11/79 70505 10315 20049 39899 40132 60001 70322 80006;","","","","","","","","","",""
"94213099999","2005-05-26T06:00:00","-17.0166666","128.2166666","205.0","WARMUN, AS","FM-12","4","","41","65","","","","","42","CLR:00","30.01","29.32","16.16","53","000","","0","","","","","","","","","","","","","","","","","","","","","","","","","","","","","","","","","","","","","","","","","","","","","","","","","","","","","","","","","","","","","","","","","","","","","","","","","","","","","","","","","","","","","","","","","","","SYN060AAXX  25224 94213 41976 00000 10185 20052 39929 40163 70200;","","","","","","","","","",""
"94213099999","2005-05-26T09:00:00","-17.0166666","128.2166666","205.0","WARMUN, AS","FM-12","4","","39","83","","","","","21","CLR:00","30.05","29.36","18.64","59","090","","17","","","","","","","","","","","","","","","","","","","","","","","","","","","","","","","","","","","","","","","","","","","","","","","","","","","","","","","","","","","","","","","","","","","","","","","","","","","","","","","","","","","","","","","","","","","SYN076AAXX  26014 94213 11980 00915 10285 20040 39942 40176 60004 70200 333 70000;","","","","","","","","","",""
"94213099999","2005-05-26T15:00:00","-17.0166666","128.2166666","205.0","WARMUN, AS","FM-12","4","","43","90","","","","","20","CLR:00","29.91","29.22","18.64","63","050","","13","","","","","","","","","","","","","","","","","","","","","","","","","","","","","","","","","","","","","","","","","","","","","","","","","","","","","","","","","","","","","","","","","","","","","","","","","","","","","","","","","","","","","","","","","","","SYN066AAXX  26074 94213 11980 00511 10320 20060 39894 40127 60001 70200;","","","","","","","","","",""
"94213099999","2005-05-27T06:00:00","-17.0166666","128.2166666","205.0","WARMUN, AS","FM-12","4","","33","72","","","","","24","CLR:00","30.01","29.32","15.53","53","130","","25","","","","","","","","","","","","","","","","","","","","","","","","","","","","","","","","","","","","","","","","","","","","","","","","","","","","","","","","","","","","","","","","","","","","","","","","","","","","","","","","","","","","","","","","","","","SYN060AAXX  26224 94213 41975 01322 10225 20008 39930 40164 70200;","","","","","","","","","",""
"94213099999","2005-05-27T09:00:00","-17.0166666","128.2166666","205.0","WARMUN, AS","FM-12","4","","35","81","","","","","19","CLR:00","30.03","29.34","18.64","57","130","","23","","","","","","","","","","","","","","","","","","","","","","","","","","","","","","","","","","","","","","","","","","","","","","","","","","","","","","","","","","","","","","","","","","","","","","","","","","","","","","","","","","","","","","","","","","","SYN076AAXX  27014 94213 11980 01320 10275 20019 39937 40171 60004 70200 333 70000;","","","","","","","","","",""
"94213099999","2005-05-27T15:00:00","-17.0166666","128.2166666","205.0","WARMUN, AS","FM-12","4","","40","87","","","","","19","CLR:00","29.90","29.21","18.64","61","130","","17","","","","","","","","","","","","","","","","","","","","","","","","","","","","","","","","","","","","","","","","","","","","","","","","","","","","","","","","","","","","","","","","","","","","","","","","","","","","","","","","","","","","","","","","","","","SYN066AAXX  27074 94213 11980 01315 10305 20046 39892 40125 60001 70200;","","","","","","","","","",""
"94213099999","2005-05-28T06:00:00","-17.0166666","128.2166666","205.0","WARMUN, AS","FM-12","4","","31","71","","","","","23","CLR:00","30.04","29.35","16.78","52","130","","21","","","","","","","","","","","","","","","","","","","","","","","","","","","","","","","","","","","","","","","","","","","","","","","","","","","","","","","","","","","","","","","","","","","","","","","","","","","","","","","","","","","","","","","","","","","SYN060AAXX  27224 94213 41977 01318 10216 21003 39938 40172 70200;","","","","","","","","","",""
"94213099999","2005-05-28T09:00:00","-17.0166666","128.2166666","205.0","WARMUN, AS","FM-12","4","","33","78","","","","","20","CLR:00","30.08","29.38","18.02","55","070","","18","","","","","","","","","","","","","","","","","","","","","","","","","","","","","","","","","","","","","","","","","","","","","","","","","","","","","","","","","","","","","","","","","","","","","","","","","","","","","","","","","","","","","","","","","","","SYN076AAXX  28014 94213 11979 00716 10256 20008 39950 40185 60004 70200 333 70000;","","","","","","","","","",""
"94213099999","2005-05-28T15:00:00","-17.0166666","128.2166666","205.0","WARMUN, AS","FM-12","4","","36","85","","","","","18","CLR:00","29.96","29.26","18.64","59","090","","9","","","","","","","","","","","","","","","","","","","","","","","","","","","","","","","","","","","","","","","","","","","","","","","","","","","","","","","","","","","","","","","","","","","","","","","","","","","","","","","","","","","","","","","","","","","SYN066AAXX  28074 94213 11980 00908 10295 20025 39910 40144 60001 70200;","","","","","","","","","",""
"94213099999","2005-05-29T06:00:00","-17.0166666","128.2166666","205.0","WARMUN, AS","FM-12","4","","37","62","","","","","41","CLR:00","30.09","29.40","14.91","50","130","","3","","","","","","","","","","","","","","","","","","","","","","","","","","","","","","","","","","","","","","","","","","","","","","","","","","","","","","","","","","","","","","","","","","","","","","","","","","","","","","","","","","","","","","","","","","","SYN060AAXX  28224 94213 41974 01303 10165 20030 39955 40190 70200;","","","","","","","","","",""
"94213099999","2005-05-29T09:00:00","-17.0166666","128.2166666","205.0","WARMUN, AS","FM-12","4","","","74","","","","","","CLR:00","30.12","29.42","16.16","","110","","14","","","","","","","","","","","","","","","","","","","","","","","","","","","","","","","","","","","","","","","","","","","","","","","","","","","","","","","","","","","","","","","","","","","","","","","","","","","","","","","","","","","","","","","","","","","SYN076AAXX  29014 94213 11976 01112 10233 20213 39964 40199 60004 70200 333 70000;","","","","","","","","","",""
"94213099999","2005-05-29T15:00:00","-17.0166666","128.2166666","205.0","WARMUN, AS","FM-12","4","","27","80","","","","","15","CLR:00","29.99","29.30","18.64","54","130","","23","","","","","","","","","","","","","","","","","","","","","","","","","","","","","","","","","","","","","","","","","","","","","","","","","","","","","","","","","","","","","","","","","","","","","","","","","","","","","","","","","","","","","","","","","","","SYN066AAXX  29074 94213 11980 01320 10265 21026 39922 40156 60001 70200;","","","","","","","","","",""
"94213099999","2005-05-30T06:00:00","-17.0166666","128.2166666","205.0","WARMUN, AS","FM-12","4","","31","65","","","","","28","","30.08","29.39","14.91","49","050","","11","","","","","","","","","","","","","","","","","","","","","","","","","","","","","","","","","","","","","","","","","","","","","","","","","","","","","","","","","","","","","","","","","","","","","","","","","","","","","","","","","","","","","","","","","","","SYN066AAXX  29224 94213 41/74 10510 10184 21005 39952 40187 70300 80008;","","","","","","","","","",""
"94213099999","2005-05-30T09:00:00","-17.0166666","128.2166666","205.0","WARMUN, AS","FM-12","4","","32","72","","","","","23","","30.14","29.44","16.16","52","050","","11","","","","","","","","","","","","","","","","","","","","","","","","","","","","","","","","","","","","","","","","","","","","","","","","","","","","","","","","","","","","","","","","","","","","","","","","","","","","","","","","","","","","","","","","","","","SYN082AAXX  30014 94213 11/76 10510 10220 21002 39970 40205 60004 70300 81040 333 70000;","","","","","","","","","",""
"94213099999","2005-05-30T15:00:00","-17.0166666","128.2166666","205.0","WARMUN, AS","FM-12","4","","33","81","","","","","17","CLR:00","29.97","29.28","18.64","56","090","","11","","","","","","","","","","","","","","","","","","","","","","","","","","","","","","","","","","","","","","","","","","","","","","","","","","","","","","","","","","","","","","","","","","","","","","","","","","","","","","","","","","","","","","","","","","","SYN066AAXX  30074 94213 11980 00910 10275 20003 39916 40150 60001 70100;","","","","","","","","","",""
"94213099999","2005-05-31T06:00:00","-17.0166666","128.2166666","205.0","WARMUN, AS","FM-12","4","","30","65","","","","","27","CLR:00","30.10","29.41","16.78","49","070","","3","","","","","","","","","","","","","","","","","","","","","","","","","","","","","","","","","","","","","","","","","","","","","","","","","","","","","","","","","","","","","","","","","","","","","","","","","","","","","","","","","","","","","","","","","","","SYN060AAXX  30224 94213 41977 00703 10185 21011 39959 40194 70000;","","","","","","","","","",""
"94213099999","2005-05-31T09:00:00","-17.0166666","128.2166666","205.0","WARMUN, AS","FM-12","4","","32","73","","","","","22","CLR:00","30.13","29.44","18.64","53","180","","13","","","","","","","","","","","","","","","","","","","","","","","","","","","","","","","","","","","","","","","","","","","","","","","","","","","","","","","","","","","","","","","","","","","","","","","","","","","","","","","","","","","","","","","","","","","SYN076AAXX  31014 94213 11980 01811 10230 21001 39968 40203 60004 70200 333 70000;","","","","","","","","","",""
"94213099999","2005-05-31T15:00:00","-17.0166666","128.2166666","205.0","WARMUN, AS","FM-12","4","","34","82","","","","","17","CLR:00","29.98","29.29","18.64","57","020","","5","","","","","","","","","","","","","","","","","","","","","","","","","","","","","","","","","","","","","","","","","","","","","","","","","","","","","","","","","","","","","","","","","","","","","","","","","","","","","","","","","","","","","","","","","","","SYN066AAXX  31074 94213 11980 00204 10280 20011 39918 40152 60001 70200;","","","","","","","","","",""
"94213099999","2005-06-01T06:00:00","-17.0166666","128.2166666","205.0","WARMUN, AS","FM-12","4","","27","66","","","","","23","CLR:00","30.07","29.37","12.43","48","130","","17","","","","","","","","","","","","","","","","","","","","","","","","","","","","","","","","","","","","","","","","","","","","","","","","","","","","","","","","","","","","","","","","","","","","","","","","","","","","","","","","","","","","","","","","","","","SYN060AAXX  31224 94213 41970 01315 10190 21025 39946 40183 70200;","","","","","","","","","",""
"94213099999","2005-06-01T09:00:00","-17.0166666","128.2166666","205.0","WARMUN, AS","FM-12","4","","28","75","","","","","18","CLR:00","30.11","29.41","15.53","53","130","","17","","","","","","","","","","","","","","","","","","","","","","","","","","","","","","","","","","","","","","","","","","","","","","","","","","","","","","","","","","","","","","","","","","","","","","","","","","","","","","","","","","","","","","","","","","","SYN076AAXX  01014 94213 11975 01315 10240 21020 39959 40196 60004 70200 333 70000;","","","","","","","","","",""
"94213099999","2005-06-01T15:00:00","-17.0166666","128.2166666","205.0","WARMUN, AS","FM-12","4","","33","83","","","","","17","CLR:00","29.95","29.25","18.64","57","070","","6","","","","","","","","","","","","","","","","","","","","","","","","","","","","","","","","","","","","","","","","","","","","","","","","","","","","","","","","","","","","","","","","","","","","","","","","","","","","","","","","","","","","","","","","","","","SYN066AAXX  01074 94213 11980 00705 10282 20007 39906 40142 60001 70200;","","","","","","","","","",""
"94213099999","2005-06-02T06:00:00","-17.0166666","128.2166666","205.0","WARMUN, AS","FM-12","4","","36","56","","","","","46","CLR:00","30.05","29.35","15.53","47","000","","0","","","","","","","","","","","","","","","","","","","","","","","","","","","","","","","","","","","","","","","","","","","","","","","","","","","","","","","","","","","","","","","","","","","","","","","","","","","","","","","","","","","","","","","","","","","SYN060AAXX  01224 94213 41975 00000 10135 20021 39940 40177 70200;","","","","","","","","","",""
"94213099999","2005-06-02T09:00:00","-17.0166666","128.2166666","205.0","WARMUN, AS","FM-12","4","","31","76","","","","","19","CLR:00","30.09","29.39","16.78","54","050","","11","","","","","","","","","","","","","","","","","","","","","","","","","","","","","","","","","","","","","","","","","","","","","","","","","","","","","","","","","","","","","","","","","","","","","","","","","","","","","","","","","","","","","","","","","","","SYN076AAXX  02014 94213 11977 00510 10245 21008 39953 40190 60004 70200 333 70000;","","","","","","","","","",""
"94213099999","2005-06-02T15:00:00","-17.0166666","128.2166666","205.0","WARMUN, AS","FM-12","4","","32","83","","","","","16","CLR:00","29.93","29.23","18.64","57","110","","6","","","","","","","","","","","","","","","","","","","","","","","","","","","","","","","","","","","","","","","","","","","","","","","","","","","","","","","","","","","","","","","","","","","","","","","","","","","","","","","","","","","","","","","","","","","SYN066AAXX  02074 94213 11980 01105 10285 20002 39899 40135 60001 70200;","","","","","","","","","",""
"94213099999","2005-06-03T06:00:00","-17.0166666","128.2166666","205.0","WARMUN, AS","FM-12","4","","38","54","","","","","55","","29.99","29.29","14.91","46","000","","0","","","","","","","","","","","","","","","","","","","","","","","","","","","","","","","","","","","","","","","","","","","","","","","","","","","","","","","","","","","","","","","","","","","","","","","","","","","","","","","","","","","","","","","","","","","SYN066AAXX  02224 94213 41/74 10000 10120 20032 39920 40156 70300 80006;","","","","","","","","","",""
"94213099999","2005-06-03T09:00:00","-17.0166666","128.2166666","205.0","WARMUN, AS","FM-12","4","","39","76","","","","","27","","30.04","29.34","18.02","57","050","","5","","","","","","","","","","","","","","","","","","","","","","","","","","","","","","","","","","","","","","","","","","","","","","","","","","","","","","","","","","","","","","","","","","","","","","","","","","","","","","","","","","","","","","","","","","","SYN082AAXX  03014 94213 11/79 20504 10246 20041 39935 40172 60004 70300 80001 333 70000;","","","","","","","","","",""
"94213099999","2005-06-03T15:00:00","-17.0166666","128.2166666","205.0","WARMUN, AS","FM-12","4","","38","86","","","","","19","","29.90","29.21","18.64","60","360","","5","","","","","","","","","","","","","","","","","","","","","","","","","","","","","","","","","","","","","","","","","","","","","","","","","","","","","","","","","","","","","","","","","","","","","","","","","","","","","","","","","","","","","","","","","","","SYN072AAXX  03074 94213 11/80 33604 10300 20036 39890 40126 60001 70300 80006;","","","","","","","","","",""
"94213099999","2005-06-04T06:00:00","-17.0166666","128.2166666","205.0","WARMUN, AS","FM-12","4","","42","51","","","","","71","","29.97","29.28","15.53","47","000","","0","","","","","","","","","","","","","","","","","","","","","","","","","","","","","","","","","","","","","","","","","","","","","","","","","","","","","","","","","","","","","","","","","","","","","","","","","","","","","","","","","","","","","","","","","","","SYN066AAXX  03224 94213 41/75 40000 10103 20053 39914 40150 70100 80008;","","","","","","","","","",""
"94213099999","2005-06-04T09:00:00","-17.0166666","128.2166666","205.0","WARMUN, AS","FM-12","4","","40","79s","","","","","24","","30.00","29.30","16.78","58","000","","0","","","","","","","","","","","","","","","","","","","","","","","","","","","","","","","","","","","","","","","","","","","","","","","","","","","","","","","","","","","","","","","","","","","","","","","","","","","","","","","","","","","","","","","","","","","SYN082AAXX  04014 94213 11/77 10000 10263 20044 39923 40159 60004 70100 80008 333 70000;","","","","","","","","","",""
"94213099999","2005-06-04T15:00:00","-17.0166666","128.2166666","205.0","WARMUN, AS","FM-12","4","","43","87","","","","","22","CLR:00","29.86","29.17","18.02","62","340","","8","","","","","","","","","","","","","","","","","","","","","","","","","","","","","","","","","","","","","","","","","","","","","","","","","","","","","","","","","","","","","","","","","","","","","","","","","","","","","","","","","","","","","","","","","","","SYN066AAXX  04074 94213 11979 03407 10305 20062 39878 40113 60001 70100;","","","","","","","","","",""
"94213099999","2005-06-05T06:00:00","-17.0166666","128.2166666","205.0","WARMUN, AS","FM-12","4","","46","67","","","","","47","","29.93","29.24","16.78","56","180","","1","","","","","","","","","","","","","","","","","","","","","","","","","","","","","","","","","","","","","","","","","","","","","","","","","","","","","","","","","","","","","","","","","","","","","","","","","","","","","","","","","","","","","","","","","","","SYN066AAXX  04224 94213 41/77 71801 10196 20078 39901 40137 70322 87090;","","","","","","","","","",""
"94213099999","2005-06-05T09:00:00","-17.0166666","128.2166666","205.0","WARMUN, AS","FM-12","4","","53","82","","","","","36","","29.96","29.27","17.40","65","050","","3","","","","","","","","","","","","","","","","","","","","","","","","","","","","","","","","","","","","","","","","","","","","","","","","","","","","","","","","","","","","","","","","","","","","","","","","","","","","","","","","","","","","","","","","","","","SYN082AAXX  05014 94213 11/78 60503 10280 20115 39911 40147 60004 70122 86080 333 70000;","","","","","","","","","",""
"94213099999","2005-06-05T15:00:00","-17.0166666","128.2166666","205.0","WARMUN, AS","FM-12","4","","52","89","","","","","28","","29.85","29.16","18.64","66","050","","3","","","","","","","","","","","","","","","","","","","","","","","","","","","","","","","","","","","","","","","","","","","","","","","","","","","","","","","","","","","","","","","","","","","","","","","","","","","","","","","","","","","","","","","","","","","SYN072AAXX  05074 94213 11/80 30503 10315 20110 39875 40110 60001 70100 83040;","","","","","","","","","",""
"94213099999","2005-06-06T06:00:00","-17.0166666","128.2166666","205.0","WARMUN, AS","FM-12","4","","54","61","","","","","79","","29.92","29.23","14.91","57","000","","0","","","","","","","","","","","","","","","","","","","","","","","","","","","","","","","","","","","","","","","","","","","","","","","","","","","","","","","","","","","","","","","","","","","","","","","","","","","","","","","","","","","","","","","","","","","SYN066AAXX  05224 94213 41474 70000 10160 20124 39897 40133 70322 87100;","","","","","","","","","",""
"94213099999","2005-06-06T09:00:00","-17.0166666","128.2166666","205.0","WARMUN, AS","FM-12","4","","54","84","","","","","35","","29.96","29.26","17.40","66","020","","7","","","","","","","","","","","","","","","","","","","","","","","","","","","","","","","","","","","","","","","","","","","","","","","","","","","","","","","","","","","","","","","","","","","","","","","","","","","","","","","","","","","","","","","","","","","SYN082AAXX  06014 94213 11878 10206 10291 20120 39909 40145 60004 70100 81100 333 70000;","","","","","","","","","",""
"94213099999","2005-06-06T15:00:00","-17.0166666","128.2166666","205.0","WARMUN, AS","FM-12","4","","54","90","","","","","29","","29.84","29.14","18.64","68","050","","7","","","","","","","","","","","","","","","","","","","","","","","","","","","","","","","","","","","","","","","","","","","","","","","","","","","","","","","","","","","","","","","","","","","","","","","","","","","","","","","","","","","","","","","","","","","SYN072AAXX  06074 94213 11880 10506 10325 20121 39869 40104 60001 70200 81100;","","","","","","","","","",""
"94213099999","2005-06-07T06:00:00","-17.0166666","128.2166666","205.0","WARMUN, AS","FM-12","4","","59","65","","","","","81","","29.91","29.21","16.16","61","000","","0","","","","","","","","","","","","","","","","","","","","","","","","","","","","","","","","","","","","","","","","","","","","","","","","","","","","","","","","","","","","","","","","","","","","","","","","","","","","","","","","","","","","","","","","","","","SYN066AAXX  06224 94213 41476 40000 10185 20151 39893 40129 70200 82180;","","","","","","","","","",""
"94213099999","2005-06-07T09:00:00","-17.0166666","128.2166666","205.0","WARMUN, AS","FM-12","4","","62","85s","","","","","46","","29.95","29.25","17.40","70","000","","0","","","","","","","","","","","","","","","","","","","","","","","","","","","","","","","","","","","","","","","","","","","","","","","","","","","","","","","","","","","","","","","","","","","","","","","","","","","","","","","","","","","","","","","","","","","SYN082AAXX  07014 94213 11/78 20000 10295 20168 39905 40141 60004 70100 80006 333 70000;","","","","","","","","","",""
"94213099999","2005-06-07T15:00:00","-17.0166666","128.2166666","205.0","WARMUN, AS","FM-12","4","","56","93","","","","","29","","29.80","29.11","18.64","69","360","","11","","","","","","","","","","","","","","","","","","","","","","","","","","","","","","","","","","","","","","","","","","","","","","","","","","","","","","","","","","","","","","","","","","","","","","","","","","","","","","","","","","","","","","","","","","","SYN072AAXX  07074 94213 11880 43610 10340 20135 39858 40093 60001 70300 83280;","","","","","","","","","",""
"94213099999","2005-06-08T06:00:00","-17.0166666","128.2166666","205.0","WARMUN, AS","FM-12","4","","59","65","","","","","81","","29.92","29.22","12.43","61","000","","0","","","","","","","","","","","","","","","","","","","","","","","","","","","","","","","","","","","","","","","","","","","","","","","","","","","","","","","","","","","","","","","","","","","","","","","","","","","","","","","","","","","","","","","","","","","SYN066AAXX  07224 94213 41/70 10000 10185 20151 39896 40132 70100 80008;","","","","","","","","","",""
"94213099999","2005-06-08T09:00:00","-17.0166666","128.2166666","205.0","WARMUN, AS","FM-12","4","","65","87","","","","","47","CLR:00","29.94","29.24","17.40","72","180","","2","","","","","","","","","","","","","","","","","","","","","","","","","","","","","","","","","","","","","","","","","","","","","","","","","","","","","","","","","","","","","","","","","","","","","","","","","","","","","","","","","","","","","","","","","","","SYN076AAXX  08014 94213 11978 01802 10305 20181 39902 40138 60004 70200 333 70000;","","","","","","","","","",""
"94213099999","2005-06-08T15:00:00","-17.0166666","128.2166666","205.0","WARMUN, AS","FM-12","4","","55","92","","","","","29","","29.83","29.14","18.64","69","020","","6","","","","","","","","","","","","","","","","","","","","","","","","","","","","","","","","","","","","","","","","","","","","","","","","","","","","","","","","","","","","","","","","","","","","","","","","","","","","","","","","","","","","","","","","","","","SYN072AAXX  08074 94213 11980 30205 10332 20130 39867 40102 60001 70300 82280;","","","","","","","","","",""
"94213099999","2005-06-09T06:00:00","-17.0166666","128.2166666","205.0","WARMUN, AS","FM-12","4","","57","64","","","","","79","","29.91","29.22","15.53","60","000","","0","","","","","","","","","","","","","","","","","","","","","","","","","","","","","","","","","","","","","","","","","","","","","","","","","","","","","","","","","","","","","","","","","","","","","","","","","","","","","","","","","","","","","","","","","","","SYN066AAXX  08224 94213 41/75 10000 10176 20139 39894 40130 70100 81040;","","","","","","","","","",""
"94213099999","2005-06-09T09:00:00","-17.0166666","128.2166666","205.0","WARMUN, AS","FM-12","4","","61","87","","","","","43","CLR:00","29.96","29.26","15.53","70","230","","3","","","","","","","","","","","","","","","","","","","","","","","","","","","","","","","","","","","","","","","","","","","","","","","","","","","","","","","","","","","","","","","","","","","","","","","","","","","","","","","","","","","","","","","","","","","SYN076AAXX  09014 94213 11975 02303 10303 20163 39909 40145 60004 70000 333 70000;","","","","","","","","","",""
"94213099999","2005-06-09T15:00:00","-17.0166666","128.2166666","205.0","WARMUN, AS","FM-12","4","","54","93","","","","","27","","29.83","29.13","18.02","69","020","","3","","","","","","","","","","","","","","","","","","","","","","","","","","","","","","","","","","","","","","","","","","","","","","","","","","","","","","","","","","","","","","","","","","","","","","","","","","","","","","","","","","","","","","","","","","","SYN072AAXX  09074 94213 11/79 10203 10340 20125 39866 40101 60001 70300 81030;","","","","","","","","","",""
"94213099999","2005-06-10T06:00:00","-17.0166666","128.2166666","205.0","WARMUN, AS","FM-12","4","","57","63","","","","","81","CLR:00","29.91","29.21","15.53","60","180","","1","","","","","","","","","","","","","","","","","","","","","","","","","","","","","","","","","","","","","","","","","","","","","","","","","","","","","","","","","","","","","","","","","","","","","","","","","","","","","","","","","","","","","","","","","","","SYN060AAXX  09224 94213 41975 01801 10170 20137 39891 40127 70100;","","","","","","","","","",""
"94213099999","2005-06-10T09:00:00","-17.0166666","128.2166666","205.0","WARMUN, AS","FM-12","4","","62","87s","","","","","44","CLR:00","29.92","29.22","17.40","71","050","","1","","","","","","","","","","","","","","","","","","","","","","","","","","","","","","","","","","","","","","","","","","","","","","","","","","","","","","","","","","","","","","","","","","","","","","","","","","","","","","","","","","","","","","","","","","","SYN076AAXX  10014 94213 11978 00501 10304 20168 39896 40132 60004 70200 333 70000;","","","","","","","","","",""
"94213099999","2005-06-11T06:00:00","-17.0166666","128.2166666","205.0","WARMUN, AS","FM-12","4","","55","70","","","","","60","","29.89","29.19","15.53","61","090","","1","","","","","","","","","","","","","","","","","","","","","","","","","","","","","","","","","","","","","","","","","","","","","","","","","","","","","","","","","","","","","","","","","","","","","","","","","","","","","","","","","","","","","","","","","","","SYN060AAXX  10224 94213 41/75 20901 10210 20130 39886 40122 70300;","","","","","","","","","",""
"94213099999","2005-06-11T09:00:00","-17.0166666","128.2166666","205.0","WARMUN, AS","FM-12","4","","57","83","","","","","42","","29.91","29.22","18.02","67","020","","1","","","","","","","","","","","","","","","","","","","","","","","","","","","","","","","","","","","","","","","","","","","","","","","","","","","","","","","","","","","","","","","","","","","","","","","","","","","","","","","","","","","","","","","","","","","SYN082AAXX  11014 94213 11/79 10201 10281 20139 39894 40130 60004 70100 80006 333 70000;","","","","","","","","","",""
"94213099999","2005-06-11T15:00:00","-17.0166666","128.2166666","205.0","WARMUN, AS","FM-12","4","","57","92","","","","","31","","29.79","29.09","18.64","70","250","","1","","","","","","","","","","","","","","","","","","","","","","","","","","","","","","","","","","","","","","","","","","","","","","","","","","","","","","","","","","","","","","","","","","","","","","","","","","","","","","","","","","","","","","","","","","","SYN072AAXX  11074 94213 11/80 12501 10335 20141 39852 40087 60001 70200 80005;","","","","","","","","","",""
"94213099999","2005-06-12T06:00:00","-17.0166666","128.2166666","205.0","WARMUN, AS","FM-12","4","","57","65","","","","","74","","29.89","29.19","16.16","60","000","","0","","","","","","","","","","","","","","","","","","","","","","","","","","","","","","","","","","","","","","","","","","","","","","","","","","","","","","","","","","","","","","","","","","","","","","","","","","","","","","","","","","","","","","","","","","","SYN066AAXX  11224 94213 41/76 10000 10186 20139 39886 40122 70300 80005;","","","","","","","","","",""
"94213099999","2005-06-12T09:00:00","-17.0166666","128.2166666","205.0","WARMUN, AS","FM-12","4","","67","82","","","","","60","CLR:00","29.92","29.22","17.40","72","340","","1","","","","","","","","","","","","","","","","","","","","","","","","","","","","","","","","","","","","","","","","","","","","","","","","","","","","","","","","","","","","","","","","","","","","","","","","","","","","","","","","","","","","","","","","","","","SYN076AAXX  12014 94213 11978 03401 10278 20192 39895 40131 60004 70000 333 70000;","","","","","","","","","",""
"94213099999","2005-06-12T15:00:00","-17.0166666","128.2166666","205.0","WARMUN, AS","FM-12","4","","57","90","","","","","33","","29.78","29.09","17.40","69","020","","5","","","","","","","","","","","","","","","","","","","","","","","","","","","","","","","","","","","","","","","","","","","","","","","","","","","","","","","","","","","","","","","","","","","","","","","","","","","","","","","","","","","","","","","","","","","SYN072AAXX  12074 94213 11878 40204 10323 20139 39851 40086 60001 70300 84200;","","","","","","","","","",""
"94213099999","2005-06-13T06:00:00","-17.0166666","128.2166666","205.0","WARMUN, AS","FM-12","4","","49","69","","","","","49","","29.87","29.17","16.16","58","000","","0","","","","","","","","","","","","","","","","","","","","","","","","","","","","","","","","","","","","","","","","","","","","","","","","","","","","","","","","","","","","","","","","","","","","","","","","","","","","","","","","","","","","","","","","","","","SYN066AAXX  12224 94213 41/76 30000 10205 20093 39879 40114 70300 82086;","","","","","","","","","",""
"94213099999","2005-06-13T09:00:00","-17.0166666","128.2166666","205.0","WARMUN, AS","FM-12","4","","48","80","","","","","32","","29.91","29.22","17.40","62","180","","3","","","","","","","","","","","","","","","","","","","","","","","","","","","","","","","","","","","","","","","","","","","","","","","","","","","","","","","","","","","","","","","","","","","","","","","","","","","","","","","","","","","","","","","","","","","SYN082AAXX  13014 94213 11/78 11803 10269 20089 39894 40130 60004 70100 80001 333 70000;","","","","","","","","","",""
"94213099999","2005-06-13T15:00:00","-17.0166666","128.2166666","205.0","WARMUN, AS","FM-12","4","","52","88","","","","","30","","29.79","29.10","17.40","66","270","","2","","","","","","","","","","","","","","","","","","","","","","","","","","","","","","","","","","","","","","","","","","","","","","","","","","","","","","","","","","","","","","","","","","","","","","","","","","","","","","","","","","","","","","","","","","","SYN072AAXX  13074 94213 11878 42702 10310 20113 39853 40088 60001 70300 82280;","","","","","","","","","",""
"94213099999","2005-06-14T06:00:00","-17.0166666","128.2166666","205.0","WARMUN, AS","FM-12","4","","42","67","","","","","41","","29.91","29.21","16.16","54","130","","1","","","","","","","","","","","","","","","","","","","","","","","","","","","","","","","","","","","","","","","","","","","","","","","","","","","","","","","","","","","","","","","","","","","","","","","","","","","","","","","","","","","","","","","","","","","SYN066AAXX  13224 94213 41776 71301 10192 20056 39891 40127 70322 87200;","","","","","","","","","",""
"94213099999","2005-06-14T09:00:00","-17.0166666","128.2166666","205.0","WARMUN, AS","FM-12","4","","43","80","","","","","28","","29.93","29.24","17.40","60","130","","1","","","","","","","","","","","","","","","","","","","","","","","","","","","","","","","","","","","","","","","","","","","","","","","","","","","","","","","","","","","","","","","","","","","","","","","","","","","","","","","","","","","","","","","","","","","SYN082AAXX  14014 94213 11/78 61301 10265 20063 39901 40137 60004 70222 86050 333 70000;","","","","","","","","","",""
"94213099999","2005-06-14T15:00:00","-17.0166666","128.2166666","205.0","WARMUN, AS","FM-12","4","","43","85","","","","","22","","29.80","29.11","18.64","61","130","","1","","","","","","","","","","","","","","","","","","","","","","","","","","","","","","","","","","","","","","","","","","","","","","","","","","","","","","","","","","","","","","","","","","","","","","","","","","","","","","","","","","","","","","","","","","","SYN072AAXX  14074 94213 11/80 41301 10295 20059 39857 40092 60001 70100 84080;","","","","","","","","","",""
"94213099999","2005-06-15T06:00:00","-17.0166666","128.2166666","205.0","WARMUN, AS","FM-12","4","","36","62","","","","","38","","29.89","29.19","16.78","49","130","","1","","","","","","","","","","","","","","","","","","","","","","","","","","","","","","","","","","","","","","","","","","","","","","","","","","","","","","","","","","","","","","","","","","","","","","","","","","","","","","","","","","","","","","","","","","","SYN066AAXX  14224 94213 41/77 41301 10168 20022 39886 40122 70300 80005;","","","","","","","","","",""
"94213099999","2005-06-15T09:00:00","-17.0166666","128.2166666","205.0","WARMUN, AS","FM-12","4","","35","77","","","","","22","","29.92","29.23","18.02","55","090","","3","","","","","","","","","","","","","","","","","","","","","","","","","","","","","","","","","","","","","","","","","","","","","","","","","","","","","","","","","","","","","","","","","","","","","","","","","","","","","","","","","","","","","","","","","","","SYN082AAXX  15014 94213 11/79 30903 10248 20018 39897 40133 60004 70100 80005 333 70000;","","","","","","","","","",""
"94213099999","2005-06-15T15:00:00","-17.0166666","128.2166666","205.0","WARMUN, AS","FM-12","4","","46","87","","","","","25","","29.78","29.08","18.02","63","020","","3","","","","","","","","","","","","","","","","","","","","","","","","","","","","","","","","","","","","","","","","","","","","","","","","","","","","","","","","","","","","","","","","","","","","","","","","","","","","","","","","","","","","","","","","","","","SYN072AAXX  15074 94213 11/79 10203 10303 20080 39848 40083 60001 70100 80001;","","","","","","","","","",""
"94213099999","2005-06-16T06:00:00","-17.0166666","128.2166666","205.0","WARMUN, AS","FM-12","4","","52","61","","","","","73","","29.88","29.19","14.91","56","000","","0","","","","","","","","","","","","","","","","","","","","","","","","","","","","","","","","","","","","","","","","","","","","","","","","","","","","","","","","","","","","","","","","","","","","","","","","","","","","","","","","","","","","","","","","","","","SYN066AAXX  15224 94213 41/74 20000 10161 20113 39884 40120 70300 80006;","","","","","","","","","",""
"94213099999","2005-06-16T09:00:00","-17.0166666","128.2166666","205.0","WARMUN, AS","FM-12","4","","59","82","","","","","45","","29.91","29.22","17.40","68","050","","1","","","","","","","","","","","","","","","","","","","","","","","","","","","","","","","","","","","","","","","","","","","","","","","","","","","","","","","","","","","","","","","","","","","","","","","","","","","","","","","","","","","","","","","","","","","SYN082AAXX  16014 94213 11/78 10501 10280 20149 39894 40130 60004 70100 80001 333 70000;","","","","","","","","","",""
"94213099999","2005-06-16T15:00:00","-17.0166666","128.2166666","205.0","WARMUN, AS","FM-12","4","","58","90","","","","","34","","29.79","29.09","18.64","69","310","","7","","","","","","","","","","","","","","","","","","","","","","","","","","","","","","","","","","","","","","","","","","","","","","","","","","","","","","","","","","","","","","","","","","","","","","","","","","","","","","","","","","","","","","","","","","","SYN072AAXX  16074 94213 11880 33106 10321 20143 39852 40087 60001 70300 83200;","","","","","","","","","",""
"94213099999","2005-06-17T06:00:00","-17.0166666","128.2166666","205.0","WARMUN, AS","FM-12","4","","60","70","","","","","72","","29.88","29.18","14.91","64","000","","0","","","","","","","","","","","","","","","","","","","","","","","","","","","","","","","","","","","","","","","","","","","","","","","","","","","","","","","","","","","","","","","","","","","","","","","","","","","","","","","","","","","","","","","","","","","SYN066AAXX  16224 94213 41/74 40000 10210 20157 39883 40119 70100 82028;","","","","","","","","","",""
"94213099999","2005-06-17T09:00:00","-17.0166666","128.2166666","205.0","WARMUN, AS","FM-12","4","","68","85","","","","","58","","29.91","29.22","15.53","73","000","","0","","","","","","","","","","","","","","","","","","","","","","","","","","","","","","","","","","","","","","","","","","","","","","","","","","","","","","","","","","","","","","","","","","","","","","","","","","","","","","","","","","","","","","","","","","","SYN082AAXX  17014 94213 11/75 40000 10292 20201 39894 40130 60004 70300 82055 333 70000;","","","","","","","","","",""
"94213099999","2005-06-17T15:00:00","-17.0166666","128.2166666","205.0","WARMUN, AS","FM-12","4","","59","91","","","","","34","","29.76","29.07","18.64","70","020","","11","","","","","","","","","","","","","","","","","","","","","","","","","","","","","","","","","","","","","","","","","","","","","","","","","","","","","","","","","","","","","","","","","","","","","","","","","","","","","","","","","","","","","","","","","","","SYN072AAXX  17074 94213 11980 50210 10327 20150 39843 40078 60001 70311 85200;","","","","","","","","","",""
"94213099999","2005-06-18T06:00:00","-17.0166666","128.2166666","205.0","WARMUN, AS","FM-12","4","","66","72","","","","","80","","29.82","29.12","15.53","68","020","","1","","","","","","","","","","","","","","","","","","","","","","","","","","","","","","","","","","","","","","","","","","","","","","","","","","","","","","","","","","","","","","","","","","","","","","","","","","","","","","","","","","","","","","","","","","","SYN066AAXX  17224 94213 41/75 30201 10223 20187 39862 40098 70100 83080;","","","","","","","","","",""
"94213099999","2005-06-18T09:00:00","-17.0166666","128.2166666","205.0","WARMUN, AS","FM-12","4","","67","82","","","","","60","","29.86","29.16","15.53","72","310","","10","","","","","","","","","","","","","","","","","","","","","","","","","","","","","","","","","","","","","","","","","","","","","","","","","","","","","","","","","","","","","","","","","","","","","","","","","","","","","","","","","","","","","","","","","","","SYN082AAXX  18014 94213 11/75 73109 10279 20195 39876 40111 60004 70322 87080 333 70000;","","","","","","","","","",""
"94213099999","2005-06-18T15:00:00","-17.0166666","128.2166666","205.0","WARMUN, AS","FM-12","4","","60","91","","","","","36","","29.72","29.03","16.78","71","310","","6","","","","","","","","","","","","","","","","","","","","","","","","","","","","","","","","","","","","","","","","","","","","","","","","","","","","","","","","","","","","","","","","","","","","","","","","","","","","","","","","","","","","","","","","","","","SYN072AAXX  18074 94213 11877 73105 10326 20157 39830 40064 60001 70322 82330;","","","","","","","","","",""
"94213099999","2005-06-19T06:00:00","-17.0166666","128.2166666","205.0","WARMUN, AS","FM-12","4","","70","72","","||DZ","","","91","","29.83","29.13","14.91","71","130","","1","","","","","","","","","","","","","","","","","","","","","","","","","","","","","","","","","","","","","","","","","","","","","","","","","","","","","","","","","","","","","","","","","","","","","","","","","","","","","","","","","","","","","","","","","","","SYN066AAXX  18224 94213 41374 71301 10225 20210 39866 40101 75022 84520;","","","","","","","","","",""
"94213099999","2005-06-19T09:00:00","-17.0166666","128.2166666","205.0","WARMUN, AS","FM-12","4","","70","75","","","","","83","","29.87","29.18","16.16","72","140","","1","","","","","","","","","","","","","","","","","","","","","","","","","","","","","","","","","","","","","","","","","","","","","","","","","","","","","","","","","","","","","","","","","","","","","","","","","","","","","","","","","","","","","","","","","","","SYN082AAXX  19014 94213 11/76 81401 10240 20210 39880 40116 69904 70162 8802/ 333 79999;","","","","","","","","","",""
"94213099999","2005-06-19T15:00:00","-17.0166666","128.2166666","205.0","WARMUN, AS","FM-12","4","","64","72","","","","","78","","29.80","29.11","14.91","67","130","","5","","","","","","","","","","","","","","","","","","","","","","","","","","","","","","","","","","","","","","","","","","","","","","","","","","","","","","","","","","","","","","","","","","","","","","","","","","","","","","","","","","","","","","","","","","","SYN072AAXX  19074 94213 11/74 81304 10220 20180 39857 40092 60024 70252 88020;","","","","","","","","","",""
"94213099999","2005-06-20T06:00:00","-17.0166666","128.2166666","205.0","WARMUN, AS","FM-12","4","","66","68","","","","","92","","29.89","29.20","15.53","67","180","","1","","","","","","","","","","","","","","","","","","","","","","","","","","","","","","","","","","","","","","","","","","","","","","","","","","","","","","","","","","","","","","","","","","","","","","","","","","","","","","","","","","","","","","","","","","","SYN066AAXX  19224 94213 41275 71801 10200 20187 39887 40123 70152 82120;","","","","","","","","","",""
"94213099999","2005-06-20T09:00:00","-17.0166666","128.2166666","205.0","WARMUN, AS","FM-12","4","","63","72","","","","","74","","29.96","29.26","16.16","66","130","","2","","","","","","","","","","","","","","","","","","","","","","","","","","","","","","","","","","","","","","","","","","","","","","","","","","","","","","","","","","","","","","","","","","","","","","","","","","","","","","","","","","","","","","","","","","","SYN082AAXX  20014 94213 11476 81302 10220 20171 39908 40144 60030 70252 88500 333 7////;","","","","","","","","","",""
"94213099999","2005-06-20T15:00:00","-17.0166666","128.2166666","205.0","WARMUN, AS","FM-12","4","","55","78","","","","","45","","29.86","29.17","18.64","64","130","","2","","","","","","","","","","","","","","","","","","","","","","","","","","","","","","","","","","","","","","","","","","","","","","","","","","","","","","","","","","","","","","","","","","","","","","","","","","","","","","","","","","","","","","","","","","","SYN072AAXX  20074 94213 11/80 71302 10255 20126 39877 40112 60001 70222 87080;","","","","","","","","","",""
"94213099999","2005-06-21T06:00:00","-17.0166666","128.2166666","205.0","WARMUN, AS","FM-12","4","","53","66","","","","","62","","29.96","29.26","16.16","59","160","","1","","","","","","","","","","","","","","","","","","","","","","","","","","","","","","","","","","","","","","","","","","","","","","","","","","","","","","","","","","","","","","","","","","","","","","","","","","","","","","","","","","","","","","","","","","","SYN066AAXX  20224 94213 41576 81601 10190 20114 39909 40145 70022 88500;","","","","","","","","","",""
"94213099999","2005-06-21T09:00:00","-17.0166666","128.2166666","205.0","WARMUN, AS","FM-12","4","","45","71","","","","","40","","30.02","29.32","16.16","57","090","","3","","","","","","","","","","","","","","","","","","","","","","","","","","","","","","","","","","","","","","","","","","","","","","","","","","","","","","","","","","","","","","","","","","","","","","","","","","","","","","","","","","","","","","","","","","","SYN082AAXX  21014 94213 11776 60903 10215 20074 39928 40165 60004 70122 86500 333 70000;","","","","","","","","","",""
"94213099999","2005-06-21T15:00:00","-17.0166666","128.2166666","205.0","WARMUN, AS","FM-12","4","","46","77","","","","","34","","29.92","29.22","17.40","60","090","","2","","","","","","","","","","","","","","","","","","","","","","","","","","","","","","","","","","","","","","","","","","","","","","","","","","","","","","","","","","","","","","","","","","","","","","","","","","","","","","","","","","","","","","","","","","","SYN072AAXX  21074 94213 11878 60902 10248 20077 39895 40131 60001 70222 86500;","","","","","","","","","",""
"94213099999","2005-06-22T06:00:00","-17.0166666","128.2166666","205.0","WARMUN, AS","FM-12","4","","43","61","","","","","52","","30.02","29.32","14.91","52","160","","1","","","","","","","","","","","","","","","","","","","","","","","","","","","","","","","","","","","","","","","","","","","","","","","","","","","","","","","","","","","","","","","","","","","","","","","","","","","","","","","","","","","","","","","","","","","SYN066AAXX  21224 94213 41574 61601 10159 20060 39928 40165 70222 84450;","","","","","","","","","",""
"94213099999","2005-06-22T09:00:00","-17.0166666","128.2166666","205.0","WARMUN, AS","FM-12","4","","41","71","","","","","34","","30.08","29.37","15.53","55","160","","2","","","","","","","","","","","","","","","","","","","","","","","","","","","","","","","","","","","","","","","","","","","","","","","","","","","","","","","","","","","","","","","","","","","","","","","","","","","","","","","","","","","","","","","","","","","SYN082AAXX  22014 94213 11/75 41602 10216 20051 39947 40185 60004 70300 81088 333 70000;","","","","","","","","","",""
"94213099999","2005-06-22T15:00:00","-17.0166666","128.2166666","205.0","WARMUN, AS","FM-12","4","","43","81","","","","","26","","29.93","29.23","18.64","60","130","","5","","","","","","","","","","","","","","","","","","","","","","","","","","","","","","","","","","","","","","","","","","","","","","","","","","","","","","","","","","","","","","","","","","","","","","","","","","","","","","","","","","","","","","","","","","","SYN072AAXX  22074 94213 11/80 11304 10272 20060 39898 40134 60001 70100 80008;","","","","","","","","","",""
"94213099999","2005-06-23T06:00:00","-17.0166666","128.2166666","205.0","WARMUN, AS","FM-12","4","","38","54","","","","","56","","30.06","29.36","14.91","46","000","","0","","","","","","","","","","","","","","","","","","","","","","","","","","","","","","","","","","","","","","","","","","","","","","","","","","","","","","","","","","","","","","","","","","","","","","","","","","","","","","","","","","","","","","","","","","","SYN066AAXX  22224 94213 41/74 10000 10121 20036 39941 40178 70100 80008;","","","","","","","","","",""
"94213099999","2005-06-23T09:00:00","-17.0166666","128.2166666","205.0","WARMUN, AS","FM-12","4","","38","72","","","","","29","","30.08","29.38","15.53","55","000","","0","","","","","","","","","","","","","","","","","","","","","","","","","","","","","","","","","","","","","","","","","","","","","","","","","","","","","","","","","","","","","","","","","","","","","","","","","","","","","","","","","","","","","","","","","","","SYN082AAXX  23014 94213 11/75 10000 10220 20033 39950 40187 60004 70200 80008 333 70000;","","","","","","","","","",""
"94213099999","2005-06-23T15:00:00","-17.0166666","128.2166666","205.0","WARMUN, AS","FM-12","4","","42","81","","","","","24","CLR:00","29.93","29.23","18.64","60","310","","1","","","","","","","","","","","","","","","","","","","","","","","","","","","","","","","","","","","","","","","","","","","","","","","","","","","","","","","","","","","","","","","","","","","","","","","","","","","","","","","","","","","","","","","","","","","SYN066AAXX  23074 94213 11980 03101 10275 20053 39898 40134 60001 70200;","","","","","","","","","",""
"94213099999","2005-06-24T06:00:00","-17.0166666","128.2166666","205.0","WARMUN, AS","FM-12","4","","43","51","","","","","73","","30.04","29.34","16.16","47","000","","0","","","","","","","","","","","","","","","","","","","","","","","","","","","","","","","","","","","","","","","","","","","","","","","","","","","","","","","","","","","","","","","","","","","","","","","","","","","","","","","","","","","","","","","","","","","SYN066AAXX  23224 94213 41/76 10000 10107 20060 39935 40172 70200 81080;","","","","","","","","","",""
"94213099999","2005-06-24T09:00:00","-17.0166666","128.2166666","205.0","WARMUN, AS","FM-12","4","","35","74","","","","","24","","30.05","29.35","18.02","54","020","","1","","","","","","","","","","","","","","","","","","","","","","","","","","","","","","","","","","","","","","","","","","","","","","","","","","","","","","","","","","","","","","","","","","","","","","","","","","","","","","","","","","","","","","","","","","","SYN082AAXX  24014 94213 11/79 40201 10232 20015 39940 40177 60004 70200 84080 333 70000;","","","","","","","","","",""
"94213099999","2005-06-24T15:00:00","-17.0166666","128.2166666","205.0","WARMUN, AS","FM-12","4","","46","82","","||FU","","","28","CLR:00","29.93","29.23","18.02","61","070","","3","","","","","","","","","","","","","","","","","","","","","","","","","","","","","","","","","","","","","","","","","","","","","","","","","","","","","","","","","","","","","","","","","","","","","","","","","","","","","","","","","","","","","","","","","","","SYN066AAXX  24074 94213 11979 00703 10276 20076 39899 40135 60001 70400;","","","","","","","","","",""
"94213099999","2005-06-25T06:00:00","-17.0166666","128.2166666","205.0","WARMUN, AS","FM-12","4","","50","60","","","","","69","","30.02","29.32","14.91","55","000","","0","","","","","","","","","","","","","","","","","","","","","","","","","","","","","","","","","","","","","","","","","","","","","","","","","","","","","","","","","","","","","","","","","","","","","","","","","","","","","","","","","","","","","","","","","","","SYN066AAXX  24224 94213 41/74 70000 10155 20098 39930 40167 70322 87080;","","","","","","","","","",""
"94213099999","2005-06-25T09:00:00","-17.0166666","128.2166666","205.0","WARMUN, AS","FM-12","4","","38","78","","","","","24","","30.06","29.36","18.02","57","090","","1","","","","","","","","","","","","","","","","","","","","","","","","","","","","","","","","","","","","","","","","","","","","","","","","","","","","","","","","","","","","","","","","","","","","","","","","","","","","","","","","","","","","","","","","","","","SYN082AAXX  25014 94213 11/79 30901 10255 20035 39941 40178 60004 70100 83080 333 70000;","","","","","","","","","",""
"94213099999","2005-06-25T15:00:00","-17.0166666","128.2166666","205.0","WARMUN, AS","FM-12","4","","51","84","","","","","32","","29.95","29.25","18.64","64","130","","1","","","","","","","","","","","","","","","","","","","","","","","","","","","","","","","","","","","","","","","","","","","","","","","","","","","","","","","","","","","","","","","","","","","","","","","","","","","","","","","","","","","","","","","","","","","SYN072AAXX  25074 94213 11/80 61301 10290 20106 39906 40142 60001 70322 86080;","","","","","","","","","",""
"94213099999","2005-06-26T06:00:00","-17.0166666","128.2166666","205.0","WARMUN, AS","FM-12","4","","42","63","","","","","48","","30.09","29.39","15.53","52","000","","0","","","","","","","","","","","","","","","","","","","","","","","","","","","","","","","","","","","","","","","","","","","","","","","","","","","","","","","","","","","","","","","","","","","","","","","","","","","","","","","","","","","","","","","","","","","SYN066AAXX  25224 94213 41/75 20000 10170 20057 39953 40190 70111 82080;","","","","","","","","","",""
"94213099999","2005-06-26T09:00:00","-17.0166666","128.2166666","205.0","WARMUN, AS","FM-12","4","","36","76","","","","","23","","30.14","29.44","15.53","55","180","","11","","","","","","","","","","","","","","","","","","","","","","","","","","","","","","","","","","","","","","","","","","","","","","","","","","","","","","","","","","","","","","","","","","","","","","","","","","","","","","","","","","","","","","","","","","","SYN082AAXX  26014 94213 11/75 51810 10245 20023 39968 40206 60004 70311 82086 333 70000;","","","","","","","","","",""
"94213099999","2005-06-26T15:00:00","-17.0166666","128.2166666","205.0","WARMUN, AS","FM-12","4","","42","82","","","","","24","CLR:00","30.00","29.30","18.64","60","110","","11","","","","","","","","","","","","","","","","","","","","","","","","","","","","","","","","","","","","","","","","","","","","","","","","","","","","","","","","","","","","","","","","","","","","","","","","","","","","","","","","","","","","","","","","","","","SYN066AAXX  26074 94213 11980 01110 10277 20054 39923 40159 60001 70111;","","","","","","","","","",""
"94213099999","2005-06-27T06:00:00","-17.0166666","128.2166666","205.0","WARMUN, AS","FM-12","4","","38","62","","","","","42","","30.13","29.43","14.91","50","160","","3","","","","","","","","","","","","","","","","","","","","","","","","","","","","","","","","","","","","","","","","","","","","","","","","","","","","","","","","","","","","","","","","","","","","","","","","","","","","","","","","","","","","","","","","","","","SYN066AAXX  26224 94213 41/74 11603 10166 20035 39965 40202 70300 81040;","","","","","","","","","",""
"94213099999","2005-06-27T09:00:00","-17.0166666","128.2166666","205.0","WARMUN, AS","FM-12","4","","37","71","","","","","29","CLR:00","30.17","29.47","18.02","54","130","","21","","","","","","","","","","","","","","","","","","","","","","","","","","","","","","","","","","","","","","","","","","","","","","","","","","","","","","","","","","","","","","","","","","","","","","","","","","","","","","","","","","","","","","","","","","","SYN076AAXX  27014 94213 11979 01318 10215 20028 39980 40218 60004 70100 333 70000;","","","","","","","","","",""
"94213099999","2005-06-27T15:00:00","-17.0166666","128.2166666","205.0","WARMUN, AS","FM-12","4","","37","78","","","","","23","CLR:00","30.01","29.31","18.64","57","130","","19","","","","","","","","","","","","","","","","","","","","","","","","","","","","","","","","","","","","","","","","","","","","","","","","","","","","","","","","","","","","","","","","","","","","","","","","","","","","","","","","","","","","","","","","","","","SYN066AAXX  27074 94213 11980 01317 10255 20028 39926 40163 60001 70200;","","","","","","","","","",""
"94213099999","2005-06-28T06:00:00","-17.0166666","128.2166666","205.0","WARMUN, AS","FM-12","4","","39","60","","","","","47","CLR:00","30.12","29.42","12.43","50","130","","6","","","","","","","","","","","","","","","","","","","","","","","","","","","","","","","","","","","","","","","","","","","","","","","","","","","","","","","","","","","","","","","","","","","","","","","","","","","","","","","","","","","","","","","","","","","SYN060AAXX  27224 94213 41970 01305 10153 20039 39964 40201 70200;","","","","","","","","","",""
"94213099999","2005-06-28T09:00:00","-17.0166666","128.2166666","205.0","WARMUN, AS","FM-12","4","","39","69","","","","","34","CLR:00","30.15","29.45","15.53","54","110","","23","","","","","","","","","","","","","","","","","","","","","","","","","","","","","","","","","","","","","","","","","","","","","","","","","","","","","","","","","","","","","","","","","","","","","","","","","","","","","","","","","","","","","","","","","","","SYN076AAXX  28014 94213 11975 01120 10205 20039 39973 40211 60004 70200 333 70000;","","","","","","","","","",""
"94213099999","2005-06-28T15:00:00","-17.0166666","128.2166666","205.0","WARMUN, AS","FM-12","4","","43","76","","","","","31","CLR:00","30.02","29.32","18.64","58","110","","9","","","","","","","","","","","","","","","","","","","","","","","","","","","","","","","","","","","","","","","","","","","","","","","","","","","","","","","","","","","","","","","","","","","","","","","","","","","","","","","","","","","","","","","","","","","SYN066AAXX  28074 94213 11980 01108 10245 20061 39928 40165 60001 70200;","","","","","","","","","",""
"94213099999","2005-06-29T06:00:00","-17.0166666","128.2166666","205.0","WARMUN, AS","FM-12","4","","37","59","","","","","44","","30.10","29.40","16.16","48","130","","8","","","","","","","","","","","","","","","","","","","","","","","","","","","","","","","","","","","","","","","","","","","","","","","","","","","","","","","","","","","","","","","","","","","","","","","","","","","","","","","","","","","","","","","","","","","SYN066AAXX  28224 94213 41/76 11307 10150 20028 39956 40193 70200 81070;","","","","","","","","","",""
"94213099999","2005-06-29T09:00:00","-17.0166666","128.2166666","205.0","WARMUN, AS","FM-12","4","","37","66","","","","","35","CLR:00","30.12","29.42","16.16","52","130","","10","","","","","","","","","","","","","","","","","","","","","","","","","","","","","","","","","","","","","","","","","","","","","","","","","","","","","","","","","","","","","","","","","","","","","","","","","","","","","","","","","","","","","","","","","","","SYN076AAXX  29014 94213 11976 01309 10190 20030 39964 40201 60004 70100 333 70000;","","","","","","","","","",""
"94213099999","2005-06-29T15:00:00","-17.0166666","128.2166666","205.0","WARMUN, AS","FM-12","4","","37","76","","","","","25","CLR:00","29.98","29.28","17.40","56","090","","5","","","","","","","","","","","","","","","","","","","","","","","","","","","","","","","","","","","","","","","","","","","","","","","","","","","","","","","","","","","","","","","","","","","","","","","","","","","","","","","","","","","","","","","","","","","SYN066AAXX  29074 94213 11978 00904 10245 20030 39915 40151 60001 70200;","","","","","","","","","",""
"94213099999","2005-06-30T06:00:00","-17.0166666","128.2166666","205.0","WARMUN, AS","FM-12","4","","35","44","","","","","70","","30.07","29.37","11.18","40","000","","0","","","","","","","","","","","","","","","","","","","","","","","","","","","","","","","","","","","","","","","","","","","","","","","","","","","","","","","","","","","","","","","","","","","","","","","","","","","","","","","","","","","","","","","","","","","SYN066AAXX  29224 94213 41/68 10000 10067 20015 39945 40182 70300 80008;","","","","","","","","","",""
"94213099999","2005-06-30T09:00:00","-17.0166666","128.2166666","205.0","WARMUN, AS","FM-12","4","","35","70","","","","","28","","30.09","29.39","18.02","53","110","","15","","","","","","","","","","","","","","","","","","","","","","","","","","","","","","","","","","","","","","","","","","","","","","","","","","","","","","","","","","","","","","","","","","","","","","","","","","","","","","","","","","","","","","","","","","","SYN082AAXX  30014 94213 11/79 11113 10210 20015 39952 40189 60004 70200 80008 333 70000;","","","","","","","","","",""
"94213099999","2005-06-30T15:00:00","-17.0166666","128.2166666","205.0","WARMUN, AS","FM-12","4","","38","78","","","","","24","","29.94","29.24","18.64","57","090","","5","","","","","","","","","","","","","","","","","","","","","","","","","","","","","","","","","","","","","","","","","","","","","","","","","","","","","","","","","","","","","","","","","","","","","","","","","","","","","","","","","","","","","","","","","","","SYN072AAXX  30074 94213 11/80 10904 10255 20032 39902 40138 60001 70200 80008;","","","","","","","","","",""
"94213099999","2005-07-01T06:00:00","-17.0166666","128.2166666","205.0","WARMUN, AS","FM-12","4","","34","52","","","","","50","CLR:00","30.06","29.35","17.40","44","180","","2","","","","","","","","","","","","","","","","","","","","","","","","","","","","","","","","","","","","","","","","","","","","","","","","","","","","","","","","","","","","","","","","","","","","","","","","","","","","","","","","","","","","","","","","","","","SYN060AAXX  30224 94213 41978 01802 10111 20011 39940 40178 70100;","","","","","","","","","",""
"94213099999","2005-07-01T09:00:00","-17.0166666","128.2166666","205.0","WARMUN, AS","FM-12","4","","40","72","","","","","30","CLR:00","30.12","29.42","18.02","55","130","","1","","","","","","","","","","","","","","","","","","","","","","","","","","","","","","","","","","","","","","","","","","","","","","","","","","","","","","","","","","","","","","","","","","","","","","","","","","","","","","","","","","","","","","","","","","","SYN076AAXX  01014 94213 11979 01301 10225 20042 39962 40200 60004 70200 333 70000;","","","","","","","","","",""
"94213099999","2005-07-01T15:00:00","-17.0166666","128.2166666","205.0","WARMUN, AS","FM-12","4","","35","82","","","","","18","CLR:00","29.99","29.29","18.02","57","160","","3","","","","","","","","","","","","","","","","","","","","","","","","","","","","","","","","","","","","","","","","","","","","","","","","","","","","","","","","","","","","","","","","","","","","","","","","","","","","","","","","","","","","","","","","","","","SYN066AAXX  01074 94213 11979 01603 10280 20018 39918 40155 60001 70200;","","","","","","","","","",""
"94213099999","2005-07-02T06:00:00","-17.0166666","128.2166666","205.0","WARMUN, AS","FM-12","4","","40","57","","","","","52","CLR:00","30.09","29.39","16.16","49","130","","1","","","","","","","","","","","","","","","","","","","","","","","","","","","","","","","","","","","","","","","","","","","","","","","","","","","","","","","","","","","","","","","","","","","","","","","","","","","","","","","","","","","","","","","","","","","SYN060AAXX  01224 94213 41976 01301 10140 20043 39952 40190 70200;","","","","","","","","","",""
"94213099999","2005-07-02T09:00:00","-17.0166666","128.2166666","205.0","WARMUN, AS","FM-12","4","","40","76","","","","","28","CLR:00","30.14","29.43","18.64","57","130","","3","","","","","","","","","","","","","","","","","","","","","","","","","","","","","","","","","","","","","","","","","","","","","","","","","","","","","","","","","","","","","","","","","","","","","","","","","","","","","","","","","","","","","","","","","","","SYN076AAXX  02014 94213 11980 01303 10245 20046 39967 40205 60004 70200 333 70000;","","","","","","","","","",""
"94213099999","2005-07-02T15:00:00","-17.0166666","128.2166666","205.0","WARMUN, AS","FM-12","4","","34","82","","","","","17","CLR:00","30.02","29.32","18.64","57","130","","5","","","","","","","","","","","","","","","","","","","","","","","","","","","","","","","","","","","","","","","","","","","","","","","","","","","","","","","","","","","","","","","","","","","","","","","","","","","","","","","","","","","","","","","","","","","SYN066AAXX  02074 94213 11980 01304 10280 20011 39928 40165 60001 70200;","","","","","","","","","",""
"94213099999","2005-07-03T06:00:00","-17.0166666","128.2166666","205.0","WARMUN, AS","FM-12","4","","37","63","","","","","38","CLR:00","30.11","29.40","15.53","50","110","","11","","","","","","","","","","","","","","","","","","","","","","","","","","","","","","","","","","","","","","","","","","","","","","","","","","","","","","","","","","","","","","","","","","","","","","","","","","","","","","","","","","","","","","","","","","","SYN060AAXX  02224 94213 41975 01110 10175 20030 39957 40195 70200;","","","","","","","","","",""
"94213099999","2005-07-03T09:00:00","-17.0166666","128.2166666","205.0","WARMUN, AS","FM-12","4","","38","70","","","","","31","CLR:00","30.13","29.43","16.16","54","070","","11","","","","","","","","","","","","","","","","","","","","","","","","","","","","","","","","","","","","","","","","","","","","","","","","","","","","","","","","","","","","","","","","","","","","","","","","","","","","","","","","","","","","","","","","","","","SYN076AAXX  03014 94213 11976 00710 10211 20034 39965 40203 60004 70200 333 70000;","","","","","","","","","",""
"94213099999","2005-07-03T15:00:00","-17.0166666","128.2166666","205.0","WARMUN, AS","FM-12","4","","44","80","","","","","28","CLR:00","29.96","29.26","18.64","60","000","","0","","","","","","","","","","","","","","","","","","","","","","","","","","","","","","","","","","","","","","","","","","","","","","","","","","","","","","","","","","","","","","","","","","","","","","","","","","","","","","","","","","","","","","","","","","","SYN066AAXX  03074 94213 11980 00000 10267 20066 39909 40146 60001 70200;","","","","","","","","","",""
"94213099999","2005-07-04T06:00:00","-17.0166666","128.2166666","205.0","WARMUN, AS","FM-12","4","","39","49","","","","","68","CLR:00","30.02","29.32","14.91","44","000","","0","","","","","","","","","","","","","","","","","","","","","","","","","","","","","","","","","","","","","","","","","","","","","","","","","","","","","","","","","","","","","","","","","","","","","","","","","","","","","","","","","","","","","","","","","","","SYN060AAXX  03224 94213 41974 00000 10095 20038 39928 40165 70200;","","","","","","","","","",""
"94213099999","2005-07-04T09:00:00","-17.0166666","128.2166666","205.0","WARMUN, AS","FM-12","4","","39","72","","","","","30","CLR:00","30.05","29.35","17.40","55","020","","3","","","","","","","","","","","","","","","","","","","","","","","","","","","","","","","","","","","","","","","","","","","","","","","","","","","","","","","","","","","","","","","","","","","","","","","","","","","","","","","","","","","","","","","","","","","SYN076AAXX  04014 94213 11978 00203 10225 20039 39939 40177 60004 70200 333 70000;","","","","","","","","","",""
"94213099999","2005-07-04T15:00:00","-17.0166666","128.2166666","205.0","WARMUN, AS","FM-12","4","","41","85","","","","","21","","29.89","29.19","18.64","61","110","","1","","","","","","","","","","","","","","","","","","","","","","","","","","","","","","","","","","","","","","","","","","","","","","","","","","","","","","","","","","","","","","","","","","","","","","","","","","","","","","","","","","","","","","","","","","","SYN066AAXX  04074 94213 11/80 21101 10295 20049 39885 40121 60001 70300;","","","","","","","","","",""
"94213099999","2005-07-05T06:00:00","-17.0166666","128.2166666","205.0","WARMUN, AS","FM-12","4","","40","61","","","","","46","","29.96","29.26","14.91","51","180","","2","","","","","","","","","","","","","","","","","","","","","","","","","","","","","","","","","","","","","","","","","","","","","","","","","","","","","","","","","","","","","","","","","","","","","","","","","","","","","","","","","","","","","","","","","","","SYN066AAXX  04224 94213 41/74 11802 10160 20043 39908 40145 70200 81040;","","","","","","","","","",""
"94213099999","2005-07-05T09:00:00","-17.0166666","128.2166666","205.0","WARMUN, AS","FM-12","4","","47","79","","","","","32","","30.01","29.31","16.16","61","050","","2","","","","","","","","","","","","","","","","","","","","","","","","","","","","","","","","","","","","","","","","","","","","","","","","","","","","","","","","","","","","","","","","","","","","","","","","","","","","","","","","","","","","","","","","","","","SYN082AAXX  05014 94213 11/76 10502 10260 20082 39926 40163 60004 70200 81040 333 70000;","","","","","","","","","",""
"94213099999","2005-07-05T15:00:00","-17.0166666","128.2166666","205.0","WARMUN, AS","FM-12","4","","41","89","","","","","19","CLR:00","29.87","29.18","17.40","62","050","","2","","","","","","","","","","","","","","","","","","","","","","","","","","","","","","","","","","","","","","","","","","","","","","","","","","","","","","","","","","","","","","","","","","","","","","","","","","","","","","","","","","","","","","","","","","","SYN066AAXX  05074 94213 11978 00502 10315 20049 39880 40116 60001 70200;","","","","","","","","","",""
"94213099999","2005-07-06T06:00:00","-17.0166666","128.2166666","205.0","WARMUN, AS","FM-12","4","","56","61","","","","","84","","29.96","29.26","12.43","58","000","","0","","","","","","","","","","","","","","","","","","","","","","","","","","","","","","","","","","","","","","","","","","","","","","","","","","","","","","","","","","","","","","","","","","","","","","","","","","","","","","","","","","","","","","","","","","","SYN066AAXX  05224 94213 41470 20000 10160 20133 39909 40146 70300 81180;","","","","","","","","","",""
"94213099999","2005-07-06T09:00:00","-17.0166666","128.2166666","205.0","WARMUN, AS","FM-12","4","","54","84","","","","","36","CLR:00","30.00","29.30","15.53","66","160","","6","","","","","","","","","","","","","","","","","","","","","","","","","","","","","","","","","","","","","","","","","","","","","","","","","","","","","","","","","","","","","","","","","","","","","","","","","","","","","","","","","","","","","","","","","","","SYN076AAXX  06014 94213 11975 01605 10290 20123 39921 40158 60004 70200 333 70000;","","","","","","","","","",""
"94213099999","2005-07-06T15:00:00","-17.0166666","128.2166666","205.0","WARMUN, AS","FM-12","4","","53","90","","","","","29","","29.88","29.18","18.64","67","020","","23","","","","","","","","","","","","","","","","","","","","","","","","","","","","","","","","","","","","","","","","","","","","","","","","","","","","","","","","","","","","","","","","","","","","","","","","","","","","","","","","","","","","","","","","","","","SYN072AAXX  06074 94213 11/80 20220 10320 20116 39883 40119 60001 70300 81058;","","","","","","","","","",""
"94213099999","2005-07-07T06:00:00","-17.0166666","128.2166666","205.0","WARMUN, AS","FM-12","4","","60","68","","","","","74","","29.94","29.24","16.16","63","270","","1","","","","","","","","","","","","","","","","","","","","","","","","","","","","","","","","","","","","","","","","","","","","","","","","","","","","","","","","","","","","","","","","","","","","","","","","","","","","","","","","","","","","","","","","","","","SYN066AAXX  06224 94213 41/76 62701 10200 20153 39903 40140 70311 82058;","","","","","","","","","",""
"94213099999","2005-07-07T09:00:00","-17.0166666","128.2166666","205.0","WARMUN, AS","FM-12","4","","60","85","","","","","43","","30.00","29.30","16.78","69","020","","2","","","","","","","","","","","","","","","","","","","","","","","","","","","","","","","","","","","","","","","","","","","","","","","","","","","","","","","","","","","","","","","","","","","","","","","","","","","","","","","","","","","","","","","","","","","SYN082AAXX  07014 94213 11/77 80202 10295 20158 39921 40158 60004 70322 88080 333 70000;","","","","","","","","","",""
"94213099999","2005-07-07T15:00:00","-17.0166666","128.2166666","205.0","WARMUN, AS","FM-12","4","","62","90","","","","","40","","29.88","29.18","16.78","72","310","","1","","","","","","","","","","","","","","","","","","","","","","","","","","","","","","","","","","","","","","","","","","","","","","","","","","","","","","","","","","","","","","","","","","","","","","","","","","","","","","","","","","","","","","","","","","","SYN072AAXX  07074 94213 11777 73101 10323 20169 39883 40119 60001 70222 83280;","","","","","","","","","",""
"94213099999","2005-07-08T06:00:00","-17.0166666","128.2166666","205.0","WARMUN, AS","FM-12","4","","55","69","","","","","61","","30.00","29.30","14.91","61","230","","2","","","","","","","","","","","","","","","","","","","","","","","","","","","","","","","","","","","","","","","","","","","","","","","","","","","","","","","","","","","","","","","","","","","","","","","","","","","","","","","","","","","","","","","","","","","SYN066AAXX  07224 94213 41/74 32302 10205 20126 39923 40160 70100 80001;","","","","","","","","","",""
"94213099999","2005-07-08T09:00:00","-17.0166666","128.2166666","205.0","WARMUN, AS","FM-12","4","","56","76","","","","","49","","30.06","29.35","17.40","64","130","","3","","","","","","","","","","","","","","","","","","","","","","","","","","","","","","","","","","","","","","","","","","","","","","","","","","","","","","","","","","","","","","","","","","","","","","","","","","","","","","","","","","","","","","","","","","","SYN082AAXX  08014 94213 11/78 21303 10246 20133 39940 40178 60004 70100 80001 333 70000;","","","","","","","","","",""
"94213099999","2005-07-08T15:00:00","-17.0166666","128.2166666","205.0","WARMUN, AS","FM-12","4","","57","85","","","","","38","","29.91","29.21","18.64","67","130","","3","","","","","","","","","","","","","","","","","","","","","","","","","","","","","","","","","","","","","","","","","","","","","","","","","","","","","","","","","","","","","","","","","","","","","","","","","","","","","","","","","","","","","","","","","","","SYN072AAXX  08074 94213 11780 61303 10295 20137 39892 40128 60001 70311 83140;","","","","","","","","","",""
"94213099999","2005-07-09T06:00:00","-17.0166666","128.2166666","205.0","WARMUN, AS","FM-12","4","","58","67","","","","","72","","30.00","29.30","13.67","62","000","","0","","","","","","","","","","","","","","","","","","","","","","","","","","","","","","","","","","","","","","","","","","","","","","","","","","","","","","","","","","","","","","","","","","","","","","","","","","","","","","","","","","","","","","","","","","","SYN066AAXX  08224 94213 41/72 40000 10195 20143 39922 40159 70100 80001;","","","","","","","","","",""
"94213099999","2005-07-09T09:00:00","-17.0166666","128.2166666","205.0","WARMUN, AS","FM-12","4","","56","81","","","","","41","","30.04","29.34","14.91","66","050","","5","","","","","","","","","","","","","","","","","","","","","","","","","","","","","","","","","","","","","","","","","","","","","","","","","","","","","","","","","","","","","","","","","","","","","","","","","","","","","","","","","","","","","","","","","","","SYN082AAXX  09014 94213 11/74 10504 10275 20131 39936 40173 60004 70100 80001 333 70000;","","","","","","","","","",""
"94213099999","2005-07-09T15:00:00","-17.0166666","128.2166666","205.0","WARMUN, AS","FM-12","4","","62","91","","","","","37","","29.93","29.23","17.40","72","090","","3","","","","","","","","","","","","","","","","","","","","","","","","","","","","","","","","","","","","","","","","","","","","","","","","","","","","","","","","","","","","","","","","","","","","","","","","","","","","","","","","","","","","","","","","","","","SYN072AAXX  09074 94213 11878 40903 10330 20164 39898 40135 60001 70300 83180;","","","","","","","","","",""
"94213099999","2005-07-10T06:00:00","-17.0166666","128.2166666","205.0","WARMUN, AS","FM-12","4","","58","69","","","","","69","","30.05","29.35","13.67","62","130","","1","","","","","","","","","","","","","","","","","","","","","","","","","","","","","","","","","","","","","","","","","","","","","","","","","","","","","","","","","","","","","","","","","","","","","","","","","","","","","","","","","","","","","","","","","","","SYN066AAXX  09224 94213 41/72 11301 10205 20145 39939 40177 70100 80001;","","","","","","","","","",""
"94213099999","2005-07-10T09:00:00","-17.0166666","128.2166666","205.0","WARMUN, AS","FM-12","4","","51","77","","","","","41","CLR:00","30.09","29.39","18.64","62","130","","6","","","","","","","","","","","","","","","","","","","","","","","","","","","","","","","","","","","","","","","","","","","","","","","","","","","","","","","","","","","","","","","","","","","","","","","","","","","","","","","","","","","","","","","","","","","SYN076AAXX  10014 94213 11980 01305 10250 20108 39951 40189 60004 70100 333 70000;","","","","","","","","","",""
"94213099999","2005-07-10T15:00:00","-17.0166666","128.2166666","205.0","WARMUN, AS","FM-12","4","","49","86","","","","","28","CLR:00","29.94","29.24","18.64","64","050","","3","","","","","","","","","","","","","","","","","","","","","","","","","","","","","","","","","","","","","","","","","","","","","","","","","","","","","","","","","","","","","","","","","","","","","","","","","","","","","","","","","","","","","","","","","","","SYN066AAXX  10074 94213 11980 00503 10300 20096 39903 40140 60001 70200;","","","","","","","","","",""
"94213099999","2005-07-11T06:00:00","-17.0166666","128.2166666","205.0","WARMUN, AS","FM-12","4","","44","55","","","","","67","","30.07","29.37","15.53","49","000","","0","","","","","","","","","","","","","","","","","","","","","","","","","","","","","","","","","","","","","","","","","","","","","","","","","","","","","","","","","","","","","","","","","","","","","","","","","","","","","","","","","","","","","","","","","","","SYN066AAXX  10224 94213 41/75 10000 10127 20067 39945 40183 70100 81040;","","","","","","","","","",""
"94213099999","2005-07-11T09:00:00","-17.0166666","128.2166666","205.0","WARMUN, AS","FM-12","4","","35","72","","","","","26","","30.11","29.41","16.16","53","110","","11","","","","","","","","","","","","","","","","","","","","","","","","","","","","","","","","","","","","","","","","","","","","","","","","","","","","","","","","","","","","","","","","","","","","","","","","","","","","","","","","","","","","","","","","","","","SYN082AAXX  11014 94213 11/76 11110 10225 20019 39959 40197 60004 70100 80008 333 70000;","","","","","","","","","",""
"94213099999","2005-07-11T15:00:00","-17.0166666","128.2166666","205.0","WARMUN, AS","FM-12","4","","39","82","","","","","22","","29.95","29.25","17.40","59","020","","11","","","","","","","","","","","","","","","","","","","","","","","","","","","","","","","","","","","","","","","","","","","","","","","","","","","","","","","","","","","","","","","","","","","","","","","","","","","","","","","","","","","","","","","","","","","SYN072AAXX  11074 94213 11/78 10210 10277 20041 39904 40141 60001 70300 81080;","","","","","","","","","",""
"94213099999","2005-07-12T06:00:00","-17.0166666","128.2166666","205.0","WARMUN, AS","FM-12","4","","43","54","","","","","66","CLR:00","30.03","29.33","11.18","49","000","","0","","","","","","","","","","","","","","","","","","","","","","","","","","","","","","","","","","","","","","","","","","","","","","","","","","","","","","","","","","","","","","","","","","","","","","","","","","","","","","","","","","","","","","","","","","","SYN060AAXX  11224 94213 41968 00000 10125 20062 39932 40169 70200;","","","","","","","","","",""
"94213099999","2005-07-12T09:00:00","-17.0166666","128.2166666","205.0","WARMUN, AS","FM-12","4","","41","78","","","","","26","CLR:00","30.05","29.35","15.53","58","020","","6","","","","","","","","","","","","","","","","","","","","","","","","","","","","","","","","","","","","","","","","","","","","","","","","","","","","","","","","","","","","","","","","","","","","","","","","","","","","","","","","","","","","","","","","","","","SYN076AAXX  12014 94213 11975 00205 10255 20048 39939 40177 60004 70200 333 70000;","","","","","","","","","",""
"94213099999","2005-07-12T15:00:00","-17.0166666","128.2166666","205.0","WARMUN, AS","FM-12","4","","52","89","","","","","28","CLR:00","29.90","29.21","18.64","66","090","","3","","","","","","","","","","","","","","","","","","","","","","","","","","","","","","","","","","","","","","","","","","","","","","","","","","","","","","","","","","","","","","","","","","","","","","","","","","","","","","","","","","","","","","","","","","","SYN066AAXX  12074 94213 11980 00903 10316 20109 39890 40126 60001 70200;","","","","","","","","","",""
"94213099999","2005-07-13T06:00:00","-17.0166666","128.2166666","205.0","WARMUN, AS","FM-12","4","","51","59","","","","","74","CLR:00","29.96","29.26","15.53","55","000","","0","","","","","","","","","","","","","","","","","","","","","","","","","","","","","","","","","","","","","","","","","","","","","","","","","","","","","","","","","","","","","","","","","","","","","","","","","","","","","","","","","","","","","","","","","","","SYN060AAXX  12224 94213 41975 00000 10150 20103 39908 40145 70200;","","","","","","","","","",""
"94213099999","2005-07-13T09:00:00","-17.0166666","128.2166666","205.0","WARMUN, AS","FM-12","4","","53","83","","","","","36","CLR:00","29.98","29.28","17.40","65","020","","1","","","","","","","","","","","","","","","","","","","","","","","","","","","","","","","","","","","","","","","","","","","","","","","","","","","","","","","","","","","","","","","","","","","","","","","","","","","","","","","","","","","","","","","","","","","SYN076AAXX  13014 94213 11978 00201 10281 20117 39915 40152 60004 70200 333 70000;","","","","","","","","","",""
"94213099999","2005-07-13T15:00:00","-17.0166666","128.2166666","205.0","WARMUN, AS","FM-12","4","","51","93","","","","","24","CLR:00","29.85","29.15","17.40","67","090","","3","","","","","","","","","","","","","","","","","","","","","","","","","","","","","","","","","","","","","","","","","","","","","","","","","","","","","","","","","","","","","","","","","","","","","","","","","","","","","","","","","","","","","","","","","","","SYN066AAXX  13074 94213 11978 00903 10337 20103 39872 40108 60001 70200;","","","","","","","","","",""
"94213099999","2005-07-14T06:00:00","-17.0166666","128.2166666","205.0","WARMUN, AS","FM-12","4","","61","69","","","","","76","","29.99","29.29","14.91","64","180","","1","","","","","","","","","","","","","","","","","","","","","","","","","","","","","","","","","","","","","","","","","","","","","","","","","","","","","","","","","","","","","","","","","","","","","","","","","","","","","","","","","","","","","","","","","","","SYN066AAXX  13224 94213 41/74 31801 10206 20163 39920 40157 70300 83040;","","","","","","","","","",""
"94213099999","2005-07-14T09:00:00","-17.0166666","128.2166666","205.0","WARMUN, AS","FM-12","4","","60","83","","","","","45","","30.03","29.33","17.40","68","230","","2","","","","","","","","","","","","","","","","","","","","","","","","","","","","","","","","","","","","","","","","","","","","","","","","","","","","","","","","","","","","","","","","","","","","","","","","","","","","","","","","","","","","","","","","","","","SYN082AAXX  14014 94213 11/78 22302 10285 20155 39932 40169 60004 70100 82040 333 70000;","","","","","","","","","",""
"94213099999","2005-07-14T15:00:00","-17.0166666","128.2166666","205.0","WARMUN, AS","FM-12","4","","58","89","","","","","35","","29.93","29.23","18.64","69","130","","3","","","","","","","","","","","","","","","","","","","","","","","","","","","","","","","","","","","","","","","","","","","","","","","","","","","","","","","","","","","","","","","","","","","","","","","","","","","","","","","","","","","","","","","","","","","SYN072AAXX  14074 94213 11/80 21303 10315 20143 39898 40135 60001 70200 82040;","","","","","","","","","",""
"94213099999","2005-07-15T06:00:00","-17.0166666","128.2166666","205.0","WARMUN, AS","FM-12","4","","49","63","","","","","61","","30.05","29.35","15.53","55","000","","0","","","","","","","","","","","","","","","","","","","","","","","","","","","","","","","","","","","","","","","","","","","","","","","","","","","","","","","","","","","","","","","","","","","","","","","","","","","","","","","","","","","","","","","","","","","SYN066AAXX  14224 94213 41/75 40000 10170 20094 39938 40176 70100 81088;","","","","","","","","","",""
"94213099999","2005-07-15T09:00:00","-17.0166666","128.2166666","205.0","WARMUN, AS","FM-12","4","","32","","","","","","","CLR:00","30.03","29.33","16.16","","000","","0","","","","","","","","","","","","","","","","","","","","","","","","","","","","","","","","","","","","","","","","","","","","","","","","","","","","","","","","","","","","","","","","","","","","","","","","","","","","","","","","","","","","","","","","","","","SYN076AAXX  15014 94213 11976 00000 10000 20000 39933 40170 60004 70100 333 70000;","","","","","","","","","",""
"94213099999","2005-07-15T15:00:00","-17.0166666","128.2166666","205.0","WARMUN, AS","FM-12","4","","45","87","","","","","23","","29.94","29.24","18.02","63","020","","5","","","","","","","","","","","","","","","","","","","","","","","","","","","","","","","","","","","","","","","","","","","","","","","","","","","","","","","","","","","","","","","","","","","","","","","","","","","","","","","","","","","","","","","","","","","SYN072AAXX  15074 94213 11/79 10204 10305 20071 39901 40138 60001 70100 80002;","","","","","","","","","",""
"94213099999","2005-07-16T06:00:00","-17.0166666","128.2166666","205.0","WARMUN, AS","FM-12","4","","35","62","","","","","36","CLR:00","29.98","29.28","16.16","49","180","","3","","","","","","","","","","","","","","","","","","","","","","","","","","","","","","","","","","","","","","","","","","","","","","","","","","","","","","","","","","","","","","","","","","","","","","","","","","","","","","","","","","","","","","","","","","","SYN060AAXX  15224 94213 41976 01803 10168 20016 39917 40154 70000;","","","","","","","","","",""
"94213099999","2005-07-16T09:00:00","-17.0166666","128.2166666","205.0","WARMUN, AS","FM-12","4","","43","77","","","","","30","CLR:00","30.02","29.32","17.40","58","110","","2","","","","","","","","","","","","","","","","","","","","","","","","","","","","","","","","","","","","","","","","","","","","","","","","","","","","","","","","","","","","","","","","","","","","","","","","","","","","","","","","","","","","","","","","","","","SYN076AAXX  16014 94213 11978 01102 10249 20059 39929 40166 60004 70200 333 70000;","","","","","","","","","",""
"94213099999","2005-07-16T15:00:00","-17.0166666","128.2166666","205.0","WARMUN, AS","FM-12","4","","47","89","","","","","24","CLR:00","29.88","29.19","17.40","64","180","","1","","","","","","","","","","","","","","","","","","","","","","","","","","","","","","","","","","","","","","","","","","","","","","","","","","","","","","","","","","","","","","","","","","","","","","","","","","","","","","","","","","","","","","","","","","","SYN066AAXX  16074 94213 11978 01801 10315 20084 39884 40120 60001 70200;","","","","","","","","","",""
"94213099999","2005-07-17T06:00:00","-17.0166666","128.2166666","205.0","WARMUN, AS","FM-12","4","","43","56","","","","","62","","30.00","29.30","12.43","49","000","","0","","","","","","","","","","","","","","","","","","","","","","","","","","","","","","","","","","","","","","","","","","","","","","","","","","","","","","","","","","","","","","","","","","","","","","","","","","","","","","","","","","","","","","","","","","","SYN060AAXX  16224 94213 41/70 /0000 10135 20062 39922 40159 70200;","","","","","","","","","",""
"94213099999","2005-07-17T09:00:00","-17.0166666","128.2166666","205.0","WARMUN, AS","FM-12","4","","38","78","","","","","24","","30.05","29.35","16.16","57","050","","3","","","","","","","","","","","","","","","","","","","","","","","","","","","","","","","","","","","","","","","","","","","","","","","","","","","","","","","","","","","","","","","","","","","","","","","","","","","","","","","","","","","","","","","","","","","SYN076AAXX  17014 94213 11/76 /0503 10255 20032 39939 40177 60004 70200 333 70000;","","","","","","","","","",""
"94213099999","2005-07-17T15:00:00","-17.0166666","128.2166666","205.0","WARMUN, AS","FM-12","4","","41","89","","","","","19","","29.90","29.20","18.02","62","310","","1","","","","","","","","","","","","","","","","","","","","","","","","","","","","","","","","","","","","","","","","","","","","","","","","","","","","","","","","","","","","","","","","","","","","","","","","","","","","","","","","","","","","","","","","","","","SYN066AAXX  17074 94213 11/79 /3101 10315 20049 39889 40125 60001 70200;","","","","","","","","","",""
"94213099999","2005-07-18T06:00:00","-17.0166666","128.2166666","205.0","WARMUN, AS","FM-12","4","","41","54","","","","","60","","30.04","29.34","12.43","48","000","","0","","","","","","","","","","","","","","","","","","","","","","","","","","","","","","","","","","","","","","","","","","","","","","","","","","","","","","","","","","","","","","","","","","","","","","","","","","","","","","","","","","","","","","","","","","","SYN066AAXX  17224 94213 41/70 10000 10125 20049 39935 40172 70300 80006;","","","","","","","","","",""
"94213099999","2005-07-18T09:00:00","-17.0166666","128.2166666","205.0","WARMUN, AS","FM-12","4","","35","78","","","","","21","CLR:00","30.09","29.39","15.53","56","090","","11","","","","","","","","","","","","","","","","","","","","","","","","","","","","","","","","","","","","","","","","","","","","","","","","","","","","","","","","","","","","","","","","","","","","","","","","","","","","","","","","","","","","","","","","","","","SYN076AAXX  18014 94213 11975 00910 10255 20014 39953 40191 60004 70000 333 70000;","","","","","","","","","",""
"94213099999","2005-07-18T15:00:00","-17.0166666","128.2166666","205.0","WARMUN, AS","FM-12","4","","36","88","","","","","16","CLR:00","29.95","29.25","18.64","60","050","","9","","","","","","","","","","","","","","","","","","","","","","","","","","","","","","","","","","","","","","","","","","","","","","","","","","","","","","","","","","","","","","","","","","","","","","","","","","","","","","","","","","","","","","","","","","","SYN066AAXX  18074 94213 11980 00508 10310 20020 39905 40142 60001 70200;","","","","","","","","","",""
"94213099999","2005-07-19T06:00:00","-17.0166666","128.2166666","205.0","WARMUN, AS","FM-12","4","","39","62","","","","","43","","30.13","29.43","15.53","51","090","","1","","","","","","","","","","","","","","","","","","","","","","","","","","","","","","","","","","","","","","","","","","","","","","","","","","","","","","","","","","","","","","","","","","","","","","","","","","","","","","","","","","","","","","","","","","","SYN066AAXX  18224 94213 41/75 20901 10164 20037 39966 40204 70300 80005;","","","","","","","","","",""
"94213099999","2005-07-19T09:00:00","-17.0166666","128.2166666","205.0","WARMUN, AS","FM-12","4","","35","73","","","","","25","CLR:00","30.18","29.47","16.78","54","050","","3","","","","","","","","","","","","","","","","","","","","","","","","","","","","","","","","","","","","","","","","","","","","","","","","","","","","","","","","","","","","","","","","","","","","","","","","","","","","","","","","","","","","","","","","","","","SYN076AAXX  19014 94213 11977 00503 10227 20016 39981 40220 60004 70100 333 70000;","","","","","","","","","",""
"94213099999","2005-07-19T15:00:00","-17.0166666","128.2166666","205.0","WARMUN, AS","FM-12","4","","32","83","","","","","16","CLR:00","30.01","29.31","17.40","57","090","","5","","","","","","","","","","","","","","","","","","","","","","","","","","","","","","","","","","","","","","","","","","","","","","","","","","","","","","","","","","","","","","","","","","","","","","","","","","","","","","","","","","","","","","","","","","","SYN066AAXX  19074 94213 11978 00904 10285 20002 39927 40164 60001 70000;","","","","","","","","","",""
"94213099999","2005-07-20T06:00:00","-17.0166666","128.2166666","205.0","WARMUN, AS","FM-12","4","","40","59","","","","","49","","30.15","29.45","14.91","50","130","","1","","","","","","","","","","","","","","","","","","","","","","","","","","","","","","","","","","","","","","","","","","","","","","","","","","","","","","","","","","","","","","","","","","","","","","","","","","","","","","","","","","","","","","","","","","","SYN066AAXX  19224 94213 41/74 21301 10150 20043 39972 40210 70300 82040;","","","","","","","","","",""
"94213099999","2005-07-20T09:00:00","-17.0166666","128.2166666","205.0","WARMUN, AS","FM-12","4","","36","69","","","","","30","","30.18","29.48","17.40","53","050","","2","","","","","","","","","","","","","","","","","","","","","","","","","","","","","","","","","","","","","","","","","","","","","","","","","","","","","","","","","","","","","","","","","","","","","","","","","","","","","","","","","","","","","","","","","","","SYN082AAXX  20014 94213 11/78 20502 10205 20023 39982 40221 60004 70200 82040 333 70000;","","","","","","","","","",""
"94213099999","2005-07-20T15:00:00","-17.0166666","128.2166666","205.0","WARMUN, AS","FM-12","4","","32","77","","","","","19","CLR:00","30.00","29.30","18.64","55","130","","6","","","","","","","","","","","","","","","","","","","","","","","","","","","","","","","","","","","","","","","","","","","","","","","","","","","","","","","","","","","","","","","","","","","","","","","","","","","","","","","","","","","","","","","","","","","SYN066AAXX  20074 94213 11980 01305 10252 21001 39923 40160 60001 70200;","","","","","","","","","",""
"94213099999","2005-07-21T06:00:00","-17.0166666","128.2166666","205.0","WARMUN, AS","FM-12","4","","35","55","","","","","45","","30.09","29.39","16.16","46","130","","1","","","","","","","","","","","","","","","","","","","","","","","","","","","","","","","","","","","","","","","","","","","","","","","","","","","","","","","","","","","","","","","","","","","","","","","","","","","","","","","","","","","","","","","","","","","SYN066AAXX  20224 94213 41/76 21301 10130 20014 39951 40189 70200 80008;","","","","","","","","","",""
"94213099999","2005-07-21T09:00:00","-17.0166666","128.2166666","205.0","WARMUN, AS","FM-12","4","","35","72","","","","","26","","30.11","29.41","17.40","53","050","","6","","","","","","","","","","","","","","","","","","","","","","","","","","","","","","","","","","","","","","","","","","","","","","","","","","","","","","","","","","","","","","","","","","","","","","","","","","","","","","","","","","","","","","","","","","","SYN082AAXX  21014 94213 11/78 20505 10220 20016 39958 40196 60004 70200 80008 333 70000;","","","","","","","","","",""
"94213099999","2005-07-21T15:00:00","-17.0166666","128.2166666","205.0","WARMUN, AS","FM-12","4","","43","82","","","","","25","CLR:00","29.95","29.25","18.64","60","230","","1","","","","","","","","","","","","","","","","","","","","","","","","","","","","","","","","","","","","","","","","","","","","","","","","","","","","","","","","","","","","","","","","","","","","","","","","","","","","","","","","","","","","","","","","","","","SYN066AAXX  21074 94213 11980 02301 10280 20062 39904 40141 60001 70100;","","","","","","","","","",""
"94213099999","2005-07-22T06:00:00","-17.0166666","128.2166666","205.0","WARMUN, AS","FM-12","4","","45","63","","","","","52","","30.03","29.34","12.43","54","000","","0","","","","","","","","","","","","","","","","","","","","","","","","","","","","","","","","","","","","","","","","","","","","","","","","","","","","","","","","","","","","","","","","","","","","","","","","","","","","","","","","","","","","","","","","","","","SYN066AAXX  21224 94213 41/70 20000 10170 20070 39934 40171 70300 81048;","","","","","","","","","",""
"94213099999","2005-07-22T09:00:00","-17.0166666","128.2166666","205.0","WARMUN, AS","FM-12","4","","46","78","","","","","32","CLR:00","30.06","29.35","15.53","60","070","","17","","","","","","","","","","","","","","","","","","","","","","","","","","","","","","","","","","","","","","","","","","","","","","","","","","","","","","","","","","","","","","","","","","","","","","","","","","","","","","","","","","","","","","","","","","","SYN076AAXX  22014 94213 11975 00715 10255 20077 39940 40178 60004 70100 333 70000;","","","","","","","","","",""
"94213099999","2005-07-22T15:00:00","-17.0166666","128.2166666","205.0","WARMUN, AS","FM-12","4","","49","86","","","","","27","","29.92","29.22","18.64","64","090","","6","","","","","","","","","","","","","","","","","","","","","","","","","","","","","","","","","","","","","","","","","","","","","","","","","","","","","","","","","","","","","","","","","","","","","","","","","","","","","","","","","","","","","","","","","","","SYN072AAXX  22074 94213 11880 40905 10302 20094 39896 40132 60001 70300 82180;","","","","","","","","","",""
"94213099999","2005-07-23T06:00:00","-17.0166666","128.2166666","205.0","WARMUN, AS","FM-12","4","","47","66","","","","","50","","30.00","29.30","15.53","56","180","","1","","","","","","","","","","","","","","","","","","","","","","","","","","","","","","","","","","","","","","","","","","","","","","","","","","","","","","","","","","","","","","","","","","","","","","","","","","","","","","","","","","","","","","","","","","","SYN066AAXX  22224 94213 41/75 31801 10190 20084 39922 40159 70100 82084;","","","","","","","","","",""
"94213099999","2005-07-23T09:00:00","-17.0166666","128.2166666","205.0","WARMUN, AS","FM-12","4","","47","81","","","","","30","","30.03","29.33","17.40","62","180","","1","","","","","","","","","","","","","","","","","","","","","","","","","","","","","","","","","","","","","","","","","","","","","","","","","","","","","","","","","","","","","","","","","","","","","","","","","","","","","","","","","","","","","","","","","","","SYN082AAXX  23014 94213 11/78 11801 10275 20082 39932 40169 60004 70100 81080 333 70000;","","","","","","","","","",""
"94213099999","2005-07-23T15:00:00","-17.0166666","128.2166666","205.0","WARMUN, AS","FM-12","4","","51","89","","","","","28","","29.89","29.20","18.64","66","110","","2","","","","","","","","","","","","","","","","","","","","","","","","","","","","","","","","","","","","","","","","","","","","","","","","","","","","","","","","","","","","","","","","","","","","","","","","","","","","","","","","","","","","","","","","","","","SYN072AAXX  23074 94213 11/80 21102 10315 20108 39887 40123 60001 70300 82080;","","","","","","","","","",""
"94213099999","2005-07-24T06:00:00","-17.0166666","128.2166666","205.0","WARMUN, AS","FM-12","4","","49","77","","","","","38","","29.97","29.27","14.91","61","000","","0","","","","","","","","","","","","","","","","","","","","","","","","","","","","","","","","","","","","","","","","","","","","","","","","","","","","","","","","","","","","","","","","","","","","","","","","","","","","","","","","","","","","","","","","","","","SYN066AAXX  23224 94213 41/74 80000 10250 20096 39913 40150 70322 88030;","","","","","","","","","",""
"94213099999","2005-07-24T09:00:00","-17.0166666","128.2166666","205.0","WARMUN, AS","FM-12","4","","44","84","","","","","24","","30.00","29.30","16.16","61","130","","8","","","","","","","","","","","","","","","","","","","","","","","","","","","","","","","","","","","","","","","","","","","","","","","","","","","","","","","","","","","","","","","","","","","","","","","","","","","","","","","","","","","","","","","","","","","SYN082AAXX  24014 94213 11/76 11307 10290 20065 39923 40160 60004 70100 80001 333 70000;","","","","","","","","","",""
"94213099999","2005-07-24T15:00:00","-17.0166666","128.2166666","205.0","WARMUN, AS","FM-12","4","","43","90","","","","","20","","29.91","29.21","18.64","63","090","","5","","","","","","","","","","","","","","","","","","","","","","","","","","","","","","","","","","","","","","","","","","","","","","","","","","","","","","","","","","","","","","","","","","","","","","","","","","","","","","","","","","","","","","","","","","","SYN072AAXX  24074 94213 11/80 10904 10320 20060 39891 40127 60001 70200 80001;","","","","","","","","","",""
"94213099999","2005-07-25T06:00:00","-17.0166666","128.2166666","205.0","WARMUN, AS","FM-12","4","","41","74","","","","","31","","30.03","29.33","15.53","56","130","","16","","","","","","","","","","","","","","","","","","","","","","","","","","","","","","","","","","","","","","","","","","","","","","","","","","","","","","","","","","","","","","","","","","","","","","","","","","","","","","","","","","","","","","","","","","","SYN066AAXX  24224 94213 41/75 61314 10231 20049 39932 40169 70311 86038;","","","","","","","","","",""
"94213099999","2005-07-25T09:00:00","-17.0166666","128.2166666","205.0","WARMUN, AS","FM-12","4","","39","80","","","","","23","CLR:00","30.09","29.39","17.40","58","110","","11","","","","","","","","","","","","","","","","","","","","","","","","","","","","","","","","","","","","","","","","","","","","","","","","","","","","","","","","","","","","","","","","","","","","","","","","","","","","","","","","","","","","","","","","","","","SYN076AAXX  25014 94213 11978 01110 10268 20037 39953 40191 60004 70111 333 70000;","","","","","","","","","",""
"94213099999","2005-07-25T15:00:00","-17.0166666","128.2166666","205.0","WARMUN, AS","FM-12","4","","42","85","","","","","22","CLR:00","29.95","29.25","18.64","61","090","","6","","","","","","","","","","","","","","","","","","","","","","","","","","","","","","","","","","","","","","","","","","","","","","","","","","","","","","","","","","","","","","","","","","","","","","","","","","","","","","","","","","","","","","","","","","","SYN066AAXX  25074 94213 11980 00905 10296 20058 39905 40142 60001 70200;","","","","","","","","","",""
"94213099999","2005-07-26T06:00:00","-17.0166666","128.2166666","205.0","WARMUN, AS","FM-12","4","","42","65","","","","","43","","30.03","29.34","11.18","53","180","","6","","","","","","","","","","","","","","","","","","","","","","","","","","","","","","","","","","","","","","","","","","","","","","","","","","","","","","","","","","","","","","","","","","","","","","","","","","","","","","","","","","","","","","","","","","","SYN066AAXX  25224 94213 41/68 11805 10186 20056 39934 40171 70300 80008;","","","","","","","","","",""
"94213099999","2005-07-26T09:00:00","-17.0166666","128.2166666","205.0","WARMUN, AS","FM-12","4","","40","78","","","","","26","CLR:00","30.07","29.37","17.40","58","090","","17","","","","","","","","","","","","","","","","","","","","","","","","","","","","","","","","","","","","","","","","","","","","","","","","","","","","","","","","","","","","","","","","","","","","","","","","","","","","","","","","","","","","","","","","","","","SYN076AAXX  26014 94213 11978 00915 10257 20045 39946 40184 60004 70100 333 70000;","","","","","","","","","",""
"94213099999","2005-07-26T15:00:00","-17.0166666","128.2166666","205.0","WARMUN, AS","FM-12","4","","41","84","","","","","22","CLR:00","29.95","29.25","18.64","60","050","","9","","","","","","","","","","","","","","","","","","","","","","","","","","","","","","","","","","","","","","","","","","","","","","","","","","","","","","","","","","","","","","","","","","","","","","","","","","","","","","","","","","","","","","","","","","","SYN066AAXX  26074 94213 11980 00508 10290 20049 39905 40142 60001 70200;","","","","","","","","","",""
"94213099999","2005-07-27T06:00:00","-17.0166666","128.2166666","205.0","WARMUN, AS","FM-12","4","","43","63","","","","","47","CLR:00","30.04","29.34","12.43","53","000","","0","","","","","","","","","","","","","","","","","","","","","","","","","","","","","","","","","","","","","","","","","","","","","","","","","","","","","","","","","","","","","","","","","","","","","","","","","","","","","","","","","","","","","","","","","","","SYN060AAXX  26224 94213 41970 00000 10175 20059 39936 40173 70200;","","","","","","","","","",""
"94213099999","2005-07-27T09:00:00","-17.0166666","128.2166666","205.0","WARMUN, AS","FM-12","4","","38","78","","","","","24","CLR:00","30.09","29.38","17.40","57","130","","6","","","","","","","","","","","","","","","","","","","","","","","","","","","","","","","","","","","","","","","","","","","","","","","","","","","","","","","","","","","","","","","","","","","","","","","","","","","","","","","","","","","","","","","","","","","SYN076AAXX  27014 94213 11978 01305 10255 20032 39950 40188 60004 70200 333 70000;","","","","","","","","","",""
"94213099999","2005-07-27T15:00:00","-17.0166666","128.2166666","205.0","WARMUN, AS","FM-12","4","","37","84","","","","","19","","29.93","29.23","18.64","59","130","","5","","","","","","","","","","","","","","","","","","","","","","","","","","","","","","","","","","","","","","","","","","","","","","","","","","","","","","","","","","","","","","","","","","","","","","","","","","","","","","","","","","","","","","","","","","","SYN072AAXX  27074 94213 11/80 21304 10287 20030 39898 40135 60001 70300 80001;","","","","","","","","","",""
"94213099999","2005-07-28T06:00:00","-17.0166666","128.2166666","205.0","WARMUN, AS","FM-12","4","","37","57","","","","","47","CLR:00","30.03","29.33","15.53","47","000","","0","","","","","","","","","","","","","","","","","","","","","","","","","","","","","","","","","","","","","","","","","","","","","","","","","","","","","","","","","","","","","","","","","","","","","","","","","","","","","","","","","","","","","","","","","","","SYN060AAXX  27224 94213 41975 00000 10140 20028 39932 40169 70000;","","","","","","","","","",""
"94213099999","2005-07-28T09:00:00","-17.0166666","128.2166666","205.0","WARMUN, AS","FM-12","4","","34","76","","","","","21","CLR:00","30.06","29.35","17.40","55","020","","7","","","","","","","","","","","","","","","","","","","","","","","","","","","","","","","","","","","","","","","","","","","","","","","","","","","","","","","","","","","","","","","","","","","","","","","","","","","","","","","","","","","","","","","","","","","SYN076AAXX  28014 94213 11978 00206 10246 20010 39940 40178 60004 70200 333 70000;","","","","","","","","","",""
"94213099999","2005-07-28T15:00:00","-17.0166666","128.2166666","205.0","WARMUN, AS","FM-12","4","","40","85","","","","","20","CLR:00","29.89","29.19","18.64","60","000","","0","","","","","","","","","","","","","","","","","","","","","","","","","","","","","","","","","","","","","","","","","","","","","","","","","","","","","","","","","","","","","","","","","","","","","","","","","","","","","","","","","","","","","","","","","","","SYN066AAXX  28074 94213 11980 00000 10295 20043 39885 40121 60001 70200;","","","","","","","","","",""
"94213099999","2005-07-29T06:00:00","-17.0166666","128.2166666","205.0","WARMUN, AS","FM-12","4","","38","56","","","","","53","CLR:00","29.98","29.28","15.53","47","000","","0","","","","","","","","","","","","","","","","","","","","","","","","","","","","","","","","","","","","","","","","","","","","","","","","","","","","","","","","","","","","","","","","","","","","","","","","","","","","","","","","","","","","","","","","","","","SYN060AAXX  28224 94213 41975 00000 10131 20036 39915 40152 70100;","","","","","","","","","",""
"94213099999","2005-07-29T09:00:00","-17.0166666","128.2166666","205.0","WARMUN, AS","FM-12","4","","37","78","","","","","22","CLR:00","30.01","29.31","16.16","57","050","","6","","","","","","","","","","","","","","","","","","","","","","","","","","","","","","","","","","","","","","","","","","","","","","","","","","","","","","","","","","","","","","","","","","","","","","","","","","","","","","","","","","","","","","","","","","","SYN076AAXX  29014 94213 11976 00505 10258 20027 39926 40163 60004 70200 333 70000;","","","","","","","","","",""
"94213099999","2005-07-29T15:00:00","-17.0166666","128.2166666","205.0","WARMUN, AS","FM-12","4","","36","87","","","","","16","CLR:00","29.85","29.15","18.64","60","000","","0","","","","","","","","","","","","","","","","","","","","","","","","","","","","","","","","","","","","","","","","","","","","","","","","","","","","","","","","","","","","","","","","","","","","","","","","","","","","","","","","","","","","","","","","","","","SYN066AAXX  29074 94213 11980 00000 10308 20020 39873 40109 60001 70200;","","","","","","","","","",""
"94213099999","2005-07-30T06:00:00","-17.0166666","128.2166666","205.0","WARMUN, AS","FM-12","4","","39","53","","","","","58","CLR:00","29.94","29.24","11.18","46","000","","0","","","","","","","","","","","","","","","","","","","","","","","","","","","","","","","","","","","","","","","","","","","","","","","","","","","","","","","","","","","","","","","","","","","","","","","","","","","","","","","","","","","","","","","","","","","SYN060AAXX  29224 94213 41968 00000 10118 20038 39902 40139 70200;","","","","","","","","","",""
"94213099999","2005-07-30T09:00:00","-17.0166666","128.2166666","205.0","WARMUN, AS","FM-12","4","","38","78","","","","","24","","29.97","29.27","15.53","57","360","","5","","","","","","","","","","","","","","","","","","","","","","","","","","","","","","","","","","","","","","","","","","","","","","","","","","","","","","","","","","","","","","","","","","","","","","","","","","","","","","","","","","","","","","","","","","","SYN082AAXX  30014 94213 11/75 13604 10256 20034 39913 40150 60004 70300 81080 333 70000;","","","","","","","","","",""
"94213099999","2005-07-30T15:00:00","-17.0166666","128.2166666","205.0","WARMUN, AS","FM-12","4","","40","89","","","","","18","CLR:00","29.85","29.15","18.64","62","310","","5","","","","","","","","","","","","","","","","","","","","","","","","","","","","","","","","","","","","","","","","","","","","","","","","","","","","","","","","","","","","","","","","","","","","","","","","","","","","","","","","","","","","","","","","","","","SYN066AAXX  30074 94213 11980 03104 10317 20047 39872 40108 60001 70100;","","","","","","","","","",""
"94213099999","2005-07-31T02:00:00","-17.0166666","128.2166666","205.0","WARMUN, AS","FM-12","4","","36","51","","","-0.04","2","57","","29.66","29.35","","44","130","41","28","","","","","","","","","","","","","","","","","","","","","","","","","","","","","","","","","","","","","","","","","","","","","","","","","","","","","","","","","","","","","","","","","","","","","","","","","","","","","","","","","","","","","","","","","","","SYN094AAXX  30184 94213 46/// /1324 10103 20021 39939 40044 52014 333 10145 20088 91147 91236 91036;","","","","","","","","","",""
"94213099999","2005-07-31T06:00:00","-17.0166666","128.2166666","205.0","WARMUN, AS","FM-12","4","","40","68","","","","","36","CLR:00","29.98s","29.28","13.67","54","130","","3","","","","","","","","","","","","","","","","","","","","","","","","","","","","","","","","","","","","","","","","","","","","","","","","","","","","","","","","","","","","","","","","","","","","","","","","","","","","","","","","","","","","","","","","","","","SYN060AAXX  30224 94213 41972 01303 10200 20046 39916 40153 70200;","","","","","","","","","",""
"94213099999","2005-07-31T09:00:00","-17.0166666","128.2166666","205.0","WARMUN, AS","FM-12","4","","40","81","","","","","23","CLR:00","30.03","29.33","16.16","59","130","","6","","","","","","","","","","","","","","","","","","","","","","","","","","","","","","","","","","","","","","","","","","","","","","","","","","","","","","","","","","","","","","","","","","","","","","","","","","","","","","","","","","","","","","","","","","","SYN076AAXX  31014 94213 11976 01305 10270 20044 39932 40169 60004 70200 333 70000;","","","","","","","","","",""
"94213099999","2005-07-31T15:00:00","-17.0166666","128.2166666","205.0","WARMUN, AS","FM-12","4","","30","89","","","","","12","CLR:00","29.91","29.21","18.64","59","130","","6","","","","","","","","","","","","","","","","","","","","","","","","","","","","","","","","","","","","","","","","","","","","","","","","","","","","","","","","","","","","","","","","","","","","","","","","","","","","","","","","","","","","","","","","","","","SYN066AAXX  31074 94213 11980 01305 10315 21010 39892 40128 60001 70200;","","","","","","","","","",""
"94213099999","2005-08-01T06:00:00","-17.0166666","128.2166666","205.0","WARMUN, AS","FM-12","4","","35","63","","","","","36","","30.06","29.36","15.53","50","000","","0","","","","","","","","","","","","","","","","","","","","","","","","","","","","","","","","","","","","","","","","","","","","","","","","","","","","","","","","","","","","","","","","","","","","","","","","","","","","","","","","","","","","","","","","","","","SYN066AAXX  31224 94213 41/75 40000 10170 20019 39943 40179 70100 80001;","","","","","","","","","",""
"94213099999","2005-08-01T09:00:00","-17.0166666","128.2166666","205.0","WARMUN, AS","FM-12","4","","30","77","","","","","17","","30.13","29.44","17.40","54","090","","11","","","","","","","","","","","","","","","","","","","","","","","","","","","","","","","","","","","","","","","","","","","","","","","","","","","","","","","","","","","","","","","","","","","","","","","","","","","","","","","","","","","","","","","","","","","SYN082AAXX  01014 94213 11/78 50910 10252 21013 39968 40204 60004 70322 80001 333 70000;","","","","","","","","","",""
"94213099999","2005-08-01T15:00:00","-17.0166666","128.2166666","205.0","WARMUN, AS","FM-12","4","","32","83","","","","","16","","29.96","29.27","18.64","57","130","","5","","","","","","","","","","","","","","","","","","","","","","","","","","","","","","","","","","","","","","","","","","","","","","","","","","","","","","","","","","","","","","","","","","","","","","","","","","","","","","","","","","","","","","","","","","","SYN072AAXX  01074 94213 11/80 41304 10286 20000 39912 40147 60001 70200 80001;","","","","","","","","","",""
"94213099999","2005-08-02T06:00:00","-17.0166666","128.2166666","205.0","WARMUN, AS","FM-12","4","","35","58","","","","","42","","30.05","29.36","12.43","47","000","","0","","","","","","","","","","","","","","","","","","","","","","","","","","","","","","","","","","","","","","","","","","","","","","","","","","","","","","","","","","","","","","","","","","","","","","","","","","","","","","","","","","","","","","","","","","","SYN066AAXX  01224 94213 41/70 40000 10145 20018 39941 40176 70100 80001;","","","","","","","","","",""
"94213099999","2005-08-02T09:00:00","-17.0166666","128.2166666","205.0","WARMUN, AS","FM-12","4","","33","77","","","","","21","","30.10","29.40","17.40","55","050","","11","","","","","","","","","","","","","","","","","","","","","","","","","","","","","","","","","","","","","","","","","","","","","","","","","","","","","","","","","","","","","","","","","","","","","","","","","","","","","","","","","","","","","","","","","","","SYN082AAXX  02014 94213 11/78 20510 10248 20007 39956 40192 60004 70100 80001 333 70000;","","","","","","","","","",""
"94213099999","2005-08-02T15:00:00","-17.0166666","128.2166666","205.0","WARMUN, AS","FM-12","4","","40","85","","","","","20","","29.91","29.22","18.64","60","130","","6","","","","","","","","","","","","","","","","","","","","","","","","","","","","","","","","","","","","","","","","","","","","","","","","","","","","","","","","","","","","","","","","","","","","","","","","","","","","","","","","","","","","","","","","","","","SYN072AAXX  02074 94213 11/80 21305 10295 20043 39896 40130 60001 70100 80001;","","","","","","","","","",""
"94213099999","2005-08-03T06:00:00","-17.0166666","128.2166666","205.0","WARMUN, AS","FM-12","4","","30","53","","","","","43","","30.01","29.31","12.43","43","180","","6","","","","","","","","","","","","","","","","","","","","","","","","","","","","","","","","","","","","","","","","","","","","","","","","","","","","","","","","","","","","","","","","","","","","","","","","","","","","","","","","","","","","","","","","","","","SYN066AAXX  02224 94213 41/70 11805 10115 21009 39927 40162 70200 80008;","","","","","","","","","",""
"94213099999","2005-08-03T09:00:00","-17.0166666","128.2166666","205.0","WARMUN, AS","FM-12","4","","36","77","","","","","23","CLR:00","30.04","29.35","14.29","56","180","","3","","","","","","","","","","","","","","","","","","","","","","","","","","","","","","","","","","","","","","","","","","","","","","","","","","","","","","","","","","","","","","","","","","","","","","","","","","","","","","","","","","","","","","","","","","","SYN076AAXX  03014 94213 11973 01803 10250 20022 39939 40174 60004 70100 333 70000;","","","","","","","","","",""
"94213099999","2005-08-03T15:00:00","-17.0166666","128.2166666","205.0","WARMUN, AS","FM-12","4","","29","87","","","","","13","CLR:00","29.91","29.22","18.64","58","130","","7","","","","","","","","","","","","","","","","","","","","","","","","","","","","","","","","","","","","","","","","","","","","","","","","","","","","","","","","","","","","","","","","","","","","","","","","","","","","","","","","","","","","","","","","","","","SYN066AAXX  03074 94213 11980 01306 10305 21014 39894 40128 60001 70200;","","","","","","","","","",""
"94213099999","2005-08-04T06:00:00","-17.0166666","128.2166666","205.0","WARMUN, AS","FM-12","4","","32","62","","","","","32","CLR:00","30.01","29.32","11.18","48","160","","6","","","","","","","","","","","","","","","","","","","","","","","","","","","","","","","","","","","","","","","","","","","","","","","","","","","","","","","","","","","","","","","","","","","","","","","","","","","","","","","","","","","","","","","","","","","SYN060AAXX  03224 94213 41968 01605 10168 21001 39929 40164 70200;","","","","","","","","","",""
"94213099999","2005-08-04T09:00:00","-17.0166666","128.2166666","205.0","WARMUN, AS","FM-12","4","","40","81","","","","","23","CLR:00","30.06","29.36","15.53","59","000","","0","","","","","","","","","","","","","","","","","","","","","","","","","","","","","","","","","","","","","","","","","","","","","","","","","","","","","","","","","","","","","","","","","","","","","","","","","","","","","","","","","","","","","","","","","","","SYN076AAXX  04014 94213 11975 00000 10270 20044 39943 40179 60004 70200 333 70000;","","","","","","","","","",""
"94213099999","2005-08-04T15:00:00","-17.0166666","128.2166666","205.0","WARMUN, AS","FM-12","4","","37","87","","","","","17","CLR:00","29.92","29.23","18.64","60","130","","9","","","","","","","","","","","","","","","","","","","","","","","","","","","","","","","","","","","","","","","","","","","","","","","","","","","","","","","","","","","","","","","","","","","","","","","","","","","","","","","","","","","","","","","","","","","SYN066AAXX  04074 94213 11980 01308 10305 20028 39899 40133 60001 70200;","","","","","","","","","",""
"94213099999","2005-08-05T06:00:00","-17.0166666","128.2166666","205.0","WARMUN, AS","FM-12","4","","38","67","","","","","35","CLR:00","30.02","29.33","15.53","52","000","","0","","","","","","","","","","","","","","","","","","","","","","","","","","","","","","","","","","","","","","","","","","","","","","","","","","","","","","","","","","","","","","","","","","","","","","","","","","","","","","","","","","","","","","","","","","","SYN060AAXX  04224 94213 41975 00000 10194 20033 39932 40167 70200;","","","","","","","","","",""
"94213099999","2005-08-05T09:00:00","-17.0166666","128.2166666","205.0","WARMUN, AS","FM-12","4","","40","77","","","","","27","CLR:00","30.05","29.36","16.16","57","110","","11","","","","","","","","","","","","","","","","","","","","","","","","","","","","","","","","","","","","","","","","","","","","","","","","","","","","","","","","","","","","","","","","","","","","","","","","","","","","","","","","","","","","","","","","","","","SYN076AAXX  05014 94213 11976 01110 10251 20047 39941 40176 60004 70200 333 70000;","","","","","","","","","",""
"94213099999","2005-08-05T15:00:00","-17.0166666","128.2166666","205.0","WARMUN, AS","FM-12","4","","42","87","","","","","20","CLR:00","29.92","29.23","17.40","62","110","","6","","","","","","","","","","","","","","","","","","","","","","","","","","","","","","","","","","","","","","","","","","","","","","","","","","","","","","","","","","","","","","","","","","","","","","","","","","","","","","","","","","","","","","","","","","","SYN066AAXX  05074 94213 11978 01105 10305 20053 39899 40133 60001 70200;","","","","","","","","","",""
"94213099999","2005-08-06T06:00:00","-17.0166666","128.2166666","205.0","WARMUN, AS","FM-12","4","","40","72","","","","","30","","30.01","29.31","14.29","55","090","","6","","","","","","","","","","","","","","","","","","","","","","","","","","","","","","","","","","","","","","","","","","","","","","","","","","","","","","","","","","","","","","","","","","","","","","","","","","","","","","","","","","","","","","","","","","","SYN066AAXX  05224 94213 41/73 70905 10225 20042 39926 40161 70111 87050;","","","","","","","","","",""
"94213099999","2005-08-06T09:00:00","-17.0166666","128.2166666","205.0","WARMUN, AS","FM-12","4","","35","77","","","","","22","","30.06","29.36","16.16","56","090","","6","","","","","","","","","","","","","","","","","","","","","","","","","","","","","","","","","","","","","","","","","","","","","","","","","","","","","","","","","","","","","","","","","","","","","","","","","","","","","","","","","","","","","","","","","","","SYN082AAXX  06014 94213 11/76 60905 10252 20019 39944 40180 60004 70122 86050 333 70000;","","","","","","","","","",""
"94213099999","2005-08-06T15:00:00","-17.0166666","128.2166666","205.0","WARMUN, AS","FM-12","4","","42","86","","","","","21","","29.91","29.22","18.64","61","090","","8","","","","","","","","","","","","","","","","","","","","","","","","","","","","","","","","","","","","","","","","","","","","","","","","","","","","","","","","","","","","","","","","","","","","","","","","","","","","","","","","","","","","","","","","","","","SYN072AAXX  06074 94213 11/80 20907 10300 20053 39896 40130 60001 70100 82050;","","","","","","","","","",""
"94213099999","2005-08-07T06:00:00","-17.0166666","128.2166666","205.0","WARMUN, AS","FM-12","4","","33","72","","","","","24","","30.02","29.33","13.67","53","090","","1","","","","","","","","","","","","","","","","","","","","","","","","","","","","","","","","","","","","","","","","","","","","","","","","","","","","","","","","","","","","","","","","","","","","","","","","","","","","","","","","","","","","","","","","","","","SYN066AAXX  06224 94213 41972 80901 10225 20008 39931 40166 70322 8528/;","","","","","","","","","",""
"94213099999","2005-08-07T09:00:00","-17.0166666","128.2166666","205.0","WARMUN, AS","FM-12","4","","31","76","","","","","19","","30.09","29.39","13.67","54","090","","6","","","","","","","","","","","","","","","","","","","","","","","","","","","","","","","","","","","","","","","","","","","","","","","","","","","","","","","","","","","","","","","","","","","","","","","","","","","","","","","","","","","","","","","","","","","SYN082AAXX  07014 94213 11/72 70905 10245 21008 39952 40188 60004 70222 87010 333 70000;","","","","","","","","","",""
"94213099999","2005-08-07T15:00:00","-17.0166666","128.2166666","205.0","WARMUN, AS","FM-12","4","","42","86","","","","","21","","29.95","29.25","16.16","61","130","","2","","","","","","","","","","","","","","","","","","","","","","","","","","","","","","","","","","","","","","","","","","","","","","","","","","","","","","","","","","","","","","","","","","","","","","","","","","","","","","","","","","","","","","","","","","","SYN072AAXX  07074 94213 11/76 61302 10300 20053 39906 40141 60001 70122 86030;","","","","","","","","","",""
"94213099999","2005-08-08T06:00:00","-17.0166666","128.2166666","205.0","WARMUN, AS","FM-12","4","","34","63","","","","","35","","30.09","29.39","15.53","49","000","","0","","","","","","","","","","","","","","","","","","","","","","","","","","","","","","","","","","","","","","","","","","","","","","","","","","","","","","","","","","","","","","","","","","","","","","","","","","","","","","","","","","","","","","","","","","","SYN066AAXX  07224 94213 41/75 20000 10170 20013 39954 40190 70100 82030;","","","","","","","","","",""
"94213099999","2005-08-08T09:00:00","-17.0166666","128.2166666","205.0","WARMUN, AS","FM-12","4","","26","72","","","","","18","","30.14","29.44","17.40","51","130","","6","","","","","","","","","","","","","","","","","","","","","","","","","","","","","","","","","","","","","","","","","","","","","","","","","","","","","","","","","","","","","","","","","","","","","","","","","","","","","","","","","","","","","","","","","","","SYN082AAXX  08014 94213 11/78 11305 10220 21032 39969 40205 60004 70100 81030 333 70000;","","","","","","","","","",""
"94213099999","2005-08-08T15:00:00","-17.0166666","128.2166666","205.0","WARMUN, AS","FM-12","4","","28","83","","","","","13","CLR:00","29.98","29.29","18.64","56","130","","5","","","","","","","","","","","","","","","","","","","","","","","","","","","","","","","","","","","","","","","","","","","","","","","","","","","","","","","","","","","","","","","","","","","","","","","","","","","","","","","","","","","","","","","","","","","SYN066AAXX  08074 94213 11980 01304 10285 21020 39919 40154 60001 70000;","","","","","","","","","",""
"94213099999","2005-08-09T06:00:00","-17.0166666","128.2166666","205.0","WARMUN, AS","FM-12","4","","31","49","","","","","50","CLR:00","30.10","29.41","14.91","41","000","","0","","","","","","","","","","","","","","","","","","","","","","","","","","","","","","","","","","","","","","","","","","","","","","","","","","","","","","","","","","","","","","","","","","","","","","","","","","","","","","","","","","","","","","","","","","","SYN060AAXX  08224 94213 41974 00000 10095 21006 39958 40194 70200;","","","","","","","","","",""
"94213099999","2005-08-09T09:00:00","-17.0166666","128.2166666","205.0","WARMUN, AS","FM-12","4","","13","73","","","","","10","CLR:00","30.12","29.42","16.16","48","090","","7","","","","","","","","","","","","","","","","","","","","","","","","","","","","","","","","","","","","","","","","","","","","","","","","","","","","","","","","","","","","","","","","","","","","","","","","","","","","","","","","","","","","","","","","","","","SYN076AAXX  09014 94213 11976 00906 10230 21107 39963 40199 60004 70200 333 70000;","","","","","","","","","",""
"94213099999","2005-08-09T15:00:00","-17.0166666","128.2166666","205.0","WARMUN, AS","FM-12","4","","26","82","","","","","13","CLR:00","29.95","29.25","17.40","55","050","","5","","","","","","","","","","","","","","","","","","","","","","","","","","","","","","","","","","","","","","","","","","","","","","","","","","","","","","","","","","","","","","","","","","","","","","","","","","","","","","","","","","","","","","","","","","","SYN066AAXX  09074 94213 11978 00504 10280 21034 39906 40141 60001 70200;","","","","","","","","","",""
"94213099999","2005-08-10T06:00:00","-17.0166666","128.2166666","205.0","WARMUN, AS","FM-12","4","","27","52","","","","","38","CLR:00","30.02","29.33","12.43","41","160","","6","","","","","","","","","","","","","","","","","","","","","","","","","","","","","","","","","","","","","","","","","","","","","","","","","","","","","","","","","","","","","","","","","","","","","","","","","","","","","","","","","","","","","","","","","","","SYN060AAXX  09224 94213 41970 01605 10110 21028 39932 40167 70200;","","","","","","","","","",""
"94213099999","2005-08-10T09:00:00","-17.0166666","128.2166666","205.0","WARMUN, AS","FM-12","4","","31","76","","","","","19","CLR:00","30.04","29.35","15.53","54","050","","3","","","","","","","","","","","","","","","","","","","","","","","","","","","","","","","","","","","","","","","","","","","","","","","","","","","","","","","","","","","","","","","","","","","","","","","","","","","","","","","","","","","","","","","","","","","SYN076AAXX  10014 94213 11975 00503 10245 21008 39938 40173 60004 70200 333 70000;","","","","","","","","","",""
"94213099999","2005-08-10T15:00:00","-17.0166666","128.2166666","205.0","WARMUN, AS","FM-12","4","","33","86","","","","","15","CLR:00","29.87","29.18","18.64","58","270","","3","","","","","","","","","","","","","","","","","","","","","","","","","","","","","","","","","","","","","","","","","","","","","","","","","","","","","","","","","","","","","","","","","","","","","","","","","","","","","","","","","","","","","","","","","","","SYN066AAXX  10074 94213 11980 02703 10302 20005 39882 40116 60001 70200;","","","","","","","","","",""
"94213099999","2005-08-11T06:00:00","-17.0166666","128.2166666","205.0","WARMUN, AS","FM-12","4","","33","62","","","","","34","","29.97","29.28","12.43","48","180","","6","","","","","","","","","","","","","","","","","","","","","","","","","","","","","","","","","","","","","","","","","","","","","","","","","","","","","","","","","","","","","","","","","","","","","","","","","","","","","","","","","","","","","","","","","","","SYN066AAXX  10224 94213 41770 31805 10168 20006 39915 40150 70300 81550;","","","","","","","","","",""
"94213099999","2005-08-11T09:00:00","-17.0166666","128.2166666","205.0","WARMUN, AS","FM-12","4","","18","83","","","","","9","CLR:00","30.01","29.31","16.16","54","180","","5","","","","","","","","","","","","","","","","","","","","","","","","","","","","","","","","","","","","","","","","","","","","","","","","","","","","","","","","","","","","","","","","","","","","","","","","","","","","","","","","","","","","","","","","","","","SYN076AAXX  11014 94213 11976 01804 10285 21078 39927 40163 60004 70100 333 70000;","","","","","","","","","",""
"94213099999","2005-08-11T15:00:00","-17.0166666","128.2166666","205.0","WARMUN, AS","FM-12","4","","34","87","","","","","15","CLR:00","29.90","29.21","18.02","59","180","","8","","","","","","","","","","","","","","","","","","","","","","","","","","","","","","","","","","","","","","","","","","","","","","","","","","","","","","","","","","","","","","","","","","","","","","","","","","","","","","","","","","","","","","","","","","","SYN066AAXX  11074 94213 11979 01807 10305 20009 39890 40124 60001 70200;","","","","","","","","","",""
"94213099999","2005-08-12T06:00:00","-17.0166666","128.2166666","205.0","WARMUN, AS","FM-12","4","","28","59","","","","","31","CLR:00","30.04","29.35","13.67","45","230","","2","","","","","","","","","","","","","","","","","","","","","","","","","","","","","","","","","","","","","","","","","","","","","","","","","","","","","","","","","","","","","","","","","","","","","","","","","","","","","","","","","","","","","","","","","","","SYN060AAXX  11224 94213 41972 02302 10150 21023 39938 40173 70200;","","","","","","","","","",""
"94213099999","2005-08-12T09:00:00","-17.0166666","128.2166666","205.0","WARMUN, AS","FM-12","4","","23","80","","","","","12","CLR:00","30.08","29.38","16.16","53","130","","8","","","","","","","","","","","","","","","","","","","","","","","","","","","","","","","","","","","","","","","","","","","","","","","","","","","","","","","","","","","","","","","","","","","","","","","","","","","","","","","","","","","","","","","","","","","SYN076AAXX  12014 94213 11976 01307 10265 21052 39949 40185 60004 70200 333 70000;","","","","","","","","","",""
"94213099999","2005-08-12T15:00:00","-17.0166666","128.2166666","205.0","WARMUN, AS","FM-12","4","","31","86","","","","","14","CLR:00","29.97","29.28","18.64","58","130","","11","","","","","","","","","","","","","","","","","","","","","","","","","","","","","","","","","","","","","","","","","","","","","","","","","","","","","","","","","","","","","","","","","","","","","","","","","","","","","","","","","","","","","","","","","","","SYN066AAXX  12074 94213 11980 01310 10300 21004 39915 40150 60001 70200;","","","","","","","","","",""
"94213099999","2005-08-13T06:00:00","-17.0166666","128.2166666","205.0","WARMUN, AS","FM-12","4","","28","57","","","","","33","","30.12","29.42","12.43","44","000","","0","","","","","","","","","","","","","","","","","","","","","","","","","","","","","","","","","","","","","","","","","","","","","","","","","","","","","","","","","","","","","","","","","","","","","","","","","","","","","","","","","","","","","","","","","","","SYN066AAXX  12224 94213 41/70 20000 10140 21022 39963 40199 70100 80001;","","","","","","","","","",""
"94213099999","2005-08-13T09:00:00","-17.0166666","128.2166666","205.0","WARMUN, AS","FM-12","4","","25","75","","","","","16","","30.17","29.48","17.40","52","090","","11","","","","","","","","","","","","","","","","","","","","","","","","","","","","","","","","","","","","","","","","","","","","","","","","","","","","","","","","","","","","","","","","","","","","","","","","","","","","","","","","","","","","","","","","","","","SYN082AAXX  13014 94213 11/78 10910 10237 21037 39982 40218 60004 70100 80001 333 70000;","","","","","","","","","",""
"94213099999","2005-08-13T15:00:00","-17.0166666","128.2166666","205.0","WARMUN, AS","FM-12","4","","28","83","","","","","13","CLR:00","30.00","29.30","18.64","56","050","","8","","","","","","","","","","","","","","","","","","","","","","","","","","","","","","","","","","","","","","","","","","","","","","","","","","","","","","","","","","","","","","","","","","","","","","","","","","","","","","","","","","","","","","","","","","","SYN066AAXX  13074 94213 11980 00507 10285 21020 39923 40158 60001 70000;","","","","","","","","","",""
"94213099999","2005-08-14T06:00:00","-17.0166666","128.2166666","205.0","WARMUN, AS","FM-12","4","","33","47","","","","","58","","30.09","29.39","15.53","41","000","","0","","","","","","","","","","","","","","","","","","","","","","","","","","","","","","","","","","","","","","","","","","","","","","","","","","","","","","","","","","","","","","","","","","","","","","","","","","","","","","","","","","","","","","","","","","","SYN066AAXX  13224 94213 41/75 20000 10085 20006 39954 40190 70100 80001;","","","","","","","","","",""
"94213099999","2005-08-14T09:00:00","-17.0166666","128.2166666","205.0","WARMUN, AS","FM-12","4","","27","75","","","","","17","CLR:00","30.12","29.42","17.40","52","360","","5","","","","","","","","","","","","","","","","","","","","","","","","","","","","","","","","","","","","","","","","","","","","","","","","","","","","","","","","","","","","","","","","","","","","","","","","","","","","","","","","","","","","","","","","","","","SYN076AAXX  14014 94213 11978 03604 10240 21029 39963 40199 60004 70000 333 70000;","","","","","","","","","",""
"94213099999","2005-08-14T15:00:00","-17.0166666","128.2166666","205.0","WARMUN, AS","FM-12","4","","38","87","","","","","18","","29.95","29.26","18.64","60","180","","5","","","","","","","","","","","","","","","","","","","","","","","","","","","","","","","","","","","","","","","","","","","","","","","","","","","","","","","","","","","","","","","","","","","","","","","","","","","","","","","","","","","","","","","","","","","SYN072AAXX  14074 94213 11/80 11804 10303 20031 39907 40142 60001 70300 80001;","","","","","","","","","",""
"94213099999","2005-08-15T06:00:00","-17.0166666","128.2166666","205.0","WARMUN, AS","FM-12","4","","36","53","","","","","54","CLR:00","30.01","29.31","13.67","45","000","","0","","","","","","","","","","","","","","","","","","","","","","","","","","","","","","","","","","","","","","","","","","","","","","","","","","","","","","","","","","","","","","","","","","","","","","","","","","","","","","","","","","","","","","","","","","","SYN060AAXX  14224 94213 41972 00000 10115 20023 39927 40162 70000;","","","","","","","","","",""
"94213099999","2005-08-15T09:00:00","-17.0166666","128.2166666","205.0","WARMUN, AS","FM-12","4","","30","80","","","","","16","CLR:00","30.05","29.35","15.53","55","360","","3","","","","","","","","","","","","","","","","","","","","","","","","","","","","","","","","","","","","","","","","","","","","","","","","","","","","","","","","","","","","","","","","","","","","","","","","","","","","","","","","","","","","","","","","","","","SYN076AAXX  15014 94213 11975 03603 10268 21009 39940 40175 60004 70200 333 70000;","","","","","","","","","",""
"94213099999","2005-08-15T15:00:00","-17.0166666","128.2166666","205.0","WARMUN, AS","FM-12","4","","30","89","","","","","12","CLR:00","29.89","29.20","17.40","59","130","","6","","","","","","","","","","","","","","","","","","","","","","","","","","","","","","","","","","","","","","","","","","","","","","","","","","","","","","","","","","","","","","","","","","","","","","","","","","","","","","","","","","","","","","","","","","","SYN066AAXX  15074 94213 11978 01305 10315 21010 39887 40121 60001 70200;","","","","","","","","","",""
"94213099999","2005-08-16T06:00:00","-17.0166666","128.2166666","205.0","WARMUN, AS","FM-12","4","","29","50","","","","","45","CLR:00","30.03","29.34","12.43","41","000","","0","","","","","","","","","","","","","","","","","","","","","","","","","","","","","","","","","","","","","","","","","","","","","","","","","","","","","","","","","","","","","","","","","","","","","","","","","","","","","","","","","","","","","","","","","","","SYN060AAXX  15224 94213 41970 00000 10100 21015 39935 40170 70200;","","","","","","","","","",""
"94213099999","2005-08-16T09:00:00","-17.0166666","128.2166666","205.0","WARMUN, AS","FM-12","4","","32","78","","","","","19","CLR:00","30.07","29.37","15.53","55","050","","11","","","","","","","","","","","","","","","","","","","","","","","","","","","","","","","","","","","","","","","","","","","","","","","","","","","","","","","","","","","","","","","","","","","","","","","","","","","","","","","","","","","","","","","","","","","SYN076AAXX  16014 94213 11975 00510 10253 21002 39946 40182 60004 70200 333 70000;","","","","","","","","","",""
"94213099999","2005-08-16T15:00:00","-17.0166666","128.2166666","205.0","WARMUN, AS","FM-12","4","","29","87","","","","","13","CLR:00","29.91","29.22","18.64","58","360","","5","","","","","","","","","","","","","","","","","","","","","","","","","","","","","","","","","","","","","","","","","","","","","","","","","","","","","","","","","","","","","","","","","","","","","","","","","","","","","","","","","","","","","","","","","","","SYN066AAXX  16074 94213 11980 03604 10305 21014 39894 40128 60001 70200;","","","","","","","","","",""
"94213099999","2005-08-17T06:00:00","-17.0166666","128.2166666","205.0","WARMUN, AS","FM-12","4","","35","53","","","","","50","CLR:00","30.03","29.34","16.16","45","000","","0","","","","","","","","","","","","","","","","","","","","","","","","","","","","","","","","","","","","","","","","","","","","","","","","","","","","","","","","","","","","","","","","","","","","","","","","","","","","","","","","","","","","","","","","","","","SYN060AAXX  16224 94213 41976 00000 10117 20016 39935 40170 70200;","","","","","","","","","",""
"94213099999","2005-08-17T09:00:00","-17.0166666","128.2166666","205.0","WARMUN, AS","FM-12","4","","40","81","","","","","23","CLR:00","30.07","29.38","16.78","59","000","","0","","","","","","","","","","","","","","","","","","","","","","","","","","","","","","","","","","","","","","","","","","","","","","","","","","","","","","","","","","","","","","","","","","","","","","","","","","","","","","","","","","","","","","","","","","","SYN076AAXX  17014 94213 11977 00000 10273 20046 39948 40184 60004 70200 333 70000;","","","","","","","","","",""
"94213099999","2005-08-17T15:00:00","-17.0166666","128.2166666","205.0","WARMUN, AS","FM-12","4","","44","89","","","","","21","CLR:00","29.91","29.22","18.02","63","020","","5","","","","","","","","","","","","","","","","","","","","","","","","","","","","","","","","","","","","","","","","","","","","","","","","","","","","","","","","","","","","","","","","","","","","","","","","","","","","","","","","","","","","","","","","","","","SYN066AAXX  17074 94213 11979 00204 10317 20069 39896 40130 60001 70200;","","","","","","","","","",""
"94213099999","2005-08-18T06:00:00","-17.0166666","128.2166666","205.0","WARMUN, AS","FM-12","4","","45","58","","","","","63","CLR:00","30.04","29.35","13.67","51","000","","0","","","","","","","","","","","","","","","","","","","","","","","","","","","","","","","","","","","","","","","","","","","","","","","","","","","","","","","","","","","","","","","","","","","","","","","","","","","","","","","","","","","","","","","","","","","SYN060AAXX  17224 94213 41972 00000 10145 20074 39938 40173 70200;","","","","","","","","","",""
"94213099999","2005-08-18T09:00:00","-17.0166666","128.2166666","205.0","WARMUN, AS","FM-12","4","","46","84","","","","","27","CLR:00","30.09","29.39","17.40","62","000","","0","","","","","","","","","","","","","","","","","","","","","","","","","","","","","","","","","","","","","","","","","","","","","","","","","","","","","","","","","","","","","","","","","","","","","","","","","","","","","","","","","","","","","","","","","","","SYN076AAXX  18014 94213 11978 00000 10290 20080 39953 40189 60004 70200 333 70000;","","","","","","","","","",""
"94213099999","2005-08-18T15:00:00","-17.0166666","128.2166666","205.0","WARMUN, AS","FM-12","4","","44","93","","","","","18","CLR:00","29.95","29.25","18.64","64","050","","5","","","","","","","","","","","","","","","","","","","","","","","","","","","","","","","","","","","","","","","","","","","","","","","","","","","","","","","","","","","","","","","","","","","","","","","","","","","","","","","","","","","","","","","","","","","SYN066AAXX  18074 94213 11980 00504 10340 20067 39906 40141 60001 70200;","","","","","","","","","",""
"94213099999","2005-08-19T06:00:00","-17.0166666","128.2166666","205.0","WARMUN, AS","FM-12","4","","48","64","","","","","57","","30.03","29.34","15.53","55","000","","0","","","","","","","","","","","","","","","","","","","","","","","","","","","","","","","","","","","","","","","","","","","","","","","","","","","","","","","","","","","","","","","","","","","","","","","","","","","","","","","","","","","","","","","","","","","SYN066AAXX  18224 94213 41/75 20000 10176 20088 39936 40171 70300 80001;","","","","","","","","","",""
"94213099999","2005-08-19T09:00:00","-17.0166666","128.2166666","205.0","WARMUN, AS","FM-12","4","","50","83","","","","","31","CLR:00","30.08","29.39","17.40","64","230","","11","","","","","","","","","","","","","","","","","","","","","","","","","","","","","","","","","","","","","","","","","","","","","","","","","","","","","","","","","","","","","","","","","","","","","","","","","","","","","","","","","","","","","","","","","","","SYN076AAXX  19014 94213 11978 02310 10285 20098 39951 40187 60004 70000 333 70000;","","","","","","","","","",""
"94213099999","2005-08-19T15:00:00","-17.0166666","128.2166666","205.0","WARMUN, AS","FM-12","4","","44","90","","","","","20","CLR:00","29.92","29.23","18.64","63","180","","6","","","","","","","","","","","","","","","","","","","","","","","","","","","","","","","","","","","","","","","","","","","","","","","","","","","","","","","","","","","","","","","","","","","","","","","","","","","","","","","","","","","","","","","","","","","SYN066AAXX  19074 94213 11980 01805 10325 20069 39897 40131 60001 70200;","","","","","","","","","",""
"94213099999","2005-08-20T06:00:00","-17.0166666","128.2166666","205.0","WARMUN, AS","FM-12","4","","35","67","","","","","31","CLR:00","30.00","29.30","15.53","51","000","","0","","","","","","","","","","","","","","","","","","","","","","","","","","","","","","","","","","","","","","","","","","","","","","","","","","","","","","","","","","","","","","","","","","","","","","","","","","","","","","","","","","","","","","","","","","","SYN060AAXX  19224 94213 41975 00000 10195 20019 39923 40158 70200;","","","","","","","","","",""
"94213099999","2005-08-20T09:00:00","-17.0166666","128.2166666","205.0","WARMUN, AS","FM-12","4","","43","80","","","","","28","CLR:00","30.03","29.34","17.40","60","130","","5","","","","","","","","","","","","","","","","","","","","","","","","","","","","","","","","","","","","","","","","","","","","","","","","","","","","","","","","","","","","","","","","","","","","","","","","","","","","","","","","","","","","","","","","","","","SYN076AAXX  20014 94213 11978 01304 10265 20063 39934 40169 60004 70200 333 70000;","","","","","","","","","",""
"94213099999","2005-08-20T15:00:00","-17.0166666","128.2166666","205.0","WARMUN, AS","FM-12","4","","45","92","","","","","20","CLR:00","29.88","29.19","18.64","65","160","","5","","","","","","","","","","","","","","","","","","","","","","","","","","","","","","","","","","","","","","","","","","","","","","","","","","","","","","","","","","","","","","","","","","","","","","","","","","","","","","","","","","","","","","","","","","","SYN066AAXX  20074 94213 11980 01604 10335 20073 39884 40118 60001 70200;","","","","","","","","","",""
"94213099999","2005-08-21T06:00:00","-17.0166666","128.2166666","205.0","WARMUN, AS","FM-12","4","","45","64","","","","","49","CLR:00","29.98","29.28","12.43","54","000","","0","","","","","","","","","","","","","","","","","","","","","","","","","","","","","","","","","","","","","","","","","","","","","","","","","","","","","","","","","","","","","","","","","","","","","","","","","","","","","","","","","","","","","","","","","","","SYN060AAXX  20224 94213 41970 00000 10180 20071 39917 40152 70200;","","","","","","","","","",""
"94213099999","2005-08-21T09:00:00","-17.0166666","128.2166666","205.0","WARMUN, AS","FM-12","4","","45","83","","","","","26","CLR:00","30.02","29.32","13.67","61","340","","10","","","","","","","","","","","","","","","","","","","","","","","","","","","","","","","","","","","","","","","","","","","","","","","","","","","","","","","","","","","","","","","","","","","","","","","","","","","","","","","","","","","","","","","","","","","SYN076AAXX  21014 94213 11972 03409 10285 20071 39930 40165 60004 70200 333 70000;","","","","","","","","","",""
"94213099999","2005-08-21T15:00:00","-17.0166666","128.2166666","205.0","WARMUN, AS","FM-12","4","","49","91","","","","","23","CLR:00","29.89","29.20","17.40","66","290","","5","","","","","","","","","","","","","","","","","","","","","","","","","","","","","","","","","","","","","","","","","","","","","","","","","","","","","","","","","","","","","","","","","","","","","","","","","","","","","","","","","","","","","","","","","","","SYN066AAXX  21074 94213 11978 02904 10330 20093 39889 40123 60001 70200;","","","","","","","","","",""
"94213099999","2005-08-22T06:00:00","-17.0166666","128.2166666","205.0","WARMUN, AS","FM-12","4","","46","72","","","","","40","CLR:00","30.03","29.34","12.43","58","000","","0","","","","","","","","","","","","","","","","","","","","","","","","","","","","","","","","","","","","","","","","","","","","","","","","","","","","","","","","","","","","","","","","","","","","","","","","","","","","","","","","","","","","","","","","","","","SYN060AAXX  21224 94213 41970 00000 10220 20077 39934 40169 70200;","","","","","","","","","",""
"94213099999","2005-08-22T09:00:00","-17.0166666","128.2166666","205.0","WARMUN, AS","FM-12","4","","41","82","","","","","23","CLR:00","30.06","29.36","17.40","60","050","","11","","","","","","","","","","","","","","","","","","","","","","","","","","","","","","","","","","","","","","","","","","","","","","","","","","","","","","","","","","","","","","","","","","","","","","","","","","","","","","","","","","","","","","","","","","","SYN076AAXX  22014 94213 11978 00510 10280 20050 39944 40180 60004 70200 333 70000;","","","","","","","","","",""
"94213099999","2005-08-22T15:00:00","-17.0166666","128.2166666","205.0","WARMUN, AS","FM-12","4","","41","91","","","","","18","CLR:00","29.91","29.22","18.64","63","020","","6","","","","","","","","","","","","","","","","","","","","","","","","","","","","","","","","","","","","","","","","","","","","","","","","","","","","","","","","","","","","","","","","","","","","","","","","","","","","","","","","","","","","","","","","","","","SYN066AAXX  22074 94213 11980 00205 10327 20051 39895 40129 60001 70200;","","","","","","","","","",""
"94213099999","2005-08-23T06:00:00","-17.0166666","128.2166666","205.0","WARMUN, AS","FM-12","4","","35","72","","","","","26","CLR:00","30.03","29.33","14.91","53","050","","2","","","","","","","","","","","","","","","","","","","","","","","","","","","","","","","","","","","","","","","","","","","","","","","","","","","","","","","","","","","","","","","","","","","","","","","","","","","","","","","","","","","","","","","","","","","SYN060AAXX  22224 94213 41974 00502 10220 20016 39933 40168 70200;","","","","","","","","","",""
"94213099999","2005-08-23T09:00:00","-17.0166666","128.2166666","205.0","WARMUN, AS","FM-12","4","","31","80","","","","","17","CLR:00","30.07","29.37","18.02","56","050","","7","","","","","","","","","","","","","","","","","","","","","","","","","","","","","","","","","","","","","","","","","","","","","","","","","","","","","","","","","","","","","","","","","","","","","","","","","","","","","","","","","","","","","","","","","","","SYN076AAXX  23014 94213 11979 00506 10265 21004 39946 40182 60004 70200 333 70000;","","","","","","","","","",""
"94213099999","2005-08-23T15:00:00","-17.0166666","128.2166666","205.0","WARMUN, AS","FM-12","4","","41","89","","","","","19","CLR:00","29.89","29.20","18.64","62","050","","2","","","","","","","","","","","","","","","","","","","","","","","","","","","","","","","","","","","","","","","","","","","","","","","","","","","","","","","","","","","","","","","","","","","","","","","","","","","","","","","","","","","","","","","","","","","SYN066AAXX  23074 94213 11980 00502 10315 20049 39889 40123 60001 70200;","","","","","","","","","",""
"94213099999","2005-08-24T06:00:00","-17.0166666","128.2166666","205.0","WARMUN, AS","FM-12","4","","29","63","","","","","28","CLR:00","29.95","29.26","16.16","47","000","","0","","","","","","","","","","","","","","","","","","","","","","","","","","","","","","","","","","","","","","","","","","","","","","","","","","","","","","","","","","","","","","","","","","","","","","","","","","","","","","","","","","","","","","","","","","","SYN060AAXX  23224 94213 41976 00000 10171 21014 39908 40143 70200;","","","","","","","","","",""
"94213099999","2005-08-24T09:00:00","-17.0166666","128.2166666","205.0","WARMUN, AS","FM-12","4","","33","82","","","","","17","CLR:00","29.97","29.28","16.16","57","090","","14","","","","","","","","","","","","","","","","","","","","","","","","","","","","","","","","","","","","","","","","","","","","","","","","","","","","","","","","","","","","","","","","","","","","","","","","","","","","","","","","","","","","","","","","","","","SYN076AAXX  24014 94213 11976 00912 10276 20005 39914 40149 60004 70200 333 70000;","","","","","","","","","",""
"94213099999","2005-08-24T15:00:00","-17.0166666","128.2166666","205.0","WARMUN, AS","FM-12","4","","35","90","","","","","14","CLR:00","29.81","29.12","16.78","60","340","","11","","","","","","","","","","","","","","","","","","","","","","","","","","","","","","","","","","","","","","","","","","","","","","","","","","","","","","","","","","","","","","","","","","","","","","","","","","","","","","","","","","","","","","","","","","","SYN066AAXX  24074 94213 11977 03410 10322 20017 39862 40096 60001 70200;","","","","","","","","","",""
"94213099999","2005-08-25T06:00:00","-17.0166666","128.2166666","205.0","WARMUN, AS","FM-12","4","","48","59","","","","","67","CLR:00","29.93","29.23","15.53","53","000","","0","","","","","","","","","","","","","","","","","","","","","","","","","","","","","","","","","","","","","","","","","","","","","","","","","","","","","","","","","","","","","","","","","","","","","","","","","","","","","","","","","","","","","","","","","","","SYN060AAXX  24224 94213 41975 00000 10152 20090 39900 40135 70200;","","","","","","","","","",""
"94213099999","2005-08-25T09:00:00","-17.0166666","128.2166666","205.0","WARMUN, AS","FM-12","4","","56","81","","","","","41","CLR:00","29.97","29.28","15.53","66","130","","5","","","","","","","","","","","","","","","","","","","","","","","","","","","","","","","","","","","","","","","","","","","","","","","","","","","","","","","","","","","","","","","","","","","","","","","","","","","","","","","","","","","","","","","","","","","SYN076AAXX  25014 94213 11975 01304 10275 20131 39914 40149 60004 70200 333 70000;","","","","","","","","","",""
"94213099999","2005-08-25T15:00:00","-17.0166666","128.2166666","205.0","WARMUN, AS","FM-12","4","","52","90","","","","","27","","29.83","29.14","16.16","67","360","","9","","","","","","","","","","","","","","","","","","","","","","","","","","","","","","","","","","","","","","","","","","","","","","","","","","","","","","","","","","","","","","","","","","","","","","","","","","","","","","","","","","","","","","","","","","","SYN072AAXX  25074 94213 11/76 63608 10324 20112 39868 40102 60001 70311 86080;","","","","","","","","","",""
"94213099999","2005-08-26T06:00:00","-17.0166666","128.2166666","205.0","WARMUN, AS","FM-12","4","","57","71","","","","","62","","29.96","29.27","14.91","63","050","","8","","","","","","","","","","","","","","","","","","","","","","","","","","","","","","","","","","","","","","","","","","","","","","","","","","","","","","","","","","","","","","","","","","","","","","","","","","","","","","","","","","","","","","","","","","","SYN066AAXX  25224 94213 41/74 40507 10215 20138 39911 40146 70322 84030;","","","","","","","","","",""
"94213099999","2005-08-26T09:00:00","-17.0166666","128.2166666","205.0","WARMUN, AS","FM-12","4","","61","83","","","","","48","","29.98","29.29","16.78","69","050","","9","","","","","","","","","","","","","","","","","","","","","","","","","","","","","","","","","","","","","","","","","","","","","","","","","","","","","","","","","","","","","","","","","","","","","","","","","","","","","","","","","","","","","","","","","","","SYN082AAXX  26014 94213 11/77 10508 10284 20162 39919 40154 60004 70100 81030 333 70000;","","","","","","","","","",""
"94213099999","2005-08-26T15:00:00","-17.0166666","128.2166666","205.0","WARMUN, AS","FM-12","4","","56","90","","","","","32","","29.86","29.17","17.40","69","050","","11","","","","","","","","","","","","","","","","","","","","","","","","","","","","","","","","","","","","","","","","","","","","","","","","","","","","","","","","","","","","","","","","","","","","","","","","","","","","","","","","","","","","","","","","","","","SYN072AAXX  26074 94213 11878 60510 10320 20135 39878 40112 60001 70311 86100;","","","","","","","","","",""
"94213099999","2005-08-27T06:00:00","-17.0166666","128.2166666","205.0","WARMUN, AS","FM-12","4","","64","74","","","","","71","","29.99","29.29","11.18","68","270","","6","","","","","","","","","","","","","","","","","","","","","","","","","","","","","","","","","","","","","","","","","","","","","","","","","","","","","","","","","","","","","","","","","","","","","","","","","","","","","","","","","","","","","","","","","","","SYN066AAXX  26224 94213 41568 22705 10235 20179 39920 40155 70100 82200;","","","","","","","","","",""
"94213099999","2005-08-27T09:00:00","-17.0166666","128.2166666","205.0","WARMUN, AS","FM-12","4","","63","83","","","","","51","","30.02","29.33","12.43","70","200","","6","","","","","","","","","","","","","","","","","","","","","","","","","","","","","","","","","","","","","","","","","","","","","","","","","","","","","","","","","","","","","","","","","","","","","","","","","","","","","","","","","","","","","","","","","","","SYN082AAXX  27014 94213 11670 52005 10285 20175 39932 40167 60004 70300 85800 333 70000;","","","","","","","","","",""
"94213099999","2005-08-27T15:00:00","-17.0166666","128.2166666","205.0","WARMUN, AS","FM-12","4","","59","90","","","","","36","","29.87","29.18","18.64","70","000","","0","","","","","","","","","","","","","","","","","","","","","","","","","","","","","","","","","","","","","","","","","","","","","","","","","","","","","","","","","","","","","","","","","","","","","","","","","","","","","","","","","","","","","","","","","","","SYN072AAXX  27074 94213 11880 40000 10320 20150 39881 40115 60001 70200 84100;","","","","","","","","","",""
"94213099999","2005-08-28T06:00:00","-17.0166666","128.2166666","205.0","WARMUN, AS","FM-12","4","","55","72","","","","","55","","29.97","29.27","12.43","62","130","","2","","","","","","","","","","","","","","","","","","","","","","","","","","","","","","","","","","","","","","","","","","","","","","","","","","","","","","","","","","","","","","","","","","","","","","","","","","","","","","","","","","","","","","","","","","","SYN066AAXX  27224 94213 41/70 11302 10225 20130 39913 40148 70100 81080;","","","","","","","","","",""
"94213099999","2005-08-28T09:00:00","-17.0166666","128.2166666","205.0","WARMUN, AS","FM-12","4","","50","84","","","","","31","CLR:00","29.99","29.30","14.29","64","020","","10","","","","","","","","","","","","","","","","","","","","","","","","","","","","","","","","","","","","","","","","","","","","","","","","","","","","","","","","","","","","","","","","","","","","","","","","","","","","","","","","","","","","","","","","","","","SYN076AAXX  28014 94213 11973 00209 10290 20101 39921 40156 60004 70100 333 70000;","","","","","","","","","",""
"94213099999","2005-08-28T15:00:00","-17.0166666","128.2166666","205.0","WARMUN, AS","FM-12","4","","51","92","","","","","25","","29.85","29.15","17.40","67","310","","2","","","","","","","","","","","","","","","","","","","","","","","","","","","","","","","","","","","","","","","","","","","","","","","","","","","","","","","","","","","","","","","","","","","","","","","","","","","","","","","","","","","","","","","","","","","SYN072AAXX  28074 94213 11878 43102 10332 20105 39873 40107 60001 70300 84200;","","","","","","","","","",""
"94213099999","2005-08-29T06:00:00","-17.0166666","128.2166666","205.0","WARMUN, AS","FM-12","4","","53","69","","","","","58","","29.94","29.25","16.16","60","000","","0","","","","","","","","","","","","","","","","","","","","","","","","","","","","","","","","","","","","","","","","","","","","","","","","","","","","","","","","","","","","","","","","","","","","","","","","","","","","","","","","","","","","","","","","","","","SYN066AAXX  28224 94213 41676 60000 10204 20118 39904 40139 70111 86100;","","","","","","","","","",""
"94213099999","2005-08-29T09:00:00","-17.0166666","128.2166666","205.0","WARMUN, AS","FM-12","4","","50","87","","","","","28","CLR:00","29.96","29.27","16.16","65","020","","11","","","","","","","","","","","","","","","","","","","","","","","","","","","","","","","","","","","","","","","","","","","","","","","","","","","","","","","","","","","","","","","","","","","","","","","","","","","","","","","","","","","","","","","","","","","SYN076AAXX  29014 94213 11976 00210 10308 20102 39912 40147 60004 70111 333 70000;","","","","","","","","","",""
"94213099999","2005-08-29T15:00:00","-17.0166666","128.2166666","205.0","WARMUN, AS","FM-12","4","","55","92","","","","","28","","29.82","29.13","17.40","69","340","","14","","","","","","","","","","","","","","","","","","","","","","","","","","","","","","","","","","","","","","","","","","","","","","","","","","","","","","","","","","","","","","","","","","","","","","","","","","","","","","","","","","","","","","","","","","","SYN072AAXX  29074 94213 11878 43412 10335 20127 39863 40097 60001 70311 84100;","","","","","","","","","",""
"94213099999","2005-08-30T06:00:00","-17.0166666","128.2166666","205.0","WARMUN, AS","FM-12","4","","60","72","","","","","66","","29.90","29.21","13.67","65","000","","0","","","","","","","","","","","","","","","","","","","","","","","","","","","","","","","","","","","","","","","","","","","","","","","","","","","","","","","","","","","","","","","","","","","","","","","","","","","","","","","","","","","","","","","","","","","SYN066AAXX  29224 94213 41/72 60000 10220 20153 39892 40126 70322 86050;","","","","","","","","","",""
"94213099999","2005-08-30T09:00:00","-17.0166666","128.2166666","205.0","WARMUN, AS","FM-12","4","","65","89","","","","","46","","29.92","29.23","14.91","73","310","","5","","","","","","","","","","","","","","","","","","","","","","","","","","","","","","","","","","","","","","","","","","","","","","","","","","","","","","","","","","","","","","","","","","","","","","","","","","","","","","","","","","","","","","","","","","","SYN082AAXX  30014 94213 11/74 43104 10315 20184 39899 40133 60004 70111 84050 333 70000;","","","","","","","","","",""
"94213099999","2005-08-30T15:00:00","-17.0166666","128.2166666","205.0","WARMUN, AS","FM-12","4","","53","94","","","","","25","","29.77","29.08","16.16","68","050","","3","","","","","","","","","","","","","","","","","","","","","","","","","","","","","","","","","","","","","","","","","","","","","","","","","","","","","","","","","","","","","","","","","","","","","","","","","","","","","","","","","","","","","","","","","","","SYN072AAXX  30074 94213 11976 40503 10345 20119 39848 40081 60001 70300 82280;","","","","","","","","","",""
"94213099999","2005-08-31T06:00:00","-17.0166666","128.2166666","205.0","WARMUN, AS","FM-12","4","","63","75","","","","","67","","29.87","29.18","12.43","67","000","","0","","","","","","","","","","","","","","","","","","","","","","","","","","","","","","","","","","","","","","","","","","","","","","","","","","","","","","","","","","","","","","","","","","","","","","","","","","","","","","","","","","","","","","","","","","","SYN066AAXX  30224 94213 41570 70000 10238 20172 39881 40115 70311 83580;","","","","","","","","","",""
"94213099999","2005-08-31T09:00:00","-17.0166666","128.2166666","205.0","WARMUN, AS","FM-12","4","","64","88","","","","","45","","29.89","29.20","15.53","72","270","","3","","","","","","","","","","","","","","","","","","","","","","","","","","","","","","","","","","","","","","","","","","","","","","","","","","","","","","","","","","","","","","","","","","","","","","","","","","","","","","","","","","","","","","","","","","","SYN082AAXX  31014 94213 11/75 12703 10310 20178 39889 40123 60004 70100 81080 333 70000;","","","","","","","","","",""
"94213099999","2005-09-01T09:00:00","-17.0166666","128.2166666","205.0","WARMUN, AS","FM-12","4","","57","89","","","","","34","CLR:00","29.93","29.25","15.53","69","340","","18","","","","","","","","","","","","","","","","","","","","","","","","","","","","","","","","","","","","","","","","","","","","","","","","","","","","","","","","","","","","","","","","","","","","","","","","","","","","","","","","","","","","","","","","","","","SYN076AAXX  01014 94213 11975 03416 10314 20137 39905 40136 60004 70111 333 70000;","","","","","","","","","",""
"94213099999","2005-09-01T15:00:00","-17.0166666","128.2166666","205.0","WARMUN, AS","FM-12","4","","55","93","","","","","28","CLR:00","29.79","29.11","17.40","69","000","","0","","","","","","","","","","","","","","","","","","","","","","","","","","","","","","","","","","","","","","","","","","","","","","","","","","","","","","","","","","","","","","","","","","","","","","","","","","","","","","","","","","","","","","","","","","","SYN066AAXX  01074 94213 11978 00000 10340 20130 39857 40087 60001 70200;","","","","","","","","","",""
"94213099999","2005-09-02T06:00:00","-17.0166666","128.2166666","205.0","WARMUN, AS","FM-12","4","","49","63","","","","","59","","29.92","29.24","14.91","55","000","","0","","","","","","","","","","","","","","","","","","","","","","","","","","","","","","","","","","","","","","","","","","","","","","","","","","","","","","","","","","","","","","","","","","","","","","","","","","","","","","","","","","","","","","","","","","","SYN066AAXX  01224 94213 41/74 10000 10175 20093 39902 40133 70100 80001;","","","","","","","","","",""
"94213099999","2005-09-02T09:00:00","-17.0166666","128.2166666","205.0","WARMUN, AS","FM-12","4","","50","87","","","","","28","CLR:00","29.96","29.28","17.40","65","360","","6","","","","","","","","","","","","","","","","","","","","","","","","","","","","","","","","","","","","","","","","","","","","","","","","","","","","","","","","","","","","","","","","","","","","","","","","","","","","","","","","","","","","","","","","","","","SYN076AAXX  02014 94213 11978 03605 10308 20102 39914 40145 60004 70000 333 70000;","","","","","","","","","",""
"94213099999","2005-09-02T15:00:00","-17.0166666","128.2166666","205.0","WARMUN, AS","FM-12","4","","53","93","","","","","25","CLR:00","29.81","29.13","18.64","68","360","","11","","","","","","","","","","","","","","","","","","","","","","","","","","","","","","","","","","","","","","","","","","","","","","","","","","","","","","","","","","","","","","","","","","","","","","","","","","","","","","","","","","","","","","","","","","","SYN066AAXX  02074 94213 11980 03610 10340 20116 39864 40094 60001 70200;","","","","","","","","","",""
"94213099999","2005-09-03T06:00:00","-17.0166666","128.2166666","205.0","WARMUN, AS","FM-12","4","","53","63","","","","","69","","29.86","29.18","15.53","57","000","","0","","","","","","","","","","","","","","","","","","","","","","","","","","","","","","","","","","","","","","","","","","","","","","","","","","","","","","","","","","","","","","","","","","","","","","","","","","","","","","","","","","","","","","","","","","","SYN066AAXX  02224 94213 41/75 10000 10175 20117 39880 40111 70100 80001;","","","","","","","","","",""
"94213099999","2005-09-03T09:00:00","-17.0166666","128.2166666","205.0","WARMUN, AS","FM-12","4","","45","86","","","","","23","CLR:00","29.91","29.23","17.40","62","050","","9","","","","","","","","","","","","","","","","","","","","","","","","","","","","","","","","","","","","","","","","","","","","","","","","","","","","","","","","","","","","","","","","","","","","","","","","","","","","","","","","","","","","","","","","","","","SYN076AAXX  03014 94213 11978 00508 10301 20070 39897 40128 60004 70200 333 70000;","","","","","","","","","",""
"94213099999","2005-09-03T15:00:00","-17.0166666","128.2166666","205.0","WARMUN, AS","FM-12","4","","45","96","","","","","17","","29.75","29.08","18.64","66","050","","9","","","","","","","","","","","","","","","","","","","","","","","","","","","","","","","","","","","","","","","","","","","","","","","","","","","","","","","","","","","","","","","","","","","","","","","","","","","","","","","","","","","","","","","","","","","SYN072AAXX  03074 94213 11/80 10508 10355 20072 39846 40076 60001 70300 80001;","","","","","","","","","",""
"94213099999","2005-09-04T06:00:00","-17.0166666","128.2166666","205.0","WARMUN, AS","FM-12","4","","54","67","","","","","64","","29.83","29.15","12.43","60","000","","0","","","","","","","","","","","","","","","","","","","","","","","","","","","","","","","","","","","","","","","","","","","","","","","","","","","","","","","","","","","","","","","","","","","","","","","","","","","","","","","","","","","","","","","","","","","SYN066AAXX  03224 94213 41/70 40000 10195 20124 39870 40100 70300 80001;","","","","","","","","","",""
"94213099999","2005-09-04T09:00:00","-17.0166666","128.2166666","205.0","WARMUN, AS","FM-12","4","","64","88","","","","","45","","29.84","29.16","14.91","72","090","","2","","","","","","","","","","","","","","","","","","","","","","","","","","","","","","","","","","","","","","","","","","","","","","","","","","","","","","","","","","","","","","","","","","","","","","","","","","","","","","","","","","","","","","","","","","","SYN082AAXX  04014 94213 11/74 40902 10310 20178 39875 40106 60004 70200 80001 333 70000;","","","","","","","","","",""
"94213099999","2005-09-04T15:00:00","-17.0166666","128.2166666","205.0","WARMUN, AS","FM-12","4","","48","97","","","","","19","","29.71","29.03","17.40","67","270","","2","","","","","","","","","","","","","","","","","","","","","","","","","","","","","","","","","","","","","","","","","","","","","","","","","","","","","","","","","","","","","","","","","","","","","","","","","","","","","","","","","","","","","","","","","","","SYN072AAXX  04074 94213 11878 42702 10360 20091 39832 40062 60001 70300 81101;","","","","","","","","","",""
"94213099999","2005-09-05T06:00:00","-17.0166666","128.2166666","205.0","WARMUN, AS","FM-12","4","","58","70","","","","","66","CLR:00","29.82","29.14","15.53","63","000","","0","","","","","","","","","","","","","","","","","","","","","","","","","","","","","","","","","","","","","","","","","","","","","","","","","","","","","","","","","","","","","","","","","","","","","","","","","","","","","","","","","","","","","","","","","","","SYN060AAXX  04224 94213 41975 00000 10209 20142 39867 40097 70000;","","","","","","","","","",""
"94213099999","2005-09-05T09:00:00","-17.0166666","128.2166666","205.0","WARMUN, AS","FM-12","4","","62","90","","","","","39","CLR:00","29.85","29.16","17.40","72","130","","5","","","","","","","","","","","","","","","","","","","","","","","","","","","","","","","","","","","","","","","","","","","","","","","","","","","","","","","","","","","","","","","","","","","","","","","","","","","","","","","","","","","","","","","","","","","SYN076AAXX  05014 94213 11978 01304 10320 20165 39876 40107 60004 70200 333 70000;","","","","","","","","","",""
"94213099999","2005-09-05T15:00:00","-17.0166666","128.2166666","205.0","WARMUN, AS","FM-12","4","","52","99","","","","","21","","29.73","29.05","18.64","69","050","","9","","","","","","","","","","","","","","","","","","","","","","","","","","","","","","","","","","","","","","","","","","","","","","","","","","","","","","","","","","","","","","","","","","","","","","","","","","","","","","","","","","","","","","","","","","","SYN072AAXX  05074 94213 11980 50508 10370 20109 39837 40067 60001 70322 84140;","","","","","","","","","",""
"94213099999","2005-09-06T06:00:00","-17.0166666","128.2166666","205.0","WARMUN, AS","FM-12","4","","63","74","","","","","67","","29.82","29.14","14.91","67","000","","0","","","","","","","","","","","","","","","","","","","","","","","","","","","","","","","","","","","","","","","","","","","","","","","","","","","","","","","","","","","","","","","","","","","","","","","","","","","","","","","","","","","","","","","","","","","SYN066AAXX  05224 94213 41/74 60000 10235 20170 39868 40098 70311 80001;","","","","","","","","","",""
"94213099999","2005-09-06T09:00:00","-17.0166666","128.2166666","205.0","WARMUN, AS","FM-12","4","","61","90","","","","","38","","","","16.16","","360","","6","","","","","","","","","","","","","","","","","","","","","","","","","","","","","","","","","","","","","","","","","","","","","","","","","","","","","","","","","","","","","","","","","","","","","","","","","","","","","","","","","","","","","","","","","","","SYN082AAXX  06014 94213 11/76 63605 10320 20161 39982 40215 60004 70222 80001 333 70000;","","","","","","","","","",""
"94213099999","2005-09-06T15:00:00","-17.0166666","128.2166666","205.0","WARMUN, AS","FM-12","4","","58","98","","","","","27","","29.72","29.04","18.64","72","310","","6","","","","","","","","","","","","","","","","","","","","","","","","","","","","","","","","","","","","","","","","","","","","","","","","","","","","","","","","","","","","","","","","","","","","","","","","","","","","","","","","","","","","","","","","","","","SYN072AAXX  06074 94213 11980 63105 10366 20145 39835 40065 60001 70222 84201;","","","","","","","","","",""
"94213099999","2005-09-07T06:00:00","-17.0166666","128.2166666","205.0","WARMUN, AS","FM-12","4","","61","77","","","","","57","","29.85","29.16","12.43","67","000","","0","","","","","","","","","","","","","","","","","","","","","","","","","","","","","","","","","","","","","","","","","","","","","","","","","","","","","","","","","","","","","","","","","","","","","","","","","","","","","","","","","","","","","","","","","","","SYN066AAXX  06224 94213 41670 60000 10250 20160 39876 40107 70211 86200;","","","","","","","","","",""
"94213099999","2005-09-07T09:00:00","-17.0166666","128.2166666","205.0","WARMUN, AS","FM-12","4","","63","91","","","","","39","","29.86","29.18","16.16","72","090","","1","","","","","","","","","","","","","","","","","","","","","","","","","","","","","","","","","","","","","","","","","","","","","","","","","","","","","","","","","","","","","","","","","","","","","","","","","","","","","","","","","","","","","","","","","","","SYN082AAXX  07014 94213 11776 10901 10329 20173 39880 40111 60004 70100 81200 333 70000;","","","","","","","","","",""
"94213099999","2005-09-07T15:00:00","-17.0166666","128.2166666","205.0","WARMUN, AS","FM-12","4","","57","96","","","","","27","","29.75","29.08","18.02","71","050","","6","","","","","","","","","","","","","","","","","","","","","","","","","","","","","","","","","","","","","","","","","","","","","","","","","","","","","","","","","","","","","","","","","","","","","","","","","","","","","","","","","","","","","","","","","","","SYN072AAXX  07074 94213 11879 60505 10355 20140 39846 40076 60001 70311 86100;","","","","","","","","","",""
"94213099999","2005-09-08T06:00:00","-17.0166666","128.2166666","205.0","WARMUN, AS","FM-12","4","","65","81","","","","","57","","29.86","29.18","16.16","70","000","","0","","","","","","","","","","","","","","","","","","","","","","","","","","","","","","","","","","","","","","","","","","","","","","","","","","","","","","","","","","","","","","","","","","","","","","","","","","","","","","","","","","","","","","","","","","","SYN066AAXX  07224 94213 41/76 10000 10275 20183 39882 40113 70100 81040;","","","","","","","","","",""
"94213099999","2005-09-08T09:00:00","-17.0166666","128.2166666","205.0","WARMUN, AS","FM-12","4","","62","91","","","","","37","","29.91","29.22","17.40","72","130","","1","","","","","","","","","","","","","","","","","","","","","","","","","","","","","","","","","","","","","","","","","","","","","","","","","","","","","","","","","","","","","","","","","","","","","","","","","","","","","","","","","","","","","","","","","","","SYN082AAXX  08014 94213 11778 21301 10330 20164 39896 40127 60004 70200 81140 333 70000;","","","","","","","","","",""
"94213099999","2005-09-08T15:00:00","-17.0166666","128.2166666","205.0","WARMUN, AS","FM-12","4","","57","98","","","","","26","","29.78","29.10","17.40","71","310","","18","","","","","","","","","","","","","","","","","","","","","","","","","","","","","","","","","","","","","","","","","","","","","","","","","","","","","","","","","","","","","","","","","","","","","","","","","","","","","","","","","","","","","","","","","","","SYN072AAXX  08074 94213 11778 63116 10365 20139 39853 40083 60001 70311 86800;","","","","","","","","","",""
"94213099999","2005-09-09T06:00:00","-17.0166666","128.2166666","205.0","WARMUN, AS","FM-12","4","","62","80","","","","","53","","29.86","29.18","15.53","68","180","","5","","","","","","","","","","","","","","","","","","","","","","","","","","","","","","","","","","","","","","","","","","","","","","","","","","","","","","","","","","","","","","","","","","","","","","","","","","","","","","","","","","","","","","","","","","","SYN066AAXX  08224 94213 41675 21804 10269 20164 39882 40113 70322 82500;","","","","","","","","","",""
"94213099999","2005-09-09T09:00:00","-17.0166666","128.2166666","205.0","WARMUN, AS","FM-12","4","","60","92","","","","","33","","29.89","29.21","17.40","71","180","","7","","","","","","","","","","","","","","","","","","","","","","","","","","","","","","","","","","","","","","","","","","","","","","","","","","","","","","","","","","","","","","","","","","","","","","","","","","","","","","","","","","","","","","","","","","","SYN082AAXX  09014 94213 11878 61806 10336 20154 39892 40123 60004 70322 84209 333 70000;","","","","","","","","","",""
"94213099999","2005-09-09T15:00:00","-17.0166666","128.2166666","205.0","WARMUN, AS","FM-12","4","","58","97","","","","","27","","29.74","29.06","17.40","72","360","","7","","","","","","","","","","","","","","","","","","","","","","","","","","","","","","","","","","","","","","","","","","","","","","","","","","","","","","","","","","","","","","","","","","","","","","","","","","","","","","","","","","","","","","","","","","","SYN072AAXX  09074 94213 11778 63606 10360 20143 39842 40072 60001 70322 86800;","","","","","","","","","",""
"94213099999","2005-09-10T06:00:00","-17.0166666","128.2166666","205.0","WARMUN, AS","FM-12","4","","70","75","","","","","82","","29.86","29.18","14.91","72","000","","0","","","","","","","","","","","","","","","","","","","","","","","","","","","","","","","","","","","","","","","","","","","","","","","","","","","","","","","","","","","","","","","","","","","","","","","","","","","","","","","","","","","","","","","","","","","SYN066AAXX  09224 94213 41474 70000 10241 20209 39880 40111 70322 84450;","","","","","","","","","",""
"94213099999","2005-09-10T09:00:00","-17.0166666","128.2166666","205.0","WARMUN, AS","FM-12","4","","56","89","","","","","34","","29.88","29.20","16.78","68","000","","0","","","","","","","","","","","","","","","","","","","","","","","","","","","","","","","","","","","","","","","","","","","","","","","","","","","","","","","","","","","","","","","","","","","","","","","","","","","","","","","","","","","","","","","","","","","SYN082AAXX  10014 94213 11777 60000 10314 20135 39889 40120 60004 70111 84460 333 70000;","","","","","","","","","",""
"94213099999","2005-09-10T15:00:00","-17.0166666","128.2166666","205.0","WARMUN, AS","FM-12","4","","53","95","","","","","25","","29.74","29.06","18.02","69","000","","0","","","","","","","","","","","","","","","","","","","","","","","","","","","","","","","","","","","","","","","","","","","","","","","","","","","","","","","","","","","","","","","","","","","","","","","","","","","","","","","","","","","","","","","","","","","SYN072AAXX  10074 94213 11979 50000 10350 20119 39840 40070 60001 70122 85100;","","","","","","","","","",""
"94213099999","2005-09-11T06:00:00","-17.0166666","128.2166666","205.0","WARMUN, AS","FM-12","4","","45","69","","","","","43","","29.88","29.19","16.16","56","200","","2","","","","","","","","","","","","","","","","","","","","","","","","","","","","","","","","","","","","","","","","","","","","","","","","","","","","","","","","","","","","","","","","","","","","","","","","","","","","","","","","","","","","","","","","","","","SYN066AAXX  10224 94213 41/76 42002 10206 20074 39886 40117 70111 84080;","","","","","","","","","",""
"94213099999","2005-09-11T09:00:00","-17.0166666","128.2166666","205.0","WARMUN, AS","FM-12","4","","37","86","","","","","18","","29.89","29.21","16.78","60","250","","2","","","","","","","","","","","","","","","","","","","","","","","","","","","","","","","","","","","","","","","","","","","","","","","","","","","","","","","","","","","","","","","","","","","","","","","","","","","","","","","","","","","","","","","","","","","SYN082AAXX  11014 94213 11/77 22502 10299 20030 39891 40122 60004 70100 82080 333 70000;","","","","","","","","","",""
"94213099999","2005-09-11T15:00:00","-17.0166666","128.2166666","205.0","WARMUN, AS","FM-12","4","","45","94","","","","","18","","29.73","29.05","18.02","65","160","","5","","","","","","","","","","","","","","","","","","","","","","","","","","","","","","","","","","","","","","","","","","","","","","","","","","","","","","","","","","","","","","","","","","","","","","","","","","","","","","","","","","","","","","","","","","","SYN072AAXX  11074 94213 11/79 21604 10346 20073 39839 40069 60001 70100 81042;","","","","","","","","","",""
"94213099999","2005-09-12T06:00:00","-17.0166666","128.2166666","205.0","WARMUN, AS","FM-12","4","","48","65","","","","","53","CLR:00","29.82","29.14","17.40","56","000","","0","","","","","","","","","","","","","","","","","","","","","","","","","","","","","","","","","","","","","","","","","","","","","","","","","","","","","","","","","","","","","","","","","","","","","","","","","","","","","","","","","","","","","","","","","","","SYN060AAXX  11224 94213 41978 00000 10186 20089 39869 40099 70000;","","","","","","","","","",""
"94213099999","2005-09-12T09:00:00","-17.0166666","128.2166666","205.0","WARMUN, AS","FM-12","4","","49","90","","","","","24","CLR:00","29.85","29.17","18.02","65","050","","1","","","","","","","","","","","","","","","","","","","","","","","","","","","","","","","","","","","","","","","","","","","","","","","","","","","","","","","","","","","","","","","","","","","","","","","","","","","","","","","","","","","","","","","","","","","SYN076AAXX  12014 94213 11979 00501 10320 20092 39879 40110 60004 70200 333 70000;","","","","","","","","","",""
"94213099999","2005-09-12T15:00:00","-17.0166666","128.2166666","205.0","WARMUN, AS","FM-12","4","","57","96","","","","","27","","29.69","29.02","16.78","71","310","","7","","","","","","","","","","","","","","","","","","","","","","","","","","","","","","","","","","","","","","","","","","","","","","","","","","","","","","","","","","","","","","","","","","","","","","","","","","","","","","","","","","","","","","","","","","","SYN072AAXX  12074 94213 11877 73106 10356 20139 39826 40055 60001 70311 83230;","","","","","","","","","",""
"94213099999","2005-09-13T06:00:00","-17.0166666","128.2166666","205.0","WARMUN, AS","FM-12","4","","58","78","","","","","51","CLR:00","29.85","29.16","11.18","66","000","","0","","","","","","","","","","","","","","","","","","","","","","","","","","","","","","","","","","","","","","","","","","","","","","","","","","","","","","","","","","","","","","","","","","","","","","","","","","","","","","","","","","","","","","","","","","","SYN060AAXX  12224 94213 41968 00000 10255 20147 39876 40107 70100;","","","","","","","","","",""
"94213099999","2005-09-13T09:00:00","-17.0166666","128.2166666","205.0","WARMUN, AS","FM-12","4","","54","91","","","","","29","","","","16.16","","180","","3","","","","","","","","","","","","","","","","","","","","","","","","","","","","","","","","","","","","","","","","","","","","","","","","","","","","","","","","","","","","","","","","","","","","","","","","","","","","","","","","","","","","","","","","","","","SYN070AAXX  13014 94213 11/76 21803 10327 20122 60004 70300 80001 333 70000;","","","","","","","","","",""
"94213099999","2005-09-13T15:00:00","-17.0166666","128.2166666","205.0","WARMUN, AS","FM-12","4","","51","99","","","","","20","","29.75","29.07","17.40","69","310","","5","","","","","","","","","","","","","","","","","","","","","","","","","","","","","","","","","","","","","","","","","","","","","","","","","","","","","","","","","","","","","","","","","","","","","","","","","","","","","","","","","","","","","","","","","","","SYN072AAXX  13074 94213 11678 33104 10372 20107 39845 40075 60001 70300 83200;","","","","","","","","","",""
"94213099999","2005-09-14T06:00:00","-17.0166666","128.2166666","205.0","WARMUN, AS","FM-12","4","","58","73","","","","","60","","29.91","29.23","14.91","64","000","","0","","","","","","","","","","","","","","","","","","","","","","","","","","","","","","","","","","","","","","","","","","","","","","","","","","","","","","","","","","","","","","","","","","","","","","","","","","","","","","","","","","","","","","","","","","","SYN066AAXX  13224 94213 41/74 20000 10229 20147 39899 40130 70100 80001;","","","","","","","","","",""
"94213099999","2005-09-14T09:00:00","-17.0166666","128.2166666","205.0","WARMUN, AS","FM-12","4","","57","92","","","","","31","","29.94","29.26","16.16","70","180","","6","","","","","","","","","","","","","","","","","","","","","","","","","","","","","","","","","","","","","","","","","","","","","","","","","","","","","","","","","","","","","","","","","","","","","","","","","","","","","","","","","","","","","","","","","","","SYN082AAXX  14014 94213 11/76 11805 10335 20139 39907 40138 60004 70100 80001 333 70000;","","","","","","","","","",""
"94213099999","2005-09-14T15:00:00","-17.0166666","128.2166666","205.0","WARMUN, AS","FM-12","4","","51","99","","","","","20","","29.78","29.10","18.64","69","360","","7","","","","","","","","","","","","","","","","","","","","","","","","","","","","","","","","","","","","","","","","","","","","","","","","","","","","","","","","","","","","","","","","","","","","","","","","","","","","","","","","","","","","","","","","","","","SYN072AAXX  14074 94213 11980 43606 10372 20107 39854 40084 60001 70300 84100;","","","","","","","","","",""
"94213099999","2005-09-15T06:00:00","-17.0166666","128.2166666","205.0","WARMUN, AS","FM-12","4","","56","81","","","","","43","CLR:00","29.88","29.19","16.16","66","000","","0","","","","","","","","","","","","","","","","","","","","","","","","","","","","","","","","","","","","","","","","","","","","","","","","","","","","","","","","","","","","","","","","","","","","","","","","","","","","","","","","","","","","","","","","","","","SYN060AAXX  14224 94213 41976 00000 10272 20134 39886 40117 70000;","","","","","","","","","",""
"94213099999","2005-09-15T09:00:00","-17.0166666","128.2166666","205.0","WARMUN, AS","FM-12","4","","59","93","","","","","32","CLR:00","29.90","29.21","17.40","71","230","","7","","","","","","","","","","","","","","","","","","","","","","","","","","","","","","","","","","","","","","","","","","","","","","","","","","","","","","","","","","","","","","","","","","","","","","","","","","","","","","","","","","","","","","","","","","","SYN076AAXX  15014 94213 11978 02306 10340 20151 39893 40124 60004 70200 333 70000;","","","","","","","","","",""
"94213099999","2005-09-15T15:00:00","-17.0166666","128.2166666","205.0","WARMUN, AS","FM-12","4","","62","90","","","","","40","","29.75","29.07","18.64","72","000","","0","","","","","","","","","","","","","","","","","","","","","","","","","","","","","","","","","","","","","","","","","","","","","","","","","","","","","","","","","","","","","","","","","","","","","","","","","","","","","","","","","","","","","","","","","","","SYN072AAXX  15074 94213 11780 40000 10322 20168 39843 40073 60001 70311 84200;","","","","","","","","","",""
"94213099999","2005-09-16T06:00:00","-17.0166666","128.2166666","205.0","WARMUN, AS","FM-12","4","","56","77","","","","","47","","29.90","29.22","15.53","64","160","","2","","","","","","","","","","","","","","","","","","","","","","","","","","","","","","","","","","","","","","","","","","","","","","","","","","","","","","","","","","","","","","","","","","","","","","","","","","","","","","","","","","","","","","","","","","","SYN066AAXX  15224 94213 41/75 21602 10251 20131 39895 40126 70100 81088;","","","","","","","","","",""
"94213099999","2005-09-16T09:00:00","-17.0166666","128.2166666","205.0","WARMUN, AS","FM-12","4","","40","87","","","","","19","CLR:00","29.98","29.29","17.40","61","130","","11","","","","","","","","","","","","","","","","","","","","","","","","","","","","","","","","","","","","","","","","","","","","","","","","","","","","","","","","","","","","","","","","","","","","","","","","","","","","","","","","","","","","","","","","","","","SYN076AAXX  16014 94213 11978 01310 10305 20046 39920 40152 60004 70000 333 70000;","","","","","","","","","",""
"94213099999","2005-09-16T15:00:00","-17.0166666","128.2166666","205.0","WARMUN, AS","FM-12","4","","59","95","","","","","30","","29.83","29.15","17.40","71","110","","2","","","","","","","","","","","","","","","","","","","","","","","","","","","","","","","","","","","","","","","","","","","","","","","","","","","","","","","","","","","","","","","","","","","","","","","","","","","","","","","","","","","","","","","","","","","SYN072AAXX  16074 94213 11/78 11102 10350 20148 39872 40102 60001 70300 81040;","","","","","","","","","",""
"94213099999","2005-09-17T06:00:00","-17.0166666","128.2166666","205.0","WARMUN, AS","FM-12","4","","45","79","","","","","30","","29.95","29.27","13.67","60","130","","5","","","","","","","","","","","","","","","","","","","","","","","","","","","","","","","","","","","","","","","","","","","","","","","","","","","","","","","","","","","","","","","","","","","","","","","","","","","","","","","","","","","","","","","","","","","SYN066AAXX  16224 94213 41/72 21304 10260 20072 39911 40142 70300 82050;","","","","","","","","","",""
"94213099999","2005-09-17T09:00:00","-17.0166666","128.2166666","205.0","WARMUN, AS","FM-12","4","","54","88","","","","","32","","29.99","29.31","15.53","67","360","","9","","","","","","","","","","","","","","","","","","","","","","","","","","","","","","","","","","","","","","","","","","","","","","","","","","","","","","","","","","","","","","","","","","","","","","","","","","","","","","","","","","","","","","","","","","","SYN082AAXX  17014 94213 11/75 43608 10310 20125 39925 40157 60004 70300 84050 333 70000;","","","","","","","","","",""
"94213099999","2005-09-17T15:00:00","-17.0166666","128.2166666","205.0","WARMUN, AS","FM-12","4","","56","97","","","","","25","","29.83","29.15","17.40","71","130","","3","","","","","","","","","","","","","","","","","","","","","","","","","","","","","","","","","","","","","","","","","","","","","","","","","","","","","","","","","","","","","","","","","","","","","","","","","","","","","","","","","","","","","","","","","","","SYN072AAXX  17074 94213 11978 71303 10360 20131 39873 40103 60001 70311 87200;","","","","","","","","","",""
"94213099999","2005-09-18T06:00:00","-17.0166666","128.2166666","205.0","WARMUN, AS","FM-12","4","","71","75","","","","","87","","29.98","29.30","14.91","72","","","","","","","","","","","","","","","","","","","","","","","","","","","","","","","","","","","","","","","","","","","","","","","","","","","","","","","","","","","","","","","","","","","","","","","","","","","","","","","","","","","","","","","","","","","","","","SYN066AAXX  17224 94213 41/74 736// 10240 20217 39922 40154 70222 8703/;","","","","","","","","","",""
"94213099999","2005-09-18T09:00:00","-17.0166666","128.2166666","205.0","WARMUN, AS","FM-12","4","","69","82","","","","","65","","30.02","29.34","14.91","73","360","","1","","","","","","","","","","","","","","","","","","","","","","","","","","","","","","","","","","","","","","","","","","","","","","","","","","","","","","","","","","","","","","","","","","","","","","","","","","","","","","","","","","","","","","","","","","","SYN082AAXX  18014 94213 11/74 63601 10279 20207 39935 40167 60324 70122 86050 333 70320;","","","","","","","","","",""
"94213099999","2005-09-18T15:00:00","-17.0166666","128.2166666","205.0","WARMUN, AS","FM-12","4","","68","83","","","","","60","","29.88","29.20","15.53","73","","","","","","","","","","","","","","","","","","","","","","","","","","","","","","","","","","","","","","","","","","","","","","","","","","","","","","","","","","","","","","","","","","","","","","","","","","","","","","","","","","","","","","","","","","","","","","SYN072AAXX  18074 94213 11/75 836// 10285 20200 39888 40119 69921 70322 88030;","","","","","","","","","",""
"94213099999","2005-09-19T06:00:00","-17.0166666","128.2166666","205.0","WARMUN, AS","FM-12","4","","65","75","","","","","71","","30.04","29.36","11.18","69","130","","3","","","","","","","","","","","","","","","","","","","","","","","","","","","","","","","","","","","","","","","","","","","","","","","","","","","","","","","","","","","","","","","","","","","","","","","","","","","","","","","","","","","","","","","","","","","SYN066AAXX  18224 94213 41568 61303 10240 20185 39941 40173 70122 83580;","","","","","","","","","",""
"94213099999","2005-09-19T09:00:00","-17.0166666","128.2166666","205.0","WARMUN, AS","FM-12","4","","59","85","","","","","41","","30.08","29.39","12.43","68","070","","11","","","","","","","","","","","","","","","","","","","","","","","","","","","","","","","","","","","","","","","","","","","","","","","","","","","","","","","","","","","","","","","","","","","","","","","","","","","","","","","","","","","","","","","","","","","SYN082AAXX  19014 94213 11770 40710 10295 20148 39954 40186 69924 70122 82550 333 70002;","","","","","","","","","",""
"94213099999","2005-09-19T15:00:00","-17.0166666","128.2166666","205.0","WARMUN, AS","FM-12","4","","48","92","","","","","22","","29.93","29.24","18.64","66","050","","3","","","","","","","","","","","","","","","","","","","","","","","","","","","","","","","","","","","","","","","","","","","","","","","","","","","","","","","","","","","","","","","","","","","","","","","","","","","","","","","","","","","","","","","","","","","SYN072AAXX  19074 94213 11/80 10503 10335 20088 39903 40134 60001 70100 80008;","","","","","","","","","",""
"94213099999","2005-09-20T06:00:00","-17.0166666","128.2166666","205.0","WARMUN, AS","FM-12","4","","60","69","","","","","73","","30.03","29.34","12.43","64","000","","0","","","","","","","","","","","","","","","","","","","","","","","","","","","","","","","","","","","","","","","","","","","","","","","","","","","","","","","","","","","","","","","","","","","","","","","","","","","","","","","","","","","","","","","","","","","SYN066AAXX  19224 94213 41/70 30000 10205 20155 39937 40169 70300 83080;","","","","","","","","","",""
"94213099999","2005-09-20T09:00:00","-17.0166666","128.2166666","205.0","WARMUN, AS","FM-12","4","","43","87","","","","","22","CLR:00","30.06","29.37","16.16","62","050","","6","","","","","","","","","","","","","","","","","","","","","","","","","","","","","","","","","","","","","","","","","","","","","","","","","","","","","","","","","","","","","","","","","","","","","","","","","","","","","","","","","","","","","","","","","","","SYN076AAXX  20014 94213 11976 00505 10305 20062 39947 40179 60004 70000 333 70000;","","","","","","","","","",""
"94213099999","2005-09-20T15:00:00","-17.0166666","128.2166666","205.0","WARMUN, AS","FM-12","4","","44","96","","","","","17","CLR:00","29.89","29.21","17.40","65","290","","5","","","","","","","","","","","","","","","","","","","","","","","","","","","","","","","","","","","","","","","","","","","","","","","","","","","","","","","","","","","","","","","","","","","","","","","","","","","","","","","","","","","","","","","","","","","SYN066AAXX  20074 94213 11978 02904 10355 20065 39890 40121 60001 70200;","","","","","","","","","",""
"94213099999","2005-09-21T06:00:00","-17.0166666","128.2166666","205.0","WARMUN, AS","FM-12","4","","57","71","","","","","61","","29.96","29.28","15.53","63","000","","0","","","","","","","","","","","","","","","","","","","","","","","","","","","","","","","","","","","","","","","","","","","","","","","","","","","","","","","","","","","","","","","","","","","","","","","","","","","","","","","","","","","","","","","","","","","SYN066AAXX  20224 94213 41675 60000 10216 20137 39915 40146 70311 82530;","","","","","","","","","",""
"94213099999","2005-09-21T09:00:00","-17.0166666","128.2166666","205.0","WARMUN, AS","FM-12","4","","47","90","","","","","22","","30.00","29.32","16.16","65","340","","3","","","","","","","","","","","","","","","","","","","","","","","","","","","","","","","","","","","","","","","","","","","","","","","","","","","","","","","","","","","","","","","","","","","","","","","","","","","","","","","","","","","","","","","","","","","SYN082AAXX  21014 94213 11/76 43403 10325 20084 39928 40160 60004 70111 84030 333 70000;","","","","","","","","","",""
"94213099999","2005-09-21T15:00:00","-17.0166666","128.2166666","205.0","WARMUN, AS","FM-12","4","","39","98","","","","","13","","29.87","29.19","17.40","64","340","","2","","","","","","","","","","","","","","","","","","","","","","","","","","","","","","","","","","","","","","","","","","","","","","","","","","","","","","","","","","","","","","","","","","","","","","","","","","","","","","","","","","","","","","","","","","","SYN072AAXX  21074 94213 11/78 13402 10365 20038 39884 40115 60001 70100 81080;","","","","","","","","","",""
"94213099999","2005-09-22T06:00:00","-17.0166666","128.2166666","205.0","WARMUN, AS","FM-12","4","","58","69","","","","","69","","29.99","29.31","11.18","62","130","","3","","","","","","","","","","","","","","","","","","","","","","","","","","","","","","","","","","","","","","","","","","","","","","","","","","","","","","","","","","","","","","","","","","","","","","","","","","","","","","","","","","","","","","","","","","","SYN066AAXX  21224 94213 41/68 11303 10205 20145 39924 40156 70200 80008;","","","","","","","","","",""
"94213099999","2005-09-22T09:00:00","-17.0166666","128.2166666","205.0","WARMUN, AS","FM-12","4","","39","92","","","","","16","CLR:00","30.02","29.33","15.53","62","360","","7","","","","","","","","","","","","","","","","","","","","","","","","","","","","","","","","","","","","","","","","","","","","","","","","","","","","","","","","","","","","","","","","","","","","","","","","","","","","","","","","","","","","","","","","","","","SYN076AAXX  22014 94213 11975 03606 10335 20040 39933 40165 60004 70000 333 70000;","","","","","","","","","",""
"94213099999","2005-09-22T15:00:00","-17.0166666","128.2166666","205.0","WARMUN, AS","FM-12","4","","37","99","","","","","11","CLR:00","29.87","29.18","18.64","64","050","","6","","","","","","","","","","","","","","","","","","","","","","","","","","","","","","","","","","","","","","","","","","","","","","","","","","","","","","","","","","","","","","","","","","","","","","","","","","","","","","","","","","","","","","","","","","","SYN066AAXX  22074 94213 11980 00505 10375 20027 39883 40114 60001 70222;","","","","","","","","","",""
"94213099999","2005-09-23T06:00:00","-17.0166666","128.2166666","205.0","WARMUN, AS","FM-12","4","","54","67","","","","","64","CLR:00","29.95","29.27","16.16","60","","","","","","","","","","","","","","","","","","","","","","","","","","","","","","","","","","","","","","","","","","","","","","","","","","","","","","","","","","","","","","","","","","","","","","","","","","","","","","","","","","","","","","","","","","","","","","SYN060AAXX  22224 94213 41976 036// 10193 20124 39911 40142 70000;","","","","","","","","","",""
"94213099999","2005-09-23T09:00:00","-17.0166666","128.2166666","205.0","WARMUN, AS","FM-12","4","","54","94","","","","","26","CLR:00","29.98","29.29","16.78","69","","","","","","","","","","","","","","","","","","","","","","","","","","","","","","","","","","","","","","","","","","","","","","","","","","","","","","","","","","","","","","","","","","","","","","","","","","","","","","","","","","","","","","","","","","","","","","SYN076AAXX  23014 94213 11977 036// 10342 20121 39920 40152 60004 70000 333 70000;","","","","","","","","","",""
"94213099999","2005-09-23T15:00:00","-17.0166666","128.2166666","205.0","WARMUN, AS","FM-12","4","","42","99","","","","","14","","29.83","29.15","16.16","66","230","","1","","","","","","","","","","","","","","","","","","","","","","","","","","","","","","","","","","","","","","","","","","","","","","","","","","","","","","","","","","","","","","","","","","","","","","","","","","","","","","","","","","","","","","","","","","","SYN072AAXX  23074 94213 11/76 52301 10375 20057 39873 40103 60001 70322 85080;","","","","","","","","","",""
"94213099999","2005-09-24T06:00:00","-17.0166666","128.2166666","205.0","WARMUN, AS","FM-12","4","","63","73","","","","","71","CLR:00","29.92","29.24","13.67","67","000","","0","","","","","","","","","","","","","","","","","","","","","","","","","","","","","","","","","","","","","","","","","","","","","","","","","","","","","","","","","","","","","","","","","","","","","","","","","","","","","","","","","","","","","","","","","","","SYN060AAXX  23224 94213 41972 00000 10229 20173 39902 40133 70011;","","","","","","","","","",""
"94213099999","2005-09-24T15:00:00","-17.0166666","128.2166666","205.0","WARMUN, AS","FM-12","4","","52","98","","","","","21","","29.78","29.10","12.43","69","050","","3","","","","","","","","","","","","","","","","","","","","","","","","","","","","","","","","","","","","","","","","","","","","","","","","","","","","","","","","","","","","","","","","","","","","","","","","","","","","","","","","","","","","","","","","","","","SYN072AAXX  24074 94213 11970 50503 10369 20113 39855 40085 60004 70222 84280;","","","","","","","","","",""
"94213099999","2005-09-25T06:00:00","-17.0166666","128.2166666","205.0","WARMUN, AS","FM-12","4","","68","82","","","","","61","","29.86","29.18","12.43","73","000","","0","","","","","","","","","","","","","","","","","","","","","","","","","","","","","","","","","","","","","","","","","","","","","","","","","","","","","","","","","","","","","","","","","","","","","","","","","","","","","","","","","","","","","","","","","","","SYN066AAXX  24224 94213 41/70 80000 10280 20199 39882 40113 70322 88030;","","","","","","","","","",""
"94213099999","2005-09-25T09:00:00","-17.0166666","128.2166666","205.0","WARMUN, AS","FM-12","4","","68","92","","","","","45","","29.87","29.19","13.67","75","000","","0","","","","","","","","","","","","","","","","","","","","","","","","","","","","","","","","","","","","","","","","","","","","","","","","","","","","","","","","","","","","","","","","","","","","","","","","","","","","","","","","","","","","","","","","","","","SYN082AAXX  25014 94213 11/72 70000 10335 20200 39885 40116 60000 70222 87080 333 7////;","","","","","","","","","",""
"94213099999","2005-09-25T15:00:00","-17.0166666","128.2166666","205.0","WARMUN, AS","FM-12","4","","56","96","","","","","27","","29.75","29.07","13.67","70","050","","5","","","","","","","","","","","","","","","","","","","","","","","","","","","","","","","","","","","","","","","","","","","","","","","","","","","","","","","","","","","","","","","","","","","","","","","","","","","","","","","","","","","","","","","","","","","SYN072AAXX  25074 94213 11/72 60504 10355 20135 39844 40075 60001 7021/ 86080;","","","","","","","","","",""
"94213099999","2005-09-26T06:00:00","-17.0166666","128.2166666","205.0","WARMUN, AS","FM-12","4","","70","78","","","","","76","","29.83","29.15","16.16","73","000","","0","","","","","","","","","","","","","","","","","","","","","","","","","","","","","","","","","","","","","","","","","","","","","","","","","","","","","","","","","","","","","","","","","","","","","","","","","","","","","","","","","","","","","","","","","","","SYN066AAXX  25224 94213 41476 50000 10256 20211 39872 40102 70222 85100;","","","","","","","","","",""
"94213099999","2005-09-26T09:00:00","-17.0166666","128.2166666","205.0","WARMUN, AS","FM-12","4","","65","93","","","","","40","","29.87","29.19","14.91","74","340","","2","","","","","","","","","","","","","","","","","","","","","","","","","","","","","","","","","","","","","","","","","","","","","","","","","","","","","","","","","","","","","","","","","","","","","","","","","","","","","","","","","","","","","","","","","","","SYN082AAXX  26014 94213 11/74 13402 10340 20184 39885 40116 60004 70100 80008 333 70000;","","","","","","","","","",""
"94213099999","2005-09-26T15:00:00","-17.0166666","128.2166666","205.0","WARMUN, AS","FM-12","4","","54","101","","","","","21","","29.75","29.07","13.67","71","340","","6","","","","","","","","","","","","","","","","","","","","","","","","","","","","","","","","","","","","","","","","","","","","","","","","","","","","","","","","","","","","","","","","","","","","","","","","","","","","","","","","","","","","","","","","","","","SYN072AAXX  26074 94213 11972 53405 10385 20122 39844 40074 60001 70311 85200;","","","","","","","","","",""
"94213099999","2005-09-27T06:00:00","-17.0166666","128.2166666","205.0","WARMUN, AS","FM-12","4","","67","84","","","","","57","","29.86","29.18","12.43","73","340","","5","","","","","","","","","","","","","","","","","","","","","","","","","","","","","","","","","","","","","","","","","","","","","","","","","","","","","","","","","","","","","","","","","","","","","","","","","","","","","","","","","","","","","","","","","","","SYN066AAXX  26224 94213 41/70 83404 10290 20195 39882 40113 70322 88030;","","","","","","","","","",""
"94213099999","2005-09-27T09:00:00","-17.0166666","128.2166666","205.0","WARMUN, AS","FM-12","4","","69","91","","","","","48","","29.92","29.24","13.67","76","050","","8","","","","","","","","","","","","","","","","","","","","","","","","","","","","","","","","","","","","","","","","","","","","","","","","","","","","","","","","","","","","","","","","","","","","","","","","","","","","","","","","","","","","","","","","","","","SYN082AAXX  27014 94213 11/72 70507 10330 20206 39901 40132 60004 70222 87080 333 70000;","","","","","","","","","",""
"94213099999","2005-09-27T15:00:00","-17.0166666","128.2166666","205.0","WARMUN, AS","FM-12","4","","59","100","","","","","26","","29.77","29.09","14.91","73","020","","5","","","","","","","","","","","","","","","","","","","","","","","","","","","","","","","","","","","","","","","","","","","","","","","","","","","","","","","","","","","","","","","","","","","","","","","","","","","","","","","","","","","","","","","","","","","SYN072AAXX  27074 94213 11974 40204 10377 20148 39851 40081 60001 70111 82330;","","","","","","","","","",""
"94213099999","2005-09-28T06:00:00","-17.0166666","128.2166666","205.0","WARMUN, AS","FM-12","4","","67","83","","","","","57","","29.85","29.16","13.67","72","000","","0","","","","","","","","","","","","","","","","","","","","","","","","","","","","","","","","","","","","","","","","","","","","","","","","","","","","","","","","","","","","","","","","","","","","","","","","","","","","","","","","","","","","","","","","","","","SYN066AAXX  27224 94213 41/72 60000 10285 20193 39876 40107 70322 86080;","","","","","","","","","",""
"94213099999","2005-09-28T09:00:00","-17.0166666","128.2166666","205.0","WARMUN, AS","FM-12","4","","66","96","","","","","38","","29.86","29.18","14.91","75","310","","7","","","","","","","","","","","","","","","","","","","","","","","","","","","","","","","","","","","","","","","","","","","","","","","","","","","","","","","","","","","","","","","","","","","","","","","","","","","","","","","","","","","","","","","","","","","SYN082AAXX  28014 94213 11774 53106 10357 20191 39882 40113 60004 70222 83230 333 70000;","","","","","","","","","",""
"94213099999","2005-09-28T15:00:00","-17.0166666","128.2166666","205.0","WARMUN, AS","FM-12","4","","59","100","","","","","25","","29.72","29.04","13.67","73","130","","1","","","","","","","","","","","","","","","","","","","","","","","","","","","","","","","","","","","","","","","","","","","","","","","","","","","","","","","","","","","","","","","","","","","","","","","","","","","","","","","","","","","","","","","","","","","SYN072AAXX  28074 94213 11972 51301 10380 20148 39834 40064 60001 70222 85200;","","","","","","","","","",""
"94213099999","2005-09-29T06:00:00","-17.0166666","128.2166666","205.0","WARMUN, AS","FM-12","4","","65","75","","","","","71","","29.83","29.15","15.53","69","090","","1","","","","","","","","","","","","","","","","","","","","","","","","","","","","","","","","","","","","","","","","","","","","","","","","","","","","","","","","","","","","","","","","","","","","","","","","","","","","","","","","","","","","","","","","","","","SYN066AAXX  28224 94213 41/75 20901 10240 20183 39871 40101 70111 82080;","","","","","","","","","",""
"94213099999","2005-09-29T09:00:00","-17.0166666","128.2166666","205.0","WARMUN, AS","FM-12","4","","64","93","","","","","38","","29.86","29.18","13.67","73","340","","3","","","","","","","","","","","","","","","","","","","","","","","","","","","","","","","","","","","","","","","","","","","","","","","","","","","","","","","","","","","","","","","","","","","","","","","","","","","","","","","","","","","","","","","","","","","SYN082AAXX  29014 94213 11/72 13403 10340 20178 39880 40111 60004 70100 81080 333 70000;","","","","","","","","","",""
"94213099999","2005-09-29T15:00:00","-17.0166666","128.2166666","205.0","WARMUN, AS","FM-12","4","","58","101","","","","","24","","29.71","29.03","15.53","73","310","","9","","","","","","","","","","","","","","","","","","","","","","","","","","","","","","","","","","","","","","","","","","","","","","","","","","","","","","","","","","","","","","","","","","","","","","","","","","","","","","","","","","","","","","","","","","","SYN072AAXX  29074 94213 11975 53108 10385 20147 39832 40062 60001 70311 84280;","","","","","","","","","",""
"94213099999","2005-09-30T06:00:00","-17.0166666","128.2166666","205.0","WARMUN, AS","FM-12","4","","67","81","","","","","62","","29.88","29.20","15.53","72","000","","0","","","","","","","","","","","","","","","","","","","","","","","","","","","","","","","","","","","","","","","","","","","","","","","","","","","","","","","","","","","","","","","","","","","","","","","","","","","","","","","","","","","","","","","","","","","SYN066AAXX  29224 94213 41875 60000 10272 20192 39889 40120 70222 84290;","","","","","","","","","",""
"94213099999","2005-09-30T09:00:00","-17.0166666","128.2166666","205.0","WARMUN, AS","FM-12","4","","65","94","","","","","39","","29.91","29.23","14.91","74","050","","1","","","","","","","","","","","","","","","","","","","","","","","","","","","","","","","","","","","","","","","","","","","","","","","","","","","","","","","","","","","","","","","","","","","","","","","","","","","","","","","","","","","","","","","","","","","SYN082AAXX  30014 94213 11/74 40501 10345 20185 39899 40130 60004 70111 84080 333 70000;","","","","","","","","","",""
"94213099999","2005-09-30T15:00:00","-17.0166666","128.2166666","205.0","WARMUN, AS","FM-12","4","","57","101","","","","","23","","29.76","29.08","15.53","72","050","","2","","","","","","","","","","","","","","","","","","","","","","","","","","","","","","","","","","","","","","","","","","","","","","","","","","","","","","","","","","","","","","","","","","","","","","","","","","","","","","","","","","","","","","","","","","","SYN072AAXX  30074 94213 11975 50502 10385 20137 39849 40079 60001 70322 85200;","","","","","","","","","",""
"94213099999","2005-10-01T06:00:00","-17.0166666","128.2166666","205.0","WARMUN, AS","FM-12","4","","69","80","","","","","70","","29.90","29.23","16.16","73","000","","0","","","","","","","","","","","","","","","","","","","","","","","","","","","","","","","","","","","","","","","","","","","","","","","","","","","","","","","","","","","","","","","","","","","","","","","","","","","","","","","","","","","","","","","","","","","SYN066AAXX  30224 94213 41976 50000 10265 20206 39897 40125 70222 85200;","","","","","","","","","",""
"94213099999","2005-10-01T09:00:00","-17.0166666","128.2166666","205.0","WARMUN, AS","FM-12","4","","65","95","","","","","38","","29.94","29.26","15.53","75","360","","2","","","","","","","","","","","","","","","","","","","","","","","","","","","","","","","","","","","","","","","","","","","","","","","","","","","","","","","","","","","","","","","","","","","","","","","","","","","","","","","","","","","","","","","","","","","SYN082AAXX  01014 94213 11975 53602 10348 20183 39909 40138 60004 70222 84280 333 70000;","","","","","","","","","",""
"94213099999","2005-10-01T15:00:00","-17.0166666","128.2166666","205.0","WARMUN, AS","FM-12","4","","58","102","","","","","23","","29.76","29.09","15.53","73","050","","1","","","","","","","","","","","","","","","","","","","","","","","","","","","","","","","","","","","","","","","","","","","","","","","","","","","","","","","","","","","","","","","","","","","","","","","","","","","","","","","","","","","","","","","","","","","SYN072AAXX  01074 94213 11775 30501 10390 20143 39850 40077 60001 70211 83200;","","","","","","","","","",""
"94213099999","2005-10-02T06:00:00","-17.0166666","128.2166666","205.0","WARMUN, AS","FM-12","4","","65","78","","","","","65","","29.84","29.17","16.16","70","","","","","","","","","","","","","","","","","","","","","","","","","","","","","","","","","","","","","","","","","","","","","","","","","","","","","","","","","","","","","","","","","","","","","","","","","","","","","","","","","","","","","","","","","","","","","","SYN066AAXX  01224 94213 41/76 1//// 10255 20184 39878 40106 70100 81080;","","","","","","","","","",""
"94213099999","2005-10-02T09:00:00","-17.0166666","128.2166666","205.0","WARMUN, AS","FM-12","4","","63","95","","","","","34","","29.87","29.20","15.53","73","290","","2","","","","","","","","","","","","","","","","","","","","","","","","","","","","","","","","","","","","","","","","","","","","","","","","","","","","","","","","","","","","","","","","","","","","","","","","","","","","","","","","","","","","","","","","","","","SYN082AAXX  02014 94213 11/75 12902 10350 20170 39888 40116 60004 70200 81030 333 70000;","","","","","","","","","",""
"94213099999","2005-10-02T15:00:00","-17.0166666","128.2166666","205.0","WARMUN, AS","FM-12","4","","45","102","","","","","14","","29.75","29.08","15.53","68","360","","13","","","","","","","","","","","","","","","","","","","","","","","","","","","","","","","","","","","","","","","","","","","","","","","","","","","","","","","","","","","","","","","","","","","","","","","","","","","","","","","","","","","","","","","","","","","SYN072AAXX  02074 94213 11/75 23611 10390 20073 39846 40073 60001 70300 81085;","","","","","","","","","",""
"94213099999","2005-10-03T06:00:00","-17.0166666","128.2166666","205.0","WARMUN, AS","FM-12","4","","62","78","","","","","58","","29.86","29.18","15.53","68","000","","0","","","","","","","","","","","","","","","","","","","","","","","","","","","","","","","","","","","","","","","","","","","","","","","","","","","","","","","","","","","","","","","","","","","","","","","","","","","","","","","","","","","","","","","","","","","SYN066AAXX  02224 94213 41/75 30000 10256 20166 39883 40111 70200 82081;","","","","","","","","","",""
"94213099999","2005-10-03T09:00:00","-17.0166666","128.2166666","205.0","WARMUN, AS","FM-12","4","","62","94","","","","","35","","29.88","29.20","14.91","73","250","","5","","","","","","","","","","","","","","","","","","","","","","","","","","","","","","","","","","","","","","","","","","","","","","","","","","","","","","","","","","","","","","","","","","","","","","","","","","","","","","","","","","","","","","","","","","","SYN082AAXX  03014 94213 11/74 22504 10345 20167 39889 40117 60004 70100 80001 333 70000;","","","","","","","","","",""
"94213099999","2005-10-03T15:00:00","-17.0166666","128.2166666","205.0","WARMUN, AS","FM-12","4","","51","103","","","","","17","","29.75","29.08","12.43","70","360","","16","","","","","","","","","","","","","","","","","","","","","","","","","","","","","","","","","","","","","","","","","","","","","","","","","","","","","","","","","","","","","","","","","","","","","","","","","","","","","","","","","","","","","","","","","","","SYN072AAXX  03074 94213 11/70 73614 10395 20105 39847 40074 60001 70311 81088;","","","","","","","","","",""
"94213099999","2005-10-04T06:00:00","-17.0166666","128.2166666","205.0","WARMUN, AS","FM-12","4","","65","78","","","","","65","CLR:00","29.88","29.21","12.43","70","000","","0","","","","","","","","","","","","","","","","","","","","","","","","","","","","","","","","","","","","","","","","","","","","","","","","","","","","","","","","","","","","","","","","","","","","","","","","","","","","","","","","","","","","","","","","","","","SYN060AAXX  03224 94213 41970 00000 10256 20184 39891 40119 70000;","","","","","","","","","",""
"94213099999","2005-10-04T09:00:00","-17.0166666","128.2166666","205.0","WARMUN, AS","FM-12","4","","61","95","","","","","32","","29.92","29.25","13.67","72","180","","3","","","","","","","","","","","","","","","","","","","","","","","","","","","","","","","","","","","","","","","","","","","","","","","","","","","","","","","","","","","","","","","","","","","","","","","","","","","","","","","","","","","","","","","","","","","SYN082AAXX  04014 94213 11/72 31803 10350 20161 39904 40133 60004 70300 80006 333 70000;","","","","","","","","","",""
"94213099999","2005-10-04T15:00:00","-17.0166666","128.2166666","205.0","WARMUN, AS","FM-12","4","","50","103","","","","","17","","29.79","29.11","18.64","70","340","","23","","","","","","","","","","","","","","","","","","","","","","","","","","","","","","","","","","","","","","","","","","","","","","","","","","","","","","","","","","","","","","","","","","","","","","","","","","","","","","","","","","","","","","","","","","","SYN072AAXX  04074 94213 11780 63420 10395 20099 39859 40087 60001 70322 86300;","","","","","","","","","",""
"94213099999","2005-10-05T06:00:00","-17.0166666","128.2166666","205.0","WARMUN, AS","FM-12","4","","65","89","","","","","46","","29.88","29.21","6.21","73","000","","0","","","","","","","","","","","","","","","","","","","","","","","","","","","","","","","","","","","","","","","","","","","","","","","","","","","","","","","","","","","","","","","","","","","","","","","","","","","","","","","","","","","","","","","","","","","SYN066AAXX  04224 94213 41/60 60000 10314 20185 39890 40118 70322 86090;","","","","","","","","","",""
"94213099999","2005-10-05T09:00:00","-17.0166666","128.2166666","205.0","WARMUN, AS","FM-12","4","","58","99","","","","","25","","29.89","29.22","12.43","72","160","","11","","","","","","","","","","","","","","","","","","","","","","","","","","","","","","","","","","","","","","","","","","","","","","","","","","","","","","","","","","","","","","","","","","","","","","","","","","","","","","","","","","","","","","","","","","","SYN082AAXX  05014 94213 11/70 31610 10375 20143 39895 40123 60004 70100 83080 333 70000;","","","","","","","","","",""
"94213099999","2005-10-05T15:00:00","-17.0166666","128.2166666","205.0","WARMUN, AS","FM-12","4","","52","104","","","","","17","","29.74","29.07","15.53","71","020","","8","","","","","","","","","","","","","","","","","","","","","","","","","","","","","","","","","","","","","","","","","","","","","","","","","","","","","","","","","","","","","","","","","","","","","","","","","","","","","","","","","","","","","","","","","","","SYN072AAXX  05074 94213 11875 50207 10400 20109 39845 40072 60001 70322 85800;","","","","","","","","","",""
"94213099999","2005-10-06T06:00:00","-17.0166666","128.2166666","205.0","WARMUN, AS","FM-12","4","","61","85","","","","","45","","29.84","29.17","15.53","70","310","","2","","","","","","","","","","","","","","","","","","","","","","","","","","","","","","","","","","","","","","","","","","","","","","","","","","","","","","","","","","","","","","","","","","","","","","","","","","","","","","","","","","","","","","","","","","","SYN066AAXX  05224 94213 41/75 13102 10295 20162 39877 40105 70100 81080;","","","","","","","","","",""
"94213099999","2005-10-06T09:00:00","-17.0166666","128.2166666","205.0","WARMUN, AS","FM-12","4","","65","95","","","","","37","CLR:00","29.85","29.18","16.16","75","050","","11","","","","","","","","","","","","","","","","","","","","","","","","","","","","","","","","","","","","","","","","","","","","","","","","","","","","","","","","","","","","","","","","","","","","","","","","","","","","","","","","","","","","","","","","","","","SYN076AAXX  06014 94213 11976 00510 10350 20182 39881 40109 60004 70000 333 70000;","","","","","","","","","",""
"94213099999","2005-10-06T15:00:00","-17.0166666","128.2166666","205.0","WARMUN, AS","FM-12","4","","54","102","","","","","20","","29.71","29.04","18.64","71","360","","5","","","","","","","","","","","","","","","","","","","","","","","","","","","","","","","","","","","","","","","","","","","","","","","","","","","","","","","","","","","","","","","","","","","","","","","","","","","","","","","","","","","","","","","","","","","SYN072AAXX  06074 94213 11880 43604 10390 20120 39835 40062 60001 70300 84300;","","","","","","","","","",""
"94213099999","2005-10-07T06:00:00","-17.0166666","128.2166666","205.0","WARMUN, AS","FM-12","4","","66","83","","","","","57","","29.82","29.14","12.43","72","020","","6","","","","","","","","","","","","","","","","","","","","","","","","","","","","","","","","","","","","","","","","","","","","","","","","","","","","","","","","","","","","","","","","","","","","","","","","","","","","","","","","","","","","","","","","","","","SYN066AAXX  06224 94213 41/70 10205 10285 20191 39869 40097 70100 81080;","","","","","","","","","",""
"94213099999","2005-10-07T09:00:00","-17.0166666","128.2166666","205.0","WARMUN, AS","FM-12","4","","65","94","","","","","39","CLR:00","29.83","29.15","16.16","74","310","","17","","","","","","","","","","","","","","","","","","","","","","","","","","","","","","","","","","","","","","","","","","","","","","","","","","","","","","","","","","","","","","","","","","","","","","","","","","","","","","","","","","","","","","","","","","","SYN076AAXX  07014 94213 11976 03115 10343 20186 39873 40101 60004 70000 333 70000;","","","","","","","","","",""
"94213099999","2005-10-07T15:00:00","-17.0166666","128.2166666","205.0","WARMUN, AS","FM-12","4","","57","103","","","","","21","","29.67","29.00","18.64","73","310","","3","","","","","","","","","","","","","","","","","","","","","","","","","","","","","","","","","","","","","","","","","","","","","","","","","","","","","","","","","","","","","","","","","","","","","","","","","","","","","","","","","","","","","","","","","","","SYN072AAXX  07074 94213 11980 33103 10397 20138 39821 40048 60001 70300 82280;","","","","","","","","","",""
"94213099999","2005-10-08T06:00:00","-17.0166666","128.2166666","205.0","WARMUN, AS","FM-12","4","","67","86","","","","","53","","29.78","29.10","17.40","73","000","","0","","","","","","","","","","","","","","","","","","","","","","","","","","","","","","","","","","","","","","","","","","","","","","","","","","","","","","","","","","","","","","","","","","","","","","","","","","","","","","","","","","","","","","","","","","","SYN066AAXX  07224 94213 41978 70000 10300 20195 39856 40084 70311 87200;","","","","","","","","","",""
"94213099999","2005-10-08T09:00:00","-17.0166666","128.2166666","205.0","WARMUN, AS","FM-12","4","","56","92","","","","","30","","29.81","29.13","16.16","69","230","","3","","","","","","","","","","","","","","","","","","","","","","","","","","","","","","","","","","","","","","","","","","","","","","","","","","","","","","","","","","","","","","","","","","","","","","","","","","","","","","","","","","","","","","","","","","","SYN082AAXX  08014 94213 11876 62303 10331 20135 39866 40094 60004 70222 84280 333 70000;","","","","","","","","","",""
"94213099999","2005-10-08T15:00:00","-17.0166666","128.2166666","205.0","WARMUN, AS","FM-12","4","","58","105","","","","","21","","29.65","28.98","13.67","74","340","","5","","","","","","","","","","","","","","","","","","","","","","","","","","","","","","","","","","","","","","","","","","","","","","","","","","","","","","","","","","","","","","","","","","","","","","","","","","","","","","","","","","","","","","","","","","","SYN072AAXX  08074 94213 11772 73404 10404 20144 39813 40040 60001 70222 84280;","","","","","","","","","",""
"94213099999","2005-10-09T06:00:00","-17.0166666","128.2166666","205.0","WARMUN, AS","FM-12","4","","71","81","","","","","73","","29.79","29.12","15.53","74","000","","0","","","","","","","","","","","","","","","","","","","","","","","","","","","","","","","","","","","","","","","","","","","","","","","","","","","","","","","","","","","","","","","","","","","","","","","","","","","","","","","","","","","","","","","","","","","SYN066AAXX  08224 94213 41/75 20000 10270 20218 39861 40089 70300 82080;","","","","","","","","","",""
"94213099999","2005-10-09T09:00:00","-17.0166666","128.2166666","205.0","WARMUN, AS","FM-12","4","","69","93","","","","","45","","29.81","29.14","15.53","76","230","","2","","","","","","","","","","","","","","","","","","","","","","","","","","","","","","","","","","","","","","","","","","","","","","","","","","","","","","","","","","","","","","","","","","","","","","","","","","","","","","","","","","","","","","","","","","","SYN082AAXX  09014 94213 11775 62302 10340 20206 39868 40096 60004 70322 84550 333 70000;","","","","","","","","","",""
"94213099999","2005-10-09T15:00:00","-17.0166666","128.2166666","205.0","WARMUN, AS","FM-12","4","","63","97","","||TS","","","33","","29.70","29.03","18.64","74","050","","13","","","","","","","","","","","","","","","","","","","","","","","","","","","","","","","","","","","","","","","","","","","","","","","","","","","","","","","","","","","","","","","","","","","","","","","","","","","","","","","","","","","","","","","","","","","SYN072AAXX  09074 94213 11780 70511 10360 20175 39831 40058 60001 71722 84325;","","","","","","","","","",""
"94213099999","2005-10-10T06:00:00","-17.0166666","128.2166666","205.0","WARMUN, AS","FM-12","4","","65","78","","","","","67","CLR:00","29.84","29.17","9.32","70","000","","0","","","","","","","","","","","","","","","","","","","","","","","","","","","","","","","","","","","","","","","","","","","","","","","","","","","","","","","","","","","","","","","","","","","","","","","","","","","","","","","","","","","","","","","","","","","SYN060AAXX  09224 94213 41965 00000 10253 20186 39877 40105 70111;","","","","","","","","","",""
"94213099999","2005-10-10T09:00:00","-17.0166666","128.2166666","205.0","WARMUN, AS","FM-12","4","","67","91","","","","","46","CLR:00","29.86","29.18","9.32","75","000","","0","","","","","","","","","","","","","","","","","","","","","","","","","","","","","","","","","","","","","","","","","","","","","","","","","","","","","","","","","","","","","","","","","","","","","","","","","","","","","","","","","","","","","","","","","","","SYN076AAXX  10014 94213 11965 00000 10327 20197 39883 40111 60004 70200 333 70000;","","","","","","","","","",""
"94213099999","2005-10-10T15:00:00","-17.0166666","128.2166666","205.0","WARMUN, AS","FM-12","4","","55","102","","","","","21","","29.71","29.04","17.40","72","020","","5","","","","","","","","","","","","","","","","","","","","","","","","","","","","","","","","","","","","","","","","","","","","","","","","","","","","","","","","","","","","","","","","","","","","","","","","","","","","","","","","","","","","","","","","","","","SYN072AAXX  10074 94213 11978 80204 10387 20128 39835 40062 60001 70300 83106;","","","","","","","","","",""
"94213099999","2005-10-11T06:00:00","-17.0166666","128.2166666","205.0","WARMUN, AS","FM-12","4","","62","77","","||FU","","","60","CLR:00","29.85","29.18","9.32","67","000","","0","","","","","","","","","","","","","","","","","","","","","","","","","","","","","","","","","","","","","","","","","","","","","","","","","","","","","","","","","","","","","","","","","","","","","","","","","","","","","","","","","","","","","","","","","","","SYN060AAXX  10224 94213 41965 00000 10252 20168 39880 40109 70400;","","","","","","","","","",""
"94213099999","2005-10-11T09:00:00","-17.0166666","128.2166666","205.0","WARMUN, AS","FM-12","4","","36s","97","","||FU","","","12","CLR:00","29.85","29.18","7.46","63","090","","23","","","","","","","","","","","","","","","","","","","","","","","","","","","","","","","","","","","","","","","","","","","","","","","","","","","","","","","","","","","","","","","","","","","","","","","","","","","","","","","","","","","","","","","","","","","SYN076AAXX  11014 94213 11962 00920 10360 20022 39882 40110 60004 70400 333 70000;","","","","","","","","","",""
"94213099999","2005-10-11T15:00:00","-17.0166666","128.2166666","205.0","WARMUN, AS","FM-12","4","","38","105","","","","","10","","29.71","29.04","9.32","66","160","","3","","","","","","","","","","","","","","","","","","","","","","","","","","","","","","","","","","","","","","","","","","","","","","","","","","","","","","","","","","","","","","","","","","","","","","","","","","","","","","","","","","","","","","","","","","","SYN072AAXX  11074 94213 11/65 11603 10405 20036 39833 40060 60001 70300 81080;","","","","","","","","","",""
"94213099999","2005-10-12T06:00:00","-17.0166666","128.2166666","205.0","WARMUN, AS","FM-12","4","","67","81","","","","","61","","29.82","29.15","13.67","72","000","","0","","","","","","","","","","","","","","","","","","","","","","","","","","","","","","","","","","","","","","","","","","","","","","","","","","","","","","","","","","","","","","","","","","","","","","","","","","","","","","","","","","","","","","","","","","","SYN066AAXX  11224 94213 41/72 10000 10275 20193 39870 40098 70200 81080;","","","","","","","","","",""
"94213099999","2005-10-12T09:00:00","-17.0166666","128.2166666","205.0","WARMUN, AS","FM-12","4","","64","95","","","","","36","","29.83","29.16","15.53","74","050","","18","","","","","","","","","","","","","","","","","","","","","","","","","","","","","","","","","","","","","","","","","","","","","","","","","","","","","","","","","","","","","","","","","","","","","","","","","","","","","","","","","","","","","","","","","","","SYN082AAXX  12014 94213 11875 30516 10351 20179 39875 40103 60004 70300 82208 333 70000;","","","","","","","","","",""
"94213099999","2005-10-12T15:00:00","-17.0166666","128.2166666","205.0","WARMUN, AS","FM-12","4","","61","101","","","","","27","","29.68","29.01","13.67","74","020","","8","","","","","","","","","","","","","","","","","","","","","","","","","","","","","","","","","","","","","","","","","","","","","","","","","","","","","","","","","","","","","","","","","","","","","","","","","","","","","","","","","","","","","","","","","","","SYN072AAXX  12074 94213 11772 30207 10385 20161 39823 40050 60001 70200 83200;","","","","","","","","","",""
"94213099999","2005-10-13T06:00:00","-17.0166666","128.2166666","205.0","WARMUN, AS","FM-12","4","","71","76","","","","","83","","29.86","29.19","15.53","73","000","","0","","","","","","","","","","","","","","","","","","","","","","","","","","","","","","","","","","","","","","","","","","","","","","","","","","","","","","","","","","","","","","","","","","","","","","","","","","","","","","","","","","","","","","","","","","","SYN066AAXX  12224 94213 41475 80000 10245 20215 39884 40112 70222 88300;","","","","","","","","","",""
"94213099999","2005-10-13T09:00:00","-17.0166666","128.2166666","205.0","WARMUN, AS","FM-12","4","","72","79","","","","","79","","29.88","29.21","15.53","74","340","","7","","","","","","","","","","","","","","","","","","","","","","","","","","","","","","","","","","","","","","","","","","","","","","","","","","","","","","","","","","","","","","","","","","","","","","","","","","","","","","","","","","","","","","","","","","","SYN082AAXX  13014 94213 11475 73406 10260 20221 39891 40119 60114 70122 86580 333 70110;","","","","","","","","","",""
"94213099999","2005-10-13T15:00:00","-17.0166666","128.2166666","205.0","WARMUN, AS","FM-12","4","","58","99","","","","","26","","29.71","29.04","18.64","72","090","","3","","","","","","","","","","","","","","","","","","","","","","","","","","","","","","","","","","","","","","","","","","","","","","","","","","","","","","","","","","","","","","","","","","","","","","","","","","","","","","","","","","","","","","","","","","","SYN072AAXX  13074 94213 11780 30903 10370 20147 39834 40061 60001 70100 83300;","","","","","","","","","",""
"94213099999","2005-10-14T06:00:00","-17.0166666","128.2166666","205.0","WARMUN, AS","FM-12","4","","65","76","","","","","68","","29.85","29.18","15.53","69","310","","7","","","","","","","","","","","","","","","","","","","","","","","","","","","","","","","","","","","","","","","","","","","","","","","","","","","","","","","","","","","","","","","","","","","","","","","","","","","","","","","","","","","","","","","","","","","SYN066AAXX  13224 94213 41/75 43106 10246 20183 39881 40109 70300 84080;","","","","","","","","","",""
"94213099999","2005-10-14T09:00:00","-17.0166666","128.2166666","205.0","WARMUN, AS","FM-12","4","","68","87","","","","","53","","29.88","29.20","16.78","74","050","","11","","","","","","","","","","","","","","","","","","","","","","","","","","","","","","","","","","","","","","","","","","","","","","","","","","","","","","","","","","","","","","","","","","","","","","","","","","","","","","","","","","","","","","","","","","","SYN082AAXX  14014 94213 11/77 30510 10305 20199 39889 40117 60004 70200 83080 333 70000;","","","","","","","","","",""
"94213099999","2005-10-14T15:00:00","-17.0166666","128.2166666","205.0","WARMUN, AS","FM-12","4","","66","93","","||FU","","","41","","29.72","29.05","12.43","75","020","","19","","","","","","","","","","","","","","","","","","","","","","","","","","","","","","","","","","","","","","","","","","","","","","","","","","","","","","","","","","","","","","","","","","","","","","","","","","","","","","","","","","","","","","","","","","","SYN072AAXX  14074 94213 11/70 20217 10340 20188 39839 40066 60001 70400 82080;","","","","","","","","","",""
"94213099999","2005-10-15T06:00:00","-17.0166666","128.2166666","205.0","WARMUN, AS","FM-12","4","","72","74","","","","","91","","29.88","29.21","16.16","73","020","","2","","","","","","","","","","","","","","","","","","","","","","","","","","","","","","","","","","","","","","","","","","","","","","","","","","","","","","","","","","","","","","","","","","","","","","","","","","","","","","","","","","","","","","","","","","","SYN066AAXX  14224 94213 41376 70202 10235 20220 39892 40120 70162 86580;","","","","","","","","","",""
"94213099999","2005-10-15T09:00:00","-17.0166666","128.2166666","205.0","WARMUN, AS","FM-12","4","","70","84","","","","","63","","29.91","29.23","17.40","74","160","","6","","","","","","","","","","","","","","","","","","","","","","","","","","","","","","","","","","","","","","","","","","","","","","","","","","","","","","","","","","","","","","","","","","","","","","","","","","","","","","","","","","","","","","","","","","","SYN082AAXX  15014 94213 11/78 51605 10289 20211 39899 40127 60084 70122 80008 333 70080;","","","","","","","","","",""
"94213099999","2005-10-15T15:00:00","-17.0166666","128.2166666","205.0","WARMUN, AS","FM-12","4","","69","93","","","","","45","","29.75","29.08","18.64","76","090","","11","","","","","","","","","","","","","","","","","","","","","","","","","","","","","","","","","","","","","","","","","","","","","","","","","","","","","","","","","","","","","","","","","","","","","","","","","","","","","","","","","","","","","","","","","","","SYN072AAXX  15074 94213 11580 40910 10340 20206 39849 40076 60001 70300 83205;","","","","","","","","","",""
"94213099999","2005-10-16T06:00:00","-17.0166666","128.2166666","205.0","WARMUN, AS","FM-12","4","","73","80","","","","","81","","29.85","29.18","18.64","75","000","","0","","","","","","","","","","","","","","","","","","","","","","","","","","","","","","","","","","","","","","","","","","","","","","","","","","","","","","","","","","","","","","","","","","","","","","","","","","","","","","","","","","","","","","","","","","","SYN066AAXX  15224 94213 41880 80000 10265 20230 39880 40108 70311 87470;","","","","","","","","","",""
"94213099999","2005-10-16T09:00:00","-17.0166666","128.2166666","205.0","WARMUN, AS","FM-12","4","","71","87","","","","","60","","29.87","29.19","18.64","76","000","","0","","","","","","","","","","","","","","","","","","","","","","","","","","","","","","","","","","","","","","","","","","","","","","","","","","","","","","","","","","","","","","","","","","","","","","","","","","","","","","","","","","","","","","","","","","","SYN082AAXX  16014 94213 11/80 10000 10303 20217 39886 40114 60004 70111 80005 333 70000;","","","","","","","","","",""
"94213099999","2005-10-16T15:00:00","-17.0166666","128.2166666","205.0","WARMUN, AS","FM-12","4","","62","98","","","","","30","","29.71","29.04","18.64","74","360","","18","","","","","","","","","","","","","","","","","","","","","","","","","","","","","","","","","","","","","","","","","","","","","","","","","","","","","","","","","","","","","","","","","","","","","","","","","","","","","","","","","","","","","","","","","","","SYN072AAXX  16074 94213 11880 43616 10365 20164 39833 40060 60001 70300 83380;","","","","","","","","","",""
"94213099999","2005-10-17T06:00:00","-17.0166666","128.2166666","205.0","WARMUN, AS","FM-12","4","","69","81","","","","","66","","29.83","29.15","15.53","73","160","","5","","","","","","","","","","","","","","","","","","","","","","","","","","","","","","","","","","","","","","","","","","","","","","","","","","","","","","","","","","","","","","","","","","","","","","","","","","","","","","","","","","","","","","","","","","","SYN066AAXX  16224 94213 41/75 61604 10275 20207 39872 40100 70111 86090;","","","","","","","","","",""
"94213099999","2005-10-17T09:00:00","-17.0166666","128.2166666","205.0","WARMUN, AS","FM-12","4","","68","91","","","","","47","","29.83","29.15","15.53","75","230","","11","","","","","","","","","","","","","","","","","","","","","","","","","","","","","","","","","","","","","","","","","","","","","","","","","","","","","","","","","","","","","","","","","","","","","","","","","","","","","","","","","","","","","","","","","","","SYN082AAXX  17014 94213 11/75 62310 10330 20201 39872 40100 60004 70122 85089 333 70000;","","","","","","","","","",""
"94213099999","2005-10-17T15:00:00","-17.0166666","128.2166666","205.0","WARMUN, AS","FM-12","4","","74","83","","","","","75","","29.69","29.02","17.40","77","000","","0","","","","","","","","","","","","","","","","","","","","","","","","","","","","","","","","","","","","","","","","","","","","","","","","","","","","","","","","","","","","","","","","","","","","","","","","","","","","","","","","","","","","","","","","","","","SYN072AAXX  17074 94213 11478 60000 10284 20235 39826 40053 60021 72522 85322;","","","","","","","","","",""
"94213099999","2005-10-18T06:00:00","-17.0166666","128.2166666","205.0","WARMUN, AS","FM-12","4","","74","75","","","","","96","","29.80","29.13","13.67","74","360","","1","","","","","","","","","","","","","","","","","","","","","","","","","","","","","","","","","","","","","","","","","","","","","","","","","","","","","","","","","","","","","","","","","","","","","","","","","","","","","","","","","","","","","","","","","","","SYN066AAXX  17224 94213 41572 23601 10240 20233 39863 40091 70160 81408;","","","","","","","","","",""
"94213099999","2005-10-18T09:00:00","-17.0166666","128.2166666","205.0","WARMUN, AS","FM-12","4","","73","86","","","","","65","","29.80","29.12","15.53","77","090","","1","","","","","","","","","","","","","","","","","","","","","","","","","","","","","","","","","","","","","","","","","","","","","","","","","","","","","","","","","","","","","","","","","","","","","","","","","","","","","","","","","","","","","","","","","","","SYN082AAXX  18014 94213 11575 30901 10300 20227 39862 40090 60244 70300 82101 333 70240;","","","","","","","","","",""
"94213099999","2005-10-18T15:00:00","-17.0166666","128.2166666","205.0","WARMUN, AS","FM-12","4","","73","82","","||TS","","","74","","29.67","29.00","17.40","76","160","","2","","","","","","","","","","","","","","","","","","","","","","","","","","","","","","","","","","","","","","","","","","","","","","","","","","","","","","","","","","","","","","","","","","","","","","","","","","","","","","","","","","","","","","","","","","","SYN072AAXX  18074 94213 11478 71602 10280 20229 39821 40048 60031 71762 86760;","","","","","","","","","",""
"94213099999","2005-10-19T06:00:00","-17.0166666","128.2166666","205.0","WARMUN, AS","FM-12","4","","74","77","","","","","91","","29.77","29.10","14.91","75","000","","0","","","","","","","","","","","","","","","","","","","","","","","","","","","","","","","","","","","","","","","","","","","","","","","","","","","","","","","","","","","","","","","","","","","","","","","","","","","","","","","","","","","","","","","","","","","SYN066AAXX  18224 94213 41/74 10000 10250 20235 39855 40082 70160 80001;","","","","","","","","","",""
"94213099999","2005-10-19T09:00:00","-17.0166666","128.2166666","205.0","WARMUN, AS","FM-12","4","","69","90","","","","","52","","29.79","29.11","15.53","75","180","","5","","","","","","","","","","","","","","","","","","","","","","","","","","","","","","","","","","","","","","","","","","","","","","","","","","","","","","","","","","","","","","","","","","","","","","","","","","","","","","","","","","","","","","","","","","","SYN082AAXX  19014 94213 11675 11804 10320 20208 39859 40087 60054 70100 81100 333 70050;","","","","","","","","","",""
"94213099999","2005-10-19T15:00:00","-17.0166666","128.2166666","205.0","WARMUN, AS","FM-12","4","","54","99","","","","","22","","29.65","28.98","18.64","70","310","","18","","","","","","","","","","","","","","","","","","","","","","","","","","","","","","","","","","","","","","","","","","","","","","","","","","","","","","","","","","","","","","","","","","","","","","","","","","","","","","","","","","","","","","","","","","","SYN072AAXX  19074 94213 11780 23116 10370 20122 39813 40040 60001 70300 82300;","","","","","","","","","",""
"94213099999","2005-10-20T06:00:00","-17.0166666","128.2166666","205.0","WARMUN, AS","FM-12","4","","67","81","","","","","63","","29.78","29.11","12.43","72","000","","0","","","","","","","","","","","","","","","","","","","","","","","","","","","","","","","","","","","","","","","","","","","","","","","","","","","","","","","","","","","","","","","","","","","","","","","","","","","","","","","","","","","","","","","","","","","SYN066AAXX  19224 94213 41/70 10000 10270 20193 39858 40086 70100 80008;","","","","","","","","","",""
"94213099999","2005-10-20T09:00:00","-17.0166666","128.2166666","205.0","WARMUN, AS","FM-12","4","","58","94","","","","","30","CLR:00","29.79","29.12","17.40","71","160","","3","","","","","","","","","","","","","","","","","","","","","","","","","","","","","","","","","","","","","","","","","","","","","","","","","","","","","","","","","","","","","","","","","","","","","","","","","","","","","","","","","","","","","","","","","","","SYN076AAXX  20014 94213 11978 01603 10345 20143 39860 40088 60004 70000 333 70000;","","","","","","","","","",""
"94213099999","2005-10-20T15:00:00","-17.0166666","128.2166666","205.0","WARMUN, AS","FM-12","4","","58","101","","","","","24","","29.67","29.00","18.64","73","310","","3","","","","","","","","","","","","","","","","","","","","","","","","","","","","","","","","","","","","","","","","","","","","","","","","","","","","","","","","","","","","","","","","","","","","","","","","","","","","","","","","","","","","","","","","","","","SYN072AAXX  20074 94213 11980 33103 10385 20147 39819 40046 60001 70300 82280;","","","","","","","","","",""
"94213099999","2005-10-21T06:00:00","-17.0166666","128.2166666","205.0","WARMUN, AS","FM-12","4","","69","83","","","","","62","","29.79","29.12","15.53","73","000","","0","","","","","","","","","","","","","","","","","","","","","","","","","","","","","","","","","","","","","","","","","","","","","","","","","","","","","","","","","","","","","","","","","","","","","","","","","","","","","","","","","","","","","","","","","","","SYN066AAXX  20224 94213 41/75 20000 10285 20205 39860 40088 70100 82080;","","","","","","","","","",""
"94213099999","2005-10-21T09:00:00","-17.0166666","128.2166666","205.0","WARMUN, AS","FM-12","4","","60","96","","","","","31","CLR:00","29.79","29.12","16.16","72","000","","0","","","","","","","","","","","","","","","","","","","","","","","","","","","","","","","","","","","","","","","","","","","","","","","","","","","","","","","","","","","","","","","","","","","","","","","","","","","","","","","","","","","","","","","","","","","SYN076AAXX  21014 94213 11976 00000 10354 20158 39860 40088 60004 70100 333 70000;","","","","","","","","","",""
"94213099999","2005-10-21T15:00:00","-17.0166666","128.2166666","205.0","WARMUN, AS","FM-12","4","","56","104","","","","","20","","29.67","29.00","18.64","72","290","","2","","","","","","","","","","","","","","","","","","","","","","","","","","","","","","","","","","","","","","","","","","","","","","","","","","","","","","","","","","","","","","","","","","","","","","","","","","","","","","","","","","","","","","","","","","","SYN072AAXX  21074 94213 11980 32902 10401 20134 39820 40047 60001 70300 83300;","","","","","","","","","",""
"94213099999","2005-10-22T06:00:00","-17.0166666","128.2166666","205.0","WARMUN, AS","FM-12","4","","69","82","","","","","63","","29.83","29.16","12.43","73","000","","0","","","","","","","","","","","","","","","","","","","","","","","","","","","","","","","","","","","","","","","","","","","","","","","","","","","","","","","","","","","","","","","","","","","","","","","","","","","","","","","","","","","","","","","","","","","SYN066AAXX  21224 94213 41570 30000 10280 20204 39875 40103 70300 82880;","","","","","","","","","",""
"94213099999","2005-10-22T09:00:00","-17.0166666","128.2166666","205.0","WARMUN, AS","FM-12","4","","80","95","","","","","62","","29.85","29.18","12.43","84","180","","3","","","","","","","","","","","","","","","","","","","","","","","","","","","","","","","","","","","","","","","","","","","","","","","","","","","","","","","","","","","","","","","","","","","","","","","","","","","","","","","","","","","","","","","","","","","SYN082AAXX  22014 94213 11570 71803 10350 20267 39882 40110 60004 70322 85880 333 70000;","","","","","","","","","",""
"94213099999","2005-10-22T15:00:00","-17.0166666","128.2166666","205.0","WARMUN, AS","FM-12","4","","59","104","","","","","23","","29.71","29.04","18.64","74","180","","3","","","","","","","","","","","","","","","","","","","","","","","","","","","","","","","","","","","","","","","","","","","","","","","","","","","","","","","","","","","","","","","","","","","","","","","","","","","","","","","","","","","","","","","","","","","SYN072AAXX  22074 94213 11780 21803 10400 20150 39834 40061 60001 70100 82300;","","","","","","","","","",""
"94213099999","2005-10-23T06:00:00","-17.0166666","128.2166666","205.0","WARMUN, AS","FM-12","4","","71","84","","","","","64","","29.83","29.15","14.91","75","000","","0","","","","","","","","","","","","","","","","","","","","","","","","","","","","","","","","","","","","","","","","","","","","","","","","","","","","","","","","","","","","","","","","","","","","","","","","","","","","","","","","","","","","","","","","","","","SYN066AAXX  22224 94213 41574 70000 10290 20216 39873 40101 70322 86550;","","","","","","","","","",""
"94213099999","2005-10-23T09:00:00","-17.0166666","128.2166666","205.0","WARMUN, AS","FM-12","4","","63","98","","","","","32","","29.83","29.15","16.16","74","130","","3","","","","","","","","","","","","","","","","","","","","","","","","","","","","","","","","","","","","","","","","","","","","","","","","","","","","","","","","","","","","","","","","","","","","","","","","","","","","","","","","","","","","","","","","","","","SYN082AAXX  23014 94213 11/76 31303 10365 20174 39873 40101 60004 70100 83080 333 70000;","","","","","","","","","",""
"94213099999","2005-10-23T15:00:00","-17.0166666","128.2166666","205.0","WARMUN, AS","FM-12","4","","56","106","","","","","19","","29.68","29.01","18.64","73","230","","1","","","","","","","","","","","","","","","","","","","","","","","","","","","","","","","","","","","","","","","","","","","","","","","","","","","","","","","","","","","","","","","","","","","","","","","","","","","","","","","","","","","","","","","","","","","SYN072AAXX  23074 94213 11780 62301 10410 20132 39825 40052 60001 70322 83470;","","","","","","","","","",""
"94213099999","2005-10-24T06:00:00","-17.0166666","128.2166666","205.0","WARMUN, AS","FM-12","4","","68","81","","","","","63","","29.81","29.13","14.91","72","000","","0","","","","","","","","","","","","","","","","","","","","","","","","","","","","","","","","","","","","","","","","","","","","","","","","","","","","","","","","","","","","","","","","","","","","","","","","","","","","","","","","","","","","","","","","","","","SYN066AAXX  23224 94213 41/74 10000 10275 20199 39866 40094 70100 81080;","","","","","","","","","",""
"94213099999","2005-10-24T09:00:00","-17.0166666","128.2166666","205.0","WARMUN, AS","FM-12","4","","47","101","","","","","16","CLR:00","29.80","29.13","17.40","68","180","","3","","","","","","","","","","","","","","","","","","","","","","","","","","","","","","","","","","","","","","","","","","","","","","","","","","","","","","","","","","","","","","","","","","","","","","","","","","","","","","","","","","","","","","","","","","","SYN076AAXX  24014 94213 11978 01803 10382 20082 39865 40093 60004 70000 333 70000;","","","","","","","","","",""
"94213099999","2005-10-24T15:00:00","-17.0166666","128.2166666","205.0","WARMUN, AS","FM-12","4","","43","108","","","","","11","","29.64","28.97","18.64","69","180","","5","","","","","","","","","","","","","","","","","","","","","","","","","","","","","","","","","","","","","","","","","","","","","","","","","","","","","","","","","","","","","","","","","","","","","","","","","","","","","","","","","","","","","","","","","","","SYN072AAXX  24074 94213 11/80 21804 10420 20062 39812 40038 60001 70300 82080;","","","","","","","","","",""
"94213099999","2005-10-25T06:00:00","-17.0166666","128.2166666","205.0","WARMUN, AS","FM-12","4","","68","86","","","","","56","","29.79","29.12","15.53","74","000","","0","","","","","","","","","","","","","","","","","","","","","","","","","","","","","","","","","","","","","","","","","","","","","","","","","","","","","","","","","","","","","","","","","","","","","","","","","","","","","","","","","","","","","","","","","","","SYN066AAXX  24224 94213 41/75 40000 10300 20202 39860 40088 70300 84040;","","","","","","","","","",""
"94213099999","2005-10-25T09:00:00","-17.0166666","128.2166666","205.0","WARMUN, AS","FM-12","4","","71","100","","","","","39","CLR:00","29.78","29.11","17.40","79","130","","3","","","","","","","","","","","","","","","","","","","","","","","","","","","","","","","","","","","","","","","","","","","","","","","","","","","","","","","","","","","","","","","","","","","","","","","","","","","","","","","","","","","","","","","","","","","SYN076AAXX  25014 94213 11978 01303 10378 20217 39857 40085 60004 70000 333 70000;","","","","","","","","","",""
"94213099999","2005-10-25T15:00:00","-17.0166666","128.2166666","205.0","WARMUN, AS","FM-12","4","","56","105","","","","","19","","29.63","28.96","18.64","73","020","","3","","","","","","","","","","","","","","","","","","","","","","","","","","","","","","","","","","","","","","","","","","","","","","","","","","","","","","","","","","","","","","","","","","","","","","","","","","","","","","","","","","","","","","","","","","","SYN072AAXX  25074 94213 11980 30203 10407 20132 39807 40033 60001 70300 83282;","","","","","","","","","",""
"94213099999","2005-10-26T09:00:00","-17.0166666","128.2166666","205.0","WARMUN, AS","FM-12","4","","72","94","","","","","49","","29.76","29.09","15.53","78","000","","0","","","","","","","","","","","","","","","","","","","","","","","","","","","","","","","","","","","","","","","","","","","","","","","","","","","","","","","","","","","","","","","","","","","","","","","","","","","","","","","","","","","","","","","","","","","SYN082AAXX  26014 94213 11675 40000 10345 20223 39852 40079 60004 70300 82430 333 70000;","","","","","","","","","",""
"94213099999","2005-10-26T15:00:00","-17.0166666","128.2166666","205.0","WARMUN, AS","FM-12","4","","52","104","","","","","17","","29.65","28.98","18.64","71","020","","18","","","","","","","","","","","","","","","","","","","","","","","","","","","","","","","","","","","","","","","","","","","","","","","","","","","","","","","","","","","","","","","","","","","","","","","","","","","","","","","","","","","","","","","","","","","SYN072AAXX  26074 94213 11880 60216 10400 20109 39814 40041 60001 70322 84580;","","","","","","","","","",""
"94213099999","2005-10-27T06:00:00","-17.0166666","128.2166666","205.0","WARMUN, AS","FM-12","4","","72","84","","","","","68","","29.80","29.13","11.18","76","000","","0","","","","","","","","","","","","","","","","","","","","","","","","","","","","","","","","","","","","","","","","","","","","","","","","","","","","","","","","","","","","","","","","","","","","","","","","","","","","","","","","","","","","","","","","","","","SYN066AAXX  26224 94213 41/68 10000 10290 20224 39863 40091 70100 80008;","","","","","","","","","",""
"94213099999","2005-10-27T09:00:00","-17.0166666","128.2166666","205.0","WARMUN, AS","FM-12","4","","71","97","","","","","43","","29.80","29.13","16.16","78","000","","0","","","","","","","","","","","","","","","","","","","","","","","","","","","","","","","","","","","","","","","","","","","","","","","","","","","","","","","","","","","","","","","","","","","","","","","","","","","","","","","","","","","","","","","","","","","SYN082AAXX  27014 94213 11/76 50000 10362 20218 39864 40092 60004 70311 83088 333 70000;","","","","","","","","","",""
"94213099999","2005-10-27T15:00:00","-17.0166666","128.2166666","205.0","WARMUN, AS","FM-12","4","","58","103","","","","","23","","29.68","29.01","18.64","73","070","","5","","","","","","","","","","","","","","","","","","","","","","","","","","","","","","","","","","","","","","","","","","","","","","","","","","","","","","","","","","","","","","","","","","","","","","","","","","","","","","","","","","","","","","","","","","","SYN072AAXX  27074 94213 11980 50704 10396 20146 39823 40050 60001 71592 84990;","","","","","","","","","",""
"94213099999","2005-10-28T06:00:00","-17.0166666","128.2166666","205.0","WARMUN, AS","FM-12","4","","68","87","","","","","53","","29.82","29.15","15.53","74","340","","1","","","","","","","","","","","","","","","","","","","","","","","","","","","","","","","","","","","","","","","","","","","","","","","","","","","","","","","","","","","","","","","","","","","","","","","","","","","","","","","","","","","","","","","","","","","SYN066AAXX  27224 94213 41675 83401 10305 20199 39870 40098 70322 88500;","","","","","","","","","",""
"94213099999","2005-10-28T09:00:00","-17.0166666","128.2166666","205.0","WARMUN, AS","FM-12","4","","67","97","","","","","38","","29.84","29.16","15.53","76","360","","5","","","","","","","","","","","","","","","","","","","","","","","","","","","","","","","","","","","","","","","","","","","","","","","","","","","","","","","","","","","","","","","","","","","","","","","","","","","","","","","","","","","","","","","","","","","SYN082AAXX  28014 94213 11/75 23604 10361 20195 39876 40104 60004 70100 80005 333 70000;","","","","","","","","","",""
"94213099999","2005-10-28T15:00:00","-17.0166666","128.2166666","205.0","WARMUN, AS","FM-12","4","","61","103","","","","","25","","29.69","29.02","17.40","75","020","","8","","","","","","","","","","","","","","","","","","","","","","","","","","","","","","","","","","","","","","","","","","","","","","","","","","","","","","","","","","","","","","","","","","","","","","","","","","","","","","","","","","","","","","","","","","","SYN072AAXX  28074 94213 11978 20207 10395 20163 39828 40055 60001 70111 81280;","","","","","","","","","",""
"94213099999","2005-10-29T06:00:00","-17.0166666","128.2166666","205.0","WARMUN, AS","FM-12","4","","68","84","","","","","59","","29.81","29.13","12.43","73","090","","1","","","","","","","","","","","","","","","","","","","","","","","","","","","","","","","","","","","","","","","","","","","","","","","","","","","","","","","","","","","","","","","","","","","","","","","","","","","","","","","","","","","","","","","","","","","SYN066AAXX  28224 94213 41570 40901 10287 20200 39866 40094 70100 84500;","","","","","","","","","",""
"94213099999","2005-10-29T09:00:00","-17.0166666","128.2166666","205.0","WARMUN, AS","FM-12","4","","63","100","","","","","29","CLR:00","29.79","29.12","15.53","75","290","","3","","","","","","","","","","","","","","","","","","","","","","","","","","","","","","","","","","","","","","","","","","","","","","","","","","","","","","","","","","","","","","","","","","","","","","","","","","","","","","","","","","","","","","","","","","","SYN076AAXX  29014 94213 11975 02903 10380 20173 39860 40088 60004 70000 333 70000;","","","","","","","","","",""
"94213099999","2005-10-29T15:00:00","-17.0166666","128.2166666","205.0","WARMUN, AS","FM-12","4","","54","106","","","","","18","","29.65","28.98","18.64","72","020","","11","","","","","","","","","","","","","","","","","","","","","","","","","","","","","","","","","","","","","","","","","","","","","","","","","","","","","","","","","","","","","","","","","","","","","","","","","","","","","","","","","","","","","","","","","","","SYN072AAXX  29074 94213 11780 30210 10413 20124 39815 40042 60001 70300 83300;","","","","","","","","","",""
"94213099999","2005-10-30T06:00:00","-17.0166666","128.2166666","205.0","WARMUN, AS","FM-12","4","","66","88","","","","","48","","29.80","29.13","12.43","73","000","","0","","","","","","","","","","","","","","","","","","","","","","","","","","","","","","","","","","","","","","","","","","","","","","","","","","","","","","","","","","","","","","","","","","","","","","","","","","","","","","","","","","","","","","","","","","","SYN066AAXX  29224 94213 41670 70000 10310 20187 39863 40091 70322 84470;","","","","","","","","","",""
"94213099999","2005-10-30T09:00:00","-17.0166666","128.2166666","205.0","WARMUN, AS","FM-12","4","","68","95","","","","","42","","29.83","29.16","14.91","76","360","","11","","","","","","","","","","","","","","","","","","","","","","","","","","","","","","","","","","","","","","","","","","","","","","","","","","","","","","","","","","","","","","","","","","","","","","","","","","","","","","","","","","","","","","","","","","","SYN082AAXX  30014 94213 11774 53610 10348 20202 39875 40103 60004 70100 82435 333 70000;","","","","","","","","","",""
"94213099999","2005-10-31T06:00:00","-17.0166666","128.2166666","205.0","WARMUN, AS","FM-12","4","","83","85","","","","","92","","29.82","29.14","12.43","83","000","","0","","","","","","","","","","","","","","","","","","","","","","","","","","","","","","","","","","","","","","","","","","","","","","","","","","","","","","","","","","","","","","","","","","","","","","","","","","","","","","","","","","","","","","","","","","","SYN066AAXX  30224 94213 41270 70000 10295 20281 39869 40097 70322 84589;","","","","","","","","","",""
"94213099999","2005-10-31T09:00:00","-17.0166666","128.2166666","205.0","WARMUN, AS","FM-12","4","","68","96","","","","","40","","29.82","29.14","15.53","76","020","","3","","","","","","","","","","","","","","","","","","","","","","","","","","","","","","","","","","","","","","","","","","","","","","","","","","","","","","","","","","","","","","","","","","","","","","","","","","","","","","","","","","","","","","","","","","","SYN082AAXX  31014 94213 11/75 30203 10355 20198 39869 40097 60004 70111 81039 333 70000;","","","","","","","","","",""
"94213099999","2005-10-31T15:00:00","-17.0166666","128.2166666","205.0","WARMUN, AS","FM-12","4","","62","102","","","","","27","","29.69","29.02","18.64","75","020","","3","","","","","","","","","","","","","","","","","","","","","","","","","","","","","","","","","","","","","","","","","","","","","","","","","","","","","","","","","","","","","","","","","","","","","","","","","","","","","","","","","","","","","","","","","","","SYN072AAXX  31074 94213 11580 50203 10390 20166 39828 40055 60001 70311 83239;","","","","","","","","","",""
"94213099999","2005-11-01T06:00:00","-17.0166666","128.2166666","205.0","WARMUN, AS","FM-12","4","","69","87","","","","","55","","29.76","29.09","15.53","75","000","","0","","","","","","","","","","","","","","","","","","","","","","","","","","","","","","","","","","","","","","","","","","","","","","","","","","","","","","","","","","","","","","","","","","","","","","","","","","","","","","","","","","","","","","","","","","","SYN066AAXX  31224 94213 41/75 30000 10305 20204 39852 40078 70100 83080;","","","","","","","","","",""
"94213099999","2005-11-01T09:00:00","-17.0166666","128.2166666","205.0","WARMUN, AS","FM-12","4","","65","101","","","","","31","","29.76","29.09","15.53","76","000","","0","","","","","","","","","","","","","","","","","","","","","","","","","","","","","","","","","","","","","","","","","","","","","","","","","","","","","","","","","","","","","","","","","","","","","","","","","","","","","","","","","","","","","","","","","","","SYN082AAXX  01014 94213 11/75 20000 10383 20181 39852 40078 60004 70100 81048 333 70000;","","","","","","","","","",""
"94213099999","2005-11-01T15:00:00","-17.0166666","128.2166666","205.0","WARMUN, AS","FM-12","4","","61","107","","","","","22","","29.59","28.93","17.40","75","020","","7","","","","","","","","","","","","","","","","","","","","","","","","","","","","","","","","","","","","","","","","","","","","","","","","","","","","","","","","","","","","","","","","","","","","","","","","","","","","","","","","","","","","","","","","","","","SYN072AAXX  01074 94213 11978 30206 10416 20159 39796 40021 60001 71500 83980;","","","","","","","","","",""
"94213099999","2005-11-02T06:00:00","-17.0166666","128.2166666","205.0","WARMUN, AS","FM-12","4","","70","86","","","","","59","","29.76","29.09","11.18","75","000","","0","","","","","","","","","","","","","","","","","","","","","","","","","","","","","","","","","","","","","","","","","","","","","","","","","","","","","","","","","","","","","","","","","","","","","","","","","","","","","","","","","","","","","","","","","","","SYN066AAXX  01224 94213 41568 40000 10300 20210 39851 40077 70300 82586;","","","","","","","","","",""
"94213099999","2005-11-02T09:00:00","-17.0166666","128.2166666","205.0","WARMUN, AS","FM-12","4","","68","96","","","","","40","","29.76","29.10","15.53","76","310","","6","","","","","","","","","","","","","","","","","","","","","","","","","","","","","","","","","","","","","","","","","","","","","","","","","","","","","","","","","","","","","","","","","","","","","","","","","","","","","","","","","","","","","","","","","","","SYN082AAXX  02014 94213 11/75 13105 10354 20200 39853 40079 60004 70100 80008 333 70000;","","","","","","","","","",""
"94213099999","2005-11-02T15:00:00","-17.0166666","128.2166666","205.0","WARMUN, AS","FM-12","4","","66","90","","||TS","","","46","","29.70","29.04","17.40","74","050","","17","","","","","","","","","","","","","","","","","","","","","","","","","","","","","","","","","","","","","","","","","","","","","","","","","","","","","","","","","","","","","","","","","","","","","","","","","","","","","","","","","","","","","","","","","","","SYN072AAXX  02074 94213 11578 60515 10320 20190 39833 40059 69961 71761 85820;","","","","","","","","","",""
"94213099999","2005-11-03T06:00:00","-17.0166666","128.2166666","205.0","WARMUN, AS","FM-12","4","","69","80","","","","","69","","29.83","29.16","14.91","73","000","","0","","","","","","","","","","","","","","","","","","","","","","","","","","","","","","","","","","","","","","","","","","","","","","","","","","","","","","","","","","","","","","","","","","","","","","","","","","","","","","","","","","","","","","","","","","","SYN066AAXX  02224 94213 41/74 10000 10265 20204 39876 40103 70100 81040;","","","","","","","","","",""
"94213099999","2005-11-03T09:00:00","-17.0166666","128.2166666","205.0","WARMUN, AS","FM-12","4","","67","91","","","","","45","","29.86","29.19","15.53","75","020","","8","","","","","","","","","","","","","","","","","","","","","","","","","","","","","","","","","","","","","","","","","","","","","","","","","","","","","","","","","","","","","","","","","","","","","","","","","","","","","","","","","","","","","","","","","","","SYN082AAXX  03014 94213 11775 10207 10330 20194 39884 40111 69964 70300 81200 333 70006;","","","","","","","","","",""
"94213099999","2005-11-03T15:00:00","-17.0166666","128.2166666","205.0","WARMUN, AS","FM-12","4","","63","101","","","","","28","","29.67","29.01","18.64","75","020","","8","","","","","","","","","","","","","","","","","","","","","","","","","","","","","","","","","","","","","","","","","","","","","","","","","","","","","","","","","","","","","","","","","","","","","","","","","","","","","","","","","","","","","","","","","","","SYN072AAXX  03074 94213 11780 20207 10386 20171 39824 40049 60001 70300 82300;","","","","","","","","","",""
"94213099999","2005-11-04T06:00:00","-17.0166666","128.2166666","205.0","WARMUN, AS","FM-12","4","","80","87","","","","","81","","29.81","29.14","15.53","82","000","","0","","","","","","","","","","","","","","","","","","","","","","","","","","","","","","","","","","","","","","","","","","","","","","","","","","","","","","","","","","","","","","","","","","","","","","","","","","","","","","","","","","","","","","","","","","","SYN066AAXX  03224 94213 41/75 30000 10303 20267 39868 40094 70100 80003;","","","","","","","","","",""
"94213099999","2005-11-04T09:00:00","-17.0166666","128.2166666","205.0","WARMUN, AS","FM-12","4","","71","94","","","","","46","","29.84","29.17","15.53","78","340","","11","","","","","","","","","","","","","","","","","","","","","","","","","","","","","","","","","","","","","","","","","","","","","","","","","","","","","","","","","","","","","","","","","","","","","","","","","","","","","","","","","","","","","","","","","","","SYN082AAXX  04014 94213 11/75 43410 10345 20214 39877 40104 60004 70311 83072 333 70000;","","","","","","","","","",""
"94213099999","2005-11-04T15:00:00","-17.0166666","128.2166666","205.0","WARMUN, AS","FM-12","4","","63","100","","","","","30","","29.72","29.05","16.16","75","340","","11","","","","","","","","","","","","","","","","","","","","","","","","","","","","","","","","","","","","","","","","","","","","","","","","","","","","","","","","","","","","","","","","","","","","","","","","","","","","","","","","","","","","","","","","","","","SYN072AAXX  04074 94213 11876 53410 10378 20174 39838 40064 60001 70311 85319;","","","","","","","","","",""
"94213099999","2005-11-05T06:00:00","-17.0166666","128.2166666","205.0","WARMUN, AS","FM-12","4","","72","83","","","","","70","","29.85","29.18","14.91","75","160","","3","","","","","","","","","","","","","","","","","","","","","","","","","","","","","","","","","","","","","","","","","","","","","","","","","","","","","","","","","","","","","","","","","","","","","","","","","","","","","","","","","","","","","","","","","","","SYN066AAXX  04224 94213 41574 81603 10281 20220 39880 40107 70322 83590;","","","","","","","","","",""
"94213099999","2005-11-05T09:00:00","-17.0166666","128.2166666","205.0","WARMUN, AS","FM-12","4","","70","87","","","","","57","","29.85","29.18","15.53","75","090","","2","","","","","","","","","","","","","","","","","","","","","","","","","","","","","","","","","","","","","","","","","","","","","","","","","","","","","","","","","","","","","","","","","","","","","","","","","","","","","","","","","","","","","","","","","","","SYN082AAXX  05014 94213 11675 70902 10305 20210 39881 40108 60004 70322 85505 333 70000;","","","","","","","","","",""
"94213099999","2005-11-05T15:00:00","-17.0166666","128.2166666","205.0","WARMUN, AS","FM-12","4","","63","101","","","","","28","","29.69","29.03","18.64","75","360","","7","","","","","","","","","","","","","","","","","","","","","","","","","","","","","","","","","","","","","","","","","","","","","","","","","","","","","","","","","","","","","","","","","","","","","","","","","","","","","","","","","","","","","","","","","","","SYN072AAXX  05074 94213 11580 63606 10384 20170 39829 40055 60001 70222 85350;","","","","","","","","","",""
"94213099999","2005-11-06T06:00:00","-17.0166666","128.2166666","205.0","WARMUN, AS","FM-12","4","","71","87","","","","","59","","29.78","29.11","12.43","76","000","","0","","","","","","","","","","","","","","","","","","","","","","","","","","","","","","","","","","","","","","","","","","","","","","","","","","","","","","","","","","","","","","","","","","","","","","","","","","","","","","","","","","","","","","","","","","","SYN066AAXX  05224 94213 41670 70000 10305 20216 39857 40083 70222 87500;","","","","","","","","","",""
"94213099999","2005-11-06T09:00:00","-17.0166666","128.2166666","205.0","WARMUN, AS","FM-12","4","","68","99","","","","","36","","29.77","29.10","13.67","77","360","","5","","","","","","","","","","","","","","","","","","","","","","","","","","","","","","","","","","","","","","","","","","","","","","","","","","","","","","","","","","","","","","","","","","","","","","","","","","","","","","","","","","","","","","","","","","","SYN082AAXX  06014 94213 11/72 23604 10371 20198 39856 40082 60004 70100 81062 333 70000;","","","","","","","","","",""
"94213099999","2005-11-06T15:00:00","-17.0166666","128.2166666","205.0","WARMUN, AS","FM-12","4","","62","106","","","","","24","","29.62","28.96","17.40","76","020","","11","","","","","","","","","","","","","","","","","","","","","","","","","","","","","","","","","","","","","","","","","","","","","","","","","","","","","","","","","","","","","","","","","","","","","","","","","","","","","","","","","","","","","","","","","","","SYN072AAXX  06074 94213 11578 50210 10410 20166 39807 40032 60001 70300 85300;","","","","","","","","","",""
"94213099999","2005-11-07T06:00:00","-17.0166666","128.2166666","205.0","WARMUN, AS","FM-12","4","","73","85","","","","","69","","29.77","29.10","15.53","77","000","","0","","","","","","","","","","","","","","","","","","","","","","","","","","","","","","","","","","","","","","","","","","","","","","","","","","","","","","","","","","","","","","","","","","","","","","","","","","","","","","","","","","","","","","","","","","","SYN066AAXX  06224 94213 41/75 10000 10292 20229 39854 40080 70191 81080;","","","","","","","","","",""
"94213099999","2005-11-07T09:00:00","-17.0166666","128.2166666","205.0","WARMUN, AS","FM-12","4","","","","","","","","","","","","","","000","","0","","","","","","","","","","","","","","","","","","","","","","","","","","","","","","","","","","","","","","","","","","","","","","","","","","","","","","","","","","","","","","","","","","","","","","","","","","","","","","","","","","","","","","","","","","","SYN052AAXX  07014 94213 11/// /0000 60044 70000 333 70040;","","","","","","","","","",""
"94213099999","2005-11-07T15:00:00","-17.0166666","128.2166666","205.0","WARMUN, AS","FM-12","4","","65","103","","||TS","","","29","","29.67","29.00","16.78","77","020","","18","","","","","","","","","","","","","","","","","","","","","","","","","","","","","","","","","","","","","","","","","","","","","","","","","","","","","","","","","","","","","","","","","","","","","","","","","","","","","","","","","","","","","","","","","","","SYN072AAXX  07074 94213 11777 40216 10396 20186 39822 40047 60001 71700 84920;","","","","","","","","","",""
"94213099999","2005-11-08T06:00:00","-17.0166666","128.2166666","205.0","WARMUN, AS","FM-12","4","","76","88","","","","","68","","29.81","29.14","12.43","79","000","","0","","","","","","","","","","","","","","","","","","","","","","","","","","","","","","","","","","","","","","","","","","","","","","","","","","","","","","","","","","","","","","","","","","","","","","","","","","","","","","","","","","","","","","","","","","","SYN066AAXX  07224 94213 41570 20000 10310 20243 39868 40094 70100 81508;","","","","","","","","","",""
"94213099999","2005-11-08T09:00:00","-17.0166666","128.2166666","205.0","WARMUN, AS","FM-12","4","","68","98","","","","","38","","29.81","29.14","15.53","77","290","","18","","","","","","","","","","","","","","","","","","","","","","","","","","","","","","","","","","","","","","","","","","","","","","","","","","","","","","","","","","","","","","","","","","","","","","","","","","","","","","","","","","","","","","","","","","","SYN082AAXX  08014 94213 11/75 12916 10365 20202 39869 40095 60004 70100 80001 333 70000;","","","","","","","","","",""
"94213099999","2005-11-08T15:00:00","-17.0166666","128.2166666","205.0","WARMUN, AS","FM-12","4","","60","105","","","","","23","","29.65","28.98","18.64","75","310","","3","","","","","","","","","","","","","","","","","","","","","","","","","","","","","","","","","","","","","","","","","","","","","","","","","","","","","","","","","","","","","","","","","","","","","","","","","","","","","","","","","","","","","","","","","","","SYN072AAXX  08074 94213 11880 53103 10405 20158 39815 40040 60001 70311 85860;","","","","","","","","","",""
"94213099999","2005-11-09T06:00:00","-17.0166666","128.2166666","205.0","WARMUN, AS","FM-12","4","","73","80","","","","","80","","29.83","29.16","13.67","75","360","","1","","","","","","","","","","","","","","","","","","","","","","","","","","","","","","","","","","","","","","","","","","","","","","","","","","","","","","","","","","","","","","","","","","","","","","","","","","","","","","","","","","","","","","","","","","","SYN066AAXX  08224 94213 41472 53601 10265 20228 39875 40102 70162 84580;","","","","","","","","","",""
"94213099999","2005-11-09T09:00:00","-17.0166666","128.2166666","205.0","WARMUN, AS","FM-12","4","","74","90","","","","","58","","29.83","29.16","15.53","79","290","","5","","","","","","","","","","","","","","","","","","","","","","","","","","","","","","","","","","","","","","","","","","","","","","","","","","","","","","","","","","","","","","","","","","","","","","","","","","","","","","","","","","","","","","","","","","","SYN082AAXX  09014 94213 11/75 42904 10325 20231 39874 40101 60304 70100 83054 333 70295;","","","","","","","","","",""
"94213099999","2005-11-09T15:00:00","-17.0166666","128.2166666","205.0","WARMUN, AS","FM-12","4","","63","104","","","","","26","","29.68","29.01","17.40","76","020","","13","","","","","","","","","","","","","","","","","","","","","","","","","","","","","","","","","","","","","","","","","","","","","","","","","","","","","","","","","","","","","","","","","","","","","","","","","","","","","","","","","","","","","","","","","","","SYN072AAXX  09074 94213 11778 30211 10400 20170 39825 40050 60001 70300 83300;","","","","","","","","","",""
"94213099999","2005-11-10T06:00:00","-17.0166666","128.2166666","205.0","WARMUN, AS","FM-12","4","","76","83","","","","","79","","29.80","29.13","12.43","78","000","","0","","","","","","","","","","","","","","","","","","","","","","","","","","","","","","","","","","","","","","","","","","","","","","","","","","","","","","","","","","","","","","","","","","","","","","","","","","","","","","","","","","","","","","","","","","","SYN066AAXX  09224 94213 41/70 70000 10285 20245 39866 40092 70111 80008;","","","","","","","","","",""
"94213099999","2005-11-10T09:00:00","-17.0166666","128.2166666","205.0","WARMUN, AS","FM-12","4","","68","93","","","","","44","","29.81","29.14","9.32","76","000","","0","","","","","","","","","","","","","","","","","","","","","","","","","","","","","","","","","","","","","","","","","","","","","","","","","","","","","","","","","","","","","","","","","","","","","","","","","","","","","","","","","","","","","","","","","","","SYN082AAXX  10014 94213 11/65 70000 10341 20202 39869 40095 60004 70122 80008 333 70000;","","","","","","","","","",""
"94213099999","2005-11-10T15:00:00","-17.0166666","128.2166666","205.0","WARMUN, AS","FM-12","4","","80","105","","","","","45","","29.61","28.95","17.40","86","230","","2","","","","","","","","","","","","","","","","","","","","","","","","","","","","","","","","","","","","","","","","","","","","","","","","","","","","","","","","","","","","","","","","","","","","","","","","","","","","","","","","","","","","","","","","","","","SYN072AAXX  10074 94213 11778 52302 10408 20268 39803 40028 60001 70322 83208;","","","","","","","","","",""
"94213099999","2005-11-11T06:00:00","-17.0166666","128.2166666","205.0","WARMUN, AS","FM-12","4","","85","86","","","","","96","","29.75","29.08","11.18","85","020","","3","","","","","","","","","","","","","","","","","","","","","","","","","","","","","","","","","","","","","","","","","","","","","","","","","","","","","","","","","","","","","","","","","","","","","","","","","","","","","","","","","","","","","","","","","","","SYN066AAXX  10224 94213 41/68 10203 10300 20293 39847 40073 70111 80001;","","","","","","","","","",""
"94213099999","2005-11-11T09:00:00","-17.0166666","128.2166666","205.0","WARMUN, AS","FM-12","4","","75","95","","","","","52","","29.74","29.08","14.29","80","050","","6","","","","","","","","","","","","","","","","","","","","","","","","","","","","","","","","","","","","","","","","","","","","","","","","","","","","","","","","","","","","","","","","","","","","","","","","","","","","","","","","","","","","","","","","","","","SYN082AAXX  11014 94213 11673 10505 10348 20237 39846 40072 60004 70200 81200 333 70000;","","","","","","","","","",""
"94213099999","2005-11-11T15:00:00","-17.0166666","128.2166666","205.0","WARMUN, AS","FM-12","4","","64","101","","","","","30","","29.62","28.96","13.67","75","360","","11","","","","","","","","","","","","","","","","","","","","","","","","","","","","","","","","","","","","","","","","","","","","","","","","","","","","","","","","","","","","","","","","","","","","","","","","","","","","","","","","","","","","","","","","","","","SYN072AAXX  11074 94213 11772 73610 10385 20180 39806 40031 60001 70322 82395;","","","","","","","","","",""
"94213099999","2005-11-12T06:00:00","-17.0166666","128.2166666","205.0","WARMUN, AS","FM-12","4","","72","82","","","","","70","","29.82","29.15","12.43","75","020","","2","","","","","","","","","","","","","","","","","","","","","","","","","","","","","","","","","","","","","","","","","","","","","","","","","","","","","","","","","","","","","","","","","","","","","","","","","","","","","","","","","","","","","","","","","","","SYN066AAXX  11224 94213 41570 20202 10280 20221 39872 40099 70100 81303;","","","","","","","","","",""
"94213099999","2005-11-12T09:00:00","-17.0166666","128.2166666","205.0","WARMUN, AS","FM-12","4","","71","90","","","","","52","","29.83","29.15","15.53","77","360","","8","","","","","","","","","","","","","","","","","","","","","","","","","","","","","","","","","","","","","","","","","","","","","","","","","","","","","","","","","","","","","","","","","","","","","","","","","","","","","","","","","","","","","","","","","","","SYN082AAXX  12014 94213 11/75 23607 10325 20214 39873 40100 60004 70300 81086 333 70000;","","","","","","","","","",""
"94213099999","2005-11-12T15:00:00","-17.0166666","128.2166666","205.0","WARMUN, AS","FM-12","4","","67","100","","","","","33","","29.67","29.00","17.40","77","340","","13","","","","","","","","","","","","","","","","","","","","","","","","","","","","","","","","","","","","","","","","","","","","","","","","","","","","","","","","","","","","","","","","","","","","","","","","","","","","","","","","","","","","","","","","","","","SYN072AAXX  12074 94213 11778 33411 10380 20193 39821 40046 60001 70300 83300;","","","","","","","","","",""
"94213099999","2005-11-13T06:00:00","-17.0166666","128.2166666","205.0","WARMUN, AS","FM-12","4","","71","87","","","","","58","","29.83","29.16","12.43","76","000","","0","","","","","","","","","","","","","","","","","","","","","","","","","","","","","","","","","","","","","","","","","","","","","","","","","","","","","","","","","","","","","","","","","","","","","","","","","","","","","","","","","","","","","","","","","","","SYN066AAXX  12224 94213 41570 50000 10308 20216 39876 40103 70311 82551;","","","","","","","","","",""
"94213099999","2005-11-13T09:00:00","-17.0166666","128.2166666","205.0","WARMUN, AS","FM-12","4","","71","94","","","","","48","","29.84","29.17","15.53","78","360","","2","","","","","","","","","","","","","","","","","","","","","","","","","","","","","","","","","","","","","","","","","","","","","","","","","","","","","","","","","","","","","","","","","","","","","","","","","","","","","","","","","","","","","","","","","","","SYN082AAXX  13014 94213 11775 53602 10342 20218 39879 40106 60004 70122 81202 333 70000;","","","","","","","","","",""
"94213099999","2005-11-13T15:00:00","-17.0166666","128.2166666","205.0","WARMUN, AS","FM-12","4","","62","100","","","","","29","","29.67","29.00","17.40","74","000","","0","","","","","","","","","","","","","","","","","","","","","","","","","","","","","","","","","","","","","","","","","","","","","","","","","","","","","","","","","","","","","","","","","","","","","","","","","","","","","","","","","","","","","","","","","","","SYN072AAXX  13074 94213 11878 40000 10377 20168 39822 40047 60001 70311 84200;","","","","","","","","","",""
"94213099999","2005-11-14T06:00:00","-17.0166666","128.2166666","205.0","WARMUN, AS","FM-12","4","","68","79","","","","","70","","29.82","29.15","9.32","72","250","","21","","","","","","","","","","","","","","","","","","","","","","","","","","","","","","","","","","","","","","","","","","","","","","","","","","","","","","","","","","","","","","","","","","","","","","","","","","","","","","","","","","","","","","","","","","","SYN066AAXX  13224 94213 41565 72518 10260 20202 39872 40099 70362 87830;","","","","","","","","","",""
"94213099999","2005-11-14T09:00:00","-17.0166666","128.2166666","205.0","WARMUN, AS","FM-12","4","","69","87","","","","","56","","29.82","29.15","12.43","75","340","","3","","","","","","","","","","","","","","","","","","","","","","","","","","","","","","","","","","","","","","","","","","","","","","","","","","","","","","","","","","","","","","","","","","","","","","","","","","","","","","","","","","","","","","","","","","","SYN082AAXX  14014 94213 11670 63403 10305 20208 39870 40097 60024 70192 84570 333 70016;","","","","","","","","","",""
"94213099999","2005-11-14T15:00:00","-17.0166666","128.2166666","205.0","WARMUN, AS","FM-12","4","","64","96","","","","","35","","29.69","29.03","18.64","74","050","","3","","","","","","","","","","","","","","","","","","","","","","","","","","","","","","","","","","","","","","","","","","","","","","","","","","","","","","","","","","","","","","","","","","","","","","","","","","","","","","","","","","","","","","","","","","","SYN072AAXX  14074 94213 11880 20503 10355 20179 39829 40055 60001 70111 81205;","","","","","","","","","",""
"94213099999","2005-11-15T06:00:00","-17.0166666","128.2166666","205.0","WARMUN, AS","FM-12","4","","73","81","","||RA","","","77","","29.82","29.15","12.43","75","130","","5","","","","","","","","","","","","","","","","","","","","","","","","","","","","","","","","","","","","","","","","","","","","","","","","","","","","","","","","","","","","","","","","","","","","","","","","","","","","","","","","","","","","","","","","","","","SYN066AAXX  14224 94213 41470 81304 10270 20226 39870 40097 76122 84570;","","","","","","","","","",""
"94213099999","2005-11-15T09:00:00","-17.0166666","128.2166666","205.0","WARMUN, AS","FM-12","4","","67","88","","","","","51","","29.87","29.20","15.53","74","110","","1","","","","","","","","","","","","","","","","","","","","","","","","","","","","","","","","","","","","","","","","","","","","","","","","","","","","","","","","","","","","","","","","","","","","","","","","","","","","","","","","","","","","","","","","","","","SYN082AAXX  15014 94213 11/75 71101 10310 20196 39887 40114 60014 70162 87090 333 70012;","","","","","","","","","",""
"94213099999","2005-11-15T15:00:00","-17.0166666","128.2166666","205.0","WARMUN, AS","FM-12","4","","59","98","","","","","27","","29.69","29.02","18.64","72","090","","7","","","","","","","","","","","","","","","","","","","","","","","","","","","","","","","","","","","","","","","","","","","","","","","","","","","","","","","","","","","","","","","","","","","","","","","","","","","","","","","","","","","","","","","","","","","SYN072AAXX  15074 94213 11880 60906 10366 20150 39828 40054 60001 70122 81184;","","","","","","","","","",""
"94213099999","2005-11-16T06:00:00","-17.0166666","128.2166666","205.0","WARMUN, AS","FM-12","4","","59","86","","","","","41","","29.82","29.15","15.53","69","130","","14","","","","","","","","","","","","","","","","","","","","","","","","","","","","","","","","","","","","","","","","","","","","","","","","","","","","","","","","","","","","","","","","","","","","","","","","","","","","","","","","","","","","","","","","","","","SYN066AAXX  15224 94213 41675 41312 10298 20152 39870 40097 70111 83530;","","","","","","","","","",""
"94213099999","2005-11-16T09:00:00","-17.0166666","128.2166666","205.0","WARMUN, AS","FM-12","4","","55","95","","","","","26","","29.82","29.15","16.16","70","230","","18","","","","","","","","","","","","","","","","","","","","","","","","","","","","","","","","","","","","","","","","","","","","","","","","","","","","","","","","","","","","","","","","","","","","","","","","","","","","","","","","","","","","","","","","","","","SYN082AAXX  16014 94213 11/76 32316 10350 20129 39871 40098 60004 70100 80002 333 70000;","","","","","","","","","",""
"94213099999","2005-11-16T15:00:00","-17.0166666","128.2166666","205.0","WARMUN, AS","FM-12","4","","52","104","","","","","17","","29.67","29.01","18.02","71","110","","5","","","","","","","","","","","","","","","","","","","","","","","","","","","","","","","","","","","","","","","","","","","","","","","","","","","","","","","","","","","","","","","","","","","","","","","","","","","","","","","","","","","","","","","","","","","SYN072AAXX  16074 94213 11879 31104 10401 20110 39823 40048 60001 70100 83550;","","","","","","","","","",""
"94213099999","2005-11-17T06:00:00","-17.0166666","128.2166666","205.0","WARMUN, AS","FM-12","4","","62","81","","","","","53","","29.77","29.10","12.43","69","000","","0","","","","","","","","","","","","","","","","","","","","","","","","","","","","","","","","","","","","","","","","","","","","","","","","","","","","","","","","","","","","","","","","","","","","","","","","","","","","","","","","","","","","","","","","","","","SYN066AAXX  16224 94213 41/70 10000 10270 20166 39855 40081 70100 80008;","","","","","","","","","",""
"94213099999","2005-11-17T09:00:00","-17.0166666","128.2166666","205.0","WARMUN, AS","FM-12","4","","54","101","","","","","21","","29.76","29.09","15.53","71","130","","3","","","","","","","","","","","","","","","","","","","","","","","","","","","","","","","","","","","","","","","","","","","","","","","","","","","","","","","","","","","","","","","","","","","","","","","","","","","","","","","","","","","","","","","","","","","SYN082AAXX  17014 94213 11/75 11303 10385 20122 39852 40078 60004 70200 80008 333 70000;","","","","","","","","","",""
"94213099999","2005-11-17T15:00:00","-17.0166666","128.2166666","205.0","WARMUN, AS","FM-12","4","","49","108","","","","","14","","29.61","28.95","18.64","71","050","","6","","","","","","","","","","","","","","","","","","","","","","","","","","","","","","","","","","","","","","","","","","","","","","","","","","","","","","","","","","","","","","","","","","","","","","","","","","","","","","","","","","","","","","","","","","","SYN072AAXX  17074 94213 11980 50505 10420 20095 39802 40027 60001 70311 83270;","","","","","","","","","",""
"94213099999","2005-11-18T06:00:00","-17.0166666","128.2166666","205.0","WARMUN, AS","FM-12","4","","73","85","","||RA","","","68","","29.77","29.10","11.18","77","360","","11","","","","","","","","","","","","","","","","","","","","","","","","","","","","","","","","","","","","","","","","","","","","","","","","","","","","","","","","","","","","","","","","","","","","","","","","","","","","","","","","","","","","","","","","","","","SYN066AAXX  17224 94213 41568 73610 10295 20229 39854 40080 76022 85590;","","","","","","","","","",""
"94213099999","2005-11-18T09:00:00","-17.0166666","128.2166666","205.0","WARMUN, AS","FM-12","4","","70","94","","","","","46","","29.79","29.12","15.53","77","290","","11","","","","","","","","","","","","","","","","","","","","","","","","","","","","","","","","","","","","","","","","","","","","","","","","","","","","","","","","","","","","","","","","","","","","","","","","","","","","","","","","","","","","","","","","","","","SYN082AAXX  18014 94213 11475 42910 10345 20213 39861 40087 69904 70100 82502 333 79999;","","","","","","","","","",""
"94213099999","2005-11-18T15:00:00","-17.0166666","128.2166666","205.0","WARMUN, AS","FM-12","4","","57","106","","","","","20","","29.61","28.94","18.64","73","360","","11","","","","","","","","","","","","","","","","","","","","","","","","","","","","","","","","","","","","","","","","","","","","","","","","","","","","","","","","","","","","","","","","","","","","","","","","","","","","","","","","","","","","","","","","","","","SYN072AAXX  18074 94213 11780 33610 10410 20140 39801 40026 60001 70100 82340;","","","","","","","","","",""
"94213099999","2005-11-19T06:00:00","-17.0166666","128.2166666","205.0","WARMUN, AS","FM-12","4","","70","78","","","","","75","","29.76","29.09","15.53","73","000","","0","","","","","","","","","","","","","","","","","","","","","","","","","","","","","","","","","","","","","","","","","","","","","","","","","","","","","","","","","","","","","","","","","","","","","","","","","","","","","","","","","","","","","","","","","","","SYN066AAXX  18224 94213 41575 60000 10258 20210 39852 40078 70381 84590;","","","","","","","","","",""
"94213099999","2005-11-19T09:00:00","-17.0166666","128.2166666","205.0","WARMUN, AS","FM-12","4","","70","92","","","","","48","","29.77","29.10","16.16","77","000","","0","","","","","","","","","","","","","","","","","","","","","","","","","","","","","","","","","","","","","","","","","","","","","","","","","","","","","","","","","","","","","","","","","","","","","","","","","","","","","","","","","","","","","","","","","","","SYN082AAXX  19014 94213 11776 60000 10333 20210 39855 40081 60014 70322 85570 333 70013;","","","","","","","","","",""
"94213099999","2005-11-19T15:00:00","-17.0166666","128.2166666","205.0","WARMUN, AS","FM-12","4","","59","100","","","","","26","","29.62","28.95","18.64","73","020","","2","","","","","","","","","","","","","","","","","","","","","","","","","","","","","","","","","","","","","","","","","","","","","","","","","","","","","","","","","","","","","","","","","","","","","","","","","","","","","","","","","","","","","","","","","","","SYN072AAXX  19074 94213 11980 20202 10380 20151 39805 40030 60001 70111 81230;","","","","","","","","","",""
"94213099999","2005-11-20T06:00:00","-17.0166666","128.2166666","205.0","WARMUN, AS","FM-12","4","","63","90","","","","","41","","29.77","29.10","9.32","72","130","","6","","","","","","","","","","","","","","","","","","","","","","","","","","","","","","","","","","","","","","","","","","","","","","","","","","","","","","","","","","","","","","","","","","","","","","","","","","","","","","","","","","","","","","","","","","","SYN066AAXX  19224 94213 41765 61305 10320 20171 39855 40081 70300 85830;","","","","","","","","","",""
"94213099999","2005-11-20T09:00:00","-17.0166666","128.2166666","205.0","WARMUN, AS","FM-12","4","","71","91","","","","","51","","29.77","29.10","13.67","77","050","","6","","","","","","","","","","","","","","","","","","","","","","","","","","","","","","","","","","","","","","","","","","","","","","","","","","","","","","","","","","","","","","","","","","","","","","","","","","","","","","","","","","","","","","","","","","","SYN082AAXX  20014 94213 11672 40505 10330 20215 39855 40081 60004 70100 83859 333 70000;","","","","","","","","","",""
"94213099999","2005-11-20T15:00:00","-17.0166666","128.2166666","205.0","WARMUN, AS","FM-12","4","","71","88","","||TS","","","57","","29.63","28.97","18.64","76","130","","11","","","","","","","","","","","","","","","","","","","","","","","","","","","","","","","","","","","","","","","","","","","","","","","","","","","","","","","","","","","","","","","","","","","","","","","","","","","","","","","","","","","","","","","","","","","SYN072AAXX  20074 94213 11680 61310 10310 20214 39809 40034 60091 71762 85990;","","","","","","","","","",""
"94213099999","2005-11-21T06:00:00","-17.0166666","128.2166666","205.0","WARMUN, AS","FM-12","4","","71","81","","","","","70","","29.78","29.11","12.43","74","290","","5","","","","","","","","","","","","","","","","","","","","","","","","","","","","","","","","","","","","","","","","","","","","","","","","","","","","","","","","","","","","","","","","","","","","","","","","","","","","","","","","","","","","","","","","","","","SYN066AAXX  20224 94213 41/70 12904 10275 20215 39858 40084 70100 81040;","","","","","","","","","",""
"94213099999","2005-11-21T09:00:00","-17.0166666","128.2166666","205.0","WARMUN, AS","FM-12","4","","70","91","","","","","50","CLR:00","29.79","29.13","15.53","76","020","","2","","","","","","","","","","","","","","","","","","","","","","","","","","","","","","","","","","","","","","","","","","","","","","","","","","","","","","","","","","","","","","","","","","","","","","","","","","","","","","","","","","","","","","","","","","","SYN076AAXX  21014 94213 11975 00202 10330 20212 39863 40089 60094 70000 333 70085;","","","","","","","","","",""
"94213099999","2005-11-21T15:00:00","-17.0166666","128.2166666","205.0","WARMUN, AS","FM-12","4","","66","91","","","","","44","","29.67","29.00","17.40","74","020","","8","","","","","","","","","","","","","","","","","","","","","","","","","","","","","","","","","","","","","","","","","","","","","","","","","","","","","","","","","","","","","","","","","","","","","","","","","","","","","","","","","","","","","","","","","","","SYN072AAXX  21074 94213 11678 60207 10330 20190 39821 40046 60001 70322 85908;","","","","","","","","","",""
"94213099999","2005-11-22T06:00:00","-17.0166666","128.2166666","205.0","WARMUN, AS","FM-12","4","","68","83","","","","","59","","29.81","29.14","15.53","73","000","","0","","","","","","","","","","","","","","","","","","","","","","","","","","","","","","","","","","","","","","","","","","","","","","","","","","","","","","","","","","","","","","","","","","","","","","","","","","","","","","","","","","","","","","","","","","","SYN066AAXX  21224 94213 41/75 30000 10286 20199 39869 40095 70111 83082;","","","","","","","","","",""
"94213099999","2005-11-22T09:00:00","-17.0166666","128.2166666","205.0","WARMUN, AS","FM-12","4","","65","93","","","","","41","","29.81","29.14","16.16","74","160","","5","","","","","","","","","","","","","","","","","","","","","","","","","","","","","","","","","","","","","","","","","","","","","","","","","","","","","","","","","","","","","","","","","","","","","","","","","","","","","","","","","","","","","","","","","","","SYN082AAXX  22014 94213 11/76 11604 10337 20186 39869 40095 60004 70100 81030 333 70000;","","","","","","","","","",""
"94213099999","2005-11-22T15:00:00","-17.0166666","128.2166666","205.0","WARMUN, AS","FM-12","4","","56","101","","","","","23","","29.65","28.99","17.40","72","160","","5","","","","","","","","","","","","","","","","","","","","","","","","","","","","","","","","","","","","","","","","","","","","","","","","","","","","","","","","","","","","","","","","","","","","","","","","","","","","","","","","","","","","","","","","","","","SYN072AAXX  22074 94213 11978 41604 10383 20136 39816 40041 60001 70300 84230;","","","","","","","","","",""
"94213099999","2005-11-23T06:00:00","-17.0166666","128.2166666","205.0","WARMUN, AS","FM-12","4","","69","85","","","","","58","","29.80","29.13","12.43","74","000","","0","","","","","","","","","","","","","","","","","","","","","","","","","","","","","","","","","","","","","","","","","","","","","","","","","","","","","","","","","","","","","","","","","","","","","","","","","","","","","","","","","","","","","","","","","","","SYN066AAXX  22224 94213 41670 10000 10295 20205 39866 40092 70100 81500;","","","","","","","","","",""
"94213099999","2005-11-23T09:00:00","-17.0166666","128.2166666","205.0","WARMUN, AS","FM-12","4","","67","94","","","","","41","","29.80","29.13","15.53","75","070","","6","","","","","","","","","","","","","","","","","","","","","","","","","","","","","","","","","","","","","","","","","","","","","","","","","","","","","","","","","","","","","","","","","","","","","","","","","","","","","","","","","","","","","","","","","","","SYN082AAXX  23014 94213 11775 40705 10345 20194 39864 40090 60004 70300 84800 333 70000;","","","","","","","","","",""
"94213099999","2005-11-23T15:00:00","-17.0166666","128.2166666","205.0","WARMUN, AS","FM-12","4","","60","99","","||DZ","","","27","","29.64","28.98","15.53","73","050","","6","","","","","","","","","","","","","","","","","","","","","","","","","","","","","","","","","","","","","","","","","","","","","","","","","","","","","","","","","","","","","","","","","","","","","","","","","","","","","","","","","","","","","","","","","","","SYN072AAXX  23074 94213 11775 60505 10375 20154 39813 40038 69901 75011 86908;","","","","","","","","","",""
"94213099999","2005-11-24T06:00:00","-17.0166666","128.2166666","205.0","WARMUN, AS","FM-12","4","","71","84","","","","","65","CLR:00","29.77","29.10","16.16","75","000","","0","","","","","","","","","","","","","","","","","","","","","","","","","","","","","","","","","","","","","","","","","","","","","","","","","","","","","","","","","","","","","","","","","","","","","","","","","","","","","","","","","","","","","","","","","","","SYN060AAXX  23224 94213 41976 00000 10291 20218 39855 40081 70111;","","","","","","","","","",""
"94213099999","2005-11-24T09:00:00","-17.0166666","128.2166666","205.0","WARMUN, AS","FM-12","4","","63","97","","","","","33","","29.79","29.12","13.67","74","020","","8","","","","","","","","","","","","","","","","","","","","","","","","","","","","","","","","","","","","","","","","","","","","","","","","","","","","","","","","","","","","","","","","","","","","","","","","","","","","","","","","","","","","","","","","","","","SYN082AAXX  24014 94213 11872 10207 10360 20175 39862 40088 69904 70100 81100 333 79999;","","","","","","","","","",""
"94213099999","2005-11-24T15:00:00","-17.0166666","128.2166666","205.0","WARMUN, AS","FM-12","4","","56","104","","","","","21","","29.62","28.96","18.64","72","360","","3","","","","","","","","","","","","","","","","","","","","","","","","","","","","","","","","","","","","","","","","","","","","","","","","","","","","","","","","","","","","","","","","","","","","","","","","","","","","","","","","","","","","","","","","","","","SYN072AAXX  24074 94213 11880 63603 10400 20135 39807 40032 60001 70322 86800;","","","","","","","","","",""
"94213099999","2005-11-25T06:00:00","-17.0166666","128.2166666","205.0","WARMUN, AS","FM-12","4","","71","86","","","","","62","","29.78","29.11","15.53","76","360","","1","","","","","","","","","","","","","","","","","","","","","","","","","","","","","","","","","","","","","","","","","","","","","","","","","","","","","","","","","","","","","","","","","","","","","","","","","","","","","","","","","","","","","","","","","","","SYN066AAXX  24224 94213 41/75 13601 10300 20219 39857 40083 70100 81060;","","","","","","","","","",""
"94213099999","2005-11-25T09:00:00","-17.0166666","128.2166666","205.0","WARMUN, AS","FM-12","4","","82","97","","","","","62","","29.78","29.12","15.53","85","340","","8","","","","","","","","","","","","","","","","","","","","","","","","","","","","","","","","","","","","","","","","","","","","","","","","","","","","","","","","","","","","","","","","","","","","","","","","","","","","","","","","","","","","","","","","","","","SYN082AAXX  25014 94213 11/75 13407 10361 20278 39860 40086 60004 70100 81080 333 70000;","","","","","","","","","",""
"94213099999","2005-11-25T15:00:00","-17.0166666","128.2166666","205.0","WARMUN, AS","FM-12","4","","60","104","","","","","24","","29.62","28.96","18.64","74","360","","8","","","","","","","","","","","","","","","","","","","","","","","","","","","","","","","","","","","","","","","","","","","","","","","","","","","","","","","","","","","","","","","","","","","","","","","","","","","","","","","","","","","","","","","","","","","SYN072AAXX  25074 94213 11980 43607 10400 20155 39806 40031 60001 70300 82265;","","","","","","","","","",""
"94213099999","2005-11-26T06:00:00","-17.0166666","128.2166666","205.0","WARMUN, AS","FM-12","4","","70","89","","","","","55","","29.75","29.08","12.43","76","070","","3","","","","","","","","","","","","","","","","","","","","","","","","","","","","","","","","","","","","","","","","","","","","","","","","","","","","","","","","","","","","","","","","","","","","","","","","","","","","","","","","","","","","","","","","","","","SYN066AAXX  25224 94213 41/70 10703 10315 20213 39848 40074 70100 80008;","","","","","","","","","",""
"94213099999","2005-11-26T09:00:00","-17.0166666","128.2166666","205.0","WARMUN, AS","FM-12","4","","69","100","","","","","37","","29.76","29.10","15.53","78","310","","3","","","","","","","","","","","","","","","","","","","","","","","","","","","","","","","","","","","","","","","","","","","","","","","","","","","","","","","","","","","","","","","","","","","","","","","","","","","","","","","","","","","","","","","","","","","SYN082AAXX  26014 94213 11/75 13103 10380 20207 39853 40079 60004 70200 80008 333 70000;","","","","","","","","","",""
"94213099999","2005-11-26T15:00:00","-17.0166666","128.2166666","205.0","WARMUN, AS","FM-12","4","","59","103","","","","","24","","29.63","28.96","18.64","74","360","","17","","","","","","","","","","","","","","","","","","","","","","","","","","","","","","","","","","","","","","","","","","","","","","","","","","","","","","","","","","","","","","","","","","","","","","","","","","","","","","","","","","","","","","","","","","","SYN072AAXX  26074 94213 11980 53615 10394 20152 39808 40033 60021 72111 85380;","","","","","","","","","",""
"94213099999","2005-11-27T06:00:00","-17.0166666","128.2166666","205.0","WARMUN, AS","FM-12","4","","71","83","","","","","67","","29.83","29.16","14.91","75","200","","5","","","","","","","","","","","","","","","","","","","","","","","","","","","","","","","","","","","","","","","","","","","","","","","","","","","","","","","","","","","","","","","","","","","","","","","","","","","","","","","","","","","","","","","","","","","SYN066AAXX  26224 94213 41/74 62004 10285 20218 39876 40103 70162 83088;","","","","","","","","","",""
"94213099999","2005-11-27T09:00:00","-17.0166666","128.2166666","205.0","WARMUN, AS","FM-12","4","","69","94","","","","","44","","29.84","29.17","15.53","76","180","","3","","","","","","","","","","","","","","","","","","","","","","","","","","","","","","","","","","","","","","","","","","","","","","","","","","","","","","","","","","","","","","","","","","","","","","","","","","","","","","","","","","","","","","","","","","","SYN082AAXX  27014 94213 11/75 21803 10345 20204 39877 40104 60244 70100 82060 333 70235;","","","","","","","","","",""
"94213099999","2005-11-27T15:00:00","-17.0166666","128.2166666","205.0","WARMUN, AS","FM-12","4","","63","104","","","","","26","","29.67","29.01","17.40","76","020","","3","","","","","","","","","","","","","","","","","","","","","","","","","","","","","","","","","","","","","","","","","","","","","","","","","","","","","","","","","","","","","","","","","","","","","","","","","","","","","","","","","","","","","","","","","","","SYN072AAXX  27074 94213 11878 70203 10400 20170 39823 40048 60001 71511 85448;","","","","","","","","","",""
"94213099999","2005-11-28T06:00:00","-17.0166666","128.2166666","205.0","WARMUN, AS","FM-12","4","","74","78","","","","","89","","29.85","29.18","15.53","75","000","","0","","","","","","","","","","","","","","","","","","","","","","","","","","","","","","","","","","","","","","","","","","","","","","","","","","","","","","","","","","","","","","","","","","","","","","","","","","","","","","","","","","","","","","","","","","","SYN066AAXX  27224 94213 41375 70000 10254 20235 39881 40108 70396 8272/;","","","","","","","","","",""
"94213099999","2005-11-28T09:00:00","-17.0166666","128.2166666","205.0","WARMUN, AS","FM-12","4","","75","84","","","","","74","","29.91","29.24","15.53","78","360","","5","","","","","","","","","","","","","","","","","","","","","","","","","","","","","","","","","","","","","","","","","","","","","","","","","","","","","","","","","","","","","","","","","","","","","","","","","","","","","","","","","","","","","","","","","","","SYN082AAXX  28014 94213 11575 73604 10290 20240 39903 40130 60144 70322 8357/ 333 70140;","","","","","","","","","",""
"94213099999","2005-11-29T06:00:00","-17.0166666","128.2166666","205.0","WARMUN, AS","FM-12","4","","75","80","","","","","86","","29.72","29.06","11.18","76","130","","2","","","","","","","","","","","","","","","","","","","","","","","","","","","","","","","","","","","","","","","","","","","","","","","","","","","","","","","","","","","","","","","","","","","","","","","","","","","","","","","","","","","","","","","","","","","SYN066AAXX  28224 94213 41468 71302 10266 20240 39840 40066 70322 84570;","","","","","","","","","",""
"94213099999","2005-11-29T09:00:00","-17.0166666","128.2166666","205.0","WARMUN, AS","FM-12","4","","68","95","","","","","42","","29.73","29.07","15.53","76","180","","3","","","","","","","","","","","","","","","","","","","","","","","","","","","","","","","","","","","","","","","","","","","","","","","","","","","","","","","","","","","","","","","","","","","","","","","","","","","","","","","","","","","","","","","","","","","SYN082AAXX  29014 94213 11/75 11803 10350 20201 39843 40069 60004 70111 80008 333 70000;","","","","","","","","","",""
"94213099999","2005-11-29T15:00:00","-17.0166666","128.2166666","205.0","WARMUN, AS","FM-12","4","","65","98","","||TS","","","34","","29.57","28.91","18.64","75","050","","2","","","","","","","","","","","","","","","","","","","","","","","","","","","","","","","","","","","","","","","","","","","","","","","","","","","","","","","","","","","","","","","","","","","","","","","","","","","","","","","","","","","","","","","","","","","SYN072AAXX  29074 94213 11880 50502 10366 20182 39789 40014 60001 71711 85305;","","","","","","","","","",""
"94213099999","2005-11-30T06:00:00","-17.0166666","128.2166666","205.0","WARMUN, AS","FM-12","4","","73","77","","","","","87","","29.70","29.04","14.91","74","000","","0","","","","","","","","","","","","","","","","","","","","","","","","","","","","","","","","","","","","","","","","","","","","","","","","","","","","","","","","","","","","","","","","","","","","","","","","","","","","","","","","","","","","","","","","","","","SYN066AAXX  29224 94213 41474 70000 10251 20227 39833 40059 70362 82595;","","","","","","","","","",""
"94213099999","2005-11-30T09:00:00","-17.0166666","128.2166666","205.0","WARMUN, AS","FM-12","4","","72","86","","","","","64","","29.72","29.05","15.53","76","090","","8","","","","","","","","","","","","","","","","","","","","","","","","","","","","","","","","","","","","","","","","","","","","","","","","","","","","","","","","","","","","","","","","","","","","","","","","","","","","","","","","","","","","","","","","","","","SYN082AAXX  30014 94213 11575 60907 10300 20225 39837 40063 60104 70162 83858 333 70101;","","","","","","","","","",""
"94213099999","2005-11-30T15:00:00","-17.0166666","128.2166666","205.0","WARMUN, AS","FM-12","4","","67","90","","","","","47","","29.58","28.92","18.64","74","270","","16","","","","","","","","","","","","","","","","","","","","","","","","","","","","","","","","","","","","","","","","","","","","","","","","","","","","","","","","","","","","","","","","","","","","","","","","","","","","","","","","","","","","","","","","","","","SYN072AAXX  30074 94213 11580 62714 10320 20192 39792 40017 60001 70322 85940;","","","","","","","","","",""
"94213099999","2005-12-01T06:00:00","-17.0166666","128.2166666","205.0","WARMUN, AS","FM-12","4","","74","80","","","","","83","","29.71","29.04","16.16","76","000","","0","","","","","","","","","","","","","","","","","","","","","","","","","","","","","","","","","","","","","","","","","","","","","","","","","","","","","","","","","","","","","","","","","","","","","","","","","","","","","","","","","","","","","","","","","","","SYN066AAXX  30224 94213 41/76 30000 10266 20235 39835 40061 70161 83050;","","","","","","","","","",""
"94213099999","2005-12-01T09:00:00","-17.0166666","128.2166666","205.0","WARMUN, AS","FM-12","4","","72","89","","","","","59","","29.72","29.05","16.16","77","020","","3","","","","","","","","","","","","","","","","","","","","","","","","","","","","","","","","","","","","","","","","","","","","","","","","","","","","","","","","","","","","","","","","","","","","","","","","","","","","","","","","","","","","","","","","","","","SYN082AAXX  01014 94213 11/76 20203 10315 20225 39839 40065 60024 70100 80008 333 70018;","","","","","","","","","",""
"94213099999","2005-12-01T15:00:00","-17.0166666","128.2166666","205.0","WARMUN, AS","FM-12","4","","60","100","","","","","26","","29.59","28.93","17.40","73","340","","5","","","","","","","","","","","","","","","","","","","","","","","","","","","","","","","","","","","","","","","","","","","","","","","","","","","","","","","","","","","","","","","","","","","","","","","","","","","","","","","","","","","","","","","","","","","SYN072AAXX  01074 94213 11978 33404 10380 20155 39796 40021 60001 70300 83900;","","","","","","","","","",""
"94213099999","2005-12-02T06:00:00","-17.0166666","128.2166666","205.0","WARMUN, AS","FM-12","4","","74","77","","","","","91","","29.78","29.11","11.18","75","000","","0","","","","","","","","","","","","","","","","","","","","","","","","","","","","","","","","","","","","","","","","","","","","","","","","","","","","","","","","","","","","","","","","","","","","","","","","","","","","","","","","","","","","","","","","","","","SYN066AAXX  01224 94213 41/68 40000 10248 20233 39858 40084 70162 84080;","","","","","","","","","",""
"94213099999","2005-12-02T09:00:00","-17.0166666","128.2166666","205.0","WARMUN, AS","FM-12","4","","72","89","","","","","57","","29.78","29.11","15.53","77","310","","3","","","","","","","","","","","","","","","","","","","","","","","","","","","","","","","","","","","","","","","","","","","","","","","","","","","","","","","","","","","","","","","","","","","","","","","","","","","","","","","","","","","","","","","","","","","SYN082AAXX  02014 94213 11675 23103 10314 20220 39859 40085 60174 70111 81108 333 70170;","","","","","","","","","",""
"94213099999","2005-12-02T15:00:00","-17.0166666","128.2166666","205.0","WARMUN, AS","FM-12","4","","71","96","","","","","45","","29.65","28.98","17.40","78","230","","17","","","","","","","","","","","","","","","","","","","","","","","","","","","","","","","","","","","","","","","","","","","","","","","","","","","","","","","","","","","","","","","","","","","","","","","","","","","","","","","","","","","","","","","","","","","SYN072AAXX  02074 94213 11678 72315 10354 20217 39814 40039 60001 70322 87900;","","","","","","","","","",""
"94213099999","2005-12-03T06:00:00","-17.0166666","128.2166666","205.0","WARMUN, AS","FM-12","4","","71","81","","","","","74","","29.74","29.08","14.91","74","160","","5","","","","","","","","","","","","","","","","","","","","","","","","","","","","","","","","","","","","","","","","","","","","","","","","","","","","","","","","","","","","","","","","","","","","","","","","","","","","","","","","","","","","","","","","","","","SYN066AAXX  02224 94213 41574 61604 10270 20219 39846 40072 70322 82876;","","","","","","","","","",""
"94213099999","2005-12-03T09:00:00","-17.0166666","128.2166666","205.0","WARMUN, AS","FM-12","4","","69","93","","","","","46","","29.76","29.09","16.16","76","090","","3","","","","","","","","","","","","","","","","","","","","","","","","","","","","","","","","","","","","","","","","","","","","","","","","","","","","","","","","","","","","","","","","","","","","","","","","","","","","","","","","","","","","","","","","","","","SYN082AAXX  03014 94213 11/76 20903 10340 20208 39851 40077 69904 70100 80008 333 79999;","","","","","","","","","",""
"94213099999","2005-12-03T15:00:00","-17.0166666","128.2166666","205.0","WARMUN, AS","FM-12","4","","63","99","","","","","30","","29.61","28.94","16.16","74","340","","7","","","","","","","","","","","","","","","","","","","","","","","","","","","","","","","","","","","","","","","","","","","","","","","","","","","","","","","","","","","","","","","","","","","","","","","","","","","","","","","","","","","","","","","","","","","SYN072AAXX  03074 94213 11676 73406 10375 20172 39801 40026 60001 70322 83396;","","","","","","","","","",""
"94213099999","2005-12-04T06:00:00","-17.0166666","128.2166666","205.0","WARMUN, AS","FM-12","4","","73","83","","","","","70","","29.76","29.09","15.53","76","000","","0","","","","","","","","","","","","","","","","","","","","","","","","","","","","","","","","","","","","","","","","","","","","","","","","","","","","","","","","","","","","","","","","","","","","","","","","","","","","","","","","","","","","","","","","","","","SYN066AAXX  03224 94213 41/75 60000 10285 20226 39851 40077 70122 86070;","","","","","","","","","",""
"94213099999","2005-12-04T09:00:00","-17.0166666","128.2166666","205.0","WARMUN, AS","FM-12","4","","73","89","","","","","59","","29.76","29.09","16.16","78","160","","2","","","","","","","","","","","","","","","","","","","","","","","","","","","","","","","","","","","","","","","","","","","","","","","","","","","","","","","","","","","","","","","","","","","","","","","","","","","","","","","","","","","","","","","","","","","SYN082AAXX  04014 94213 11/76 71602 10319 20229 39851 40077 60004 70222 8707/ 333 70000;","","","","","","","","","",""
"94213099999","2005-12-04T15:00:00","-17.0166666","128.2166666","205.0","WARMUN, AS","FM-12","4","","68","97","","||TS","","","39","","29.61","28.95","16.78","77","000","","0","","","","","","","","","","","","","","","","","","","","","","","","","","","","","","","","","","","","","","","","","","","","","","","","","","","","","","","","","","","","","","","","","","","","","","","","","","","","","","","","","","","","","","","","","","","SYN072AAXX  04074 94213 11777 70000 10360 20199 39802 40027 60001 71722 8592/;","","","","","","","","","",""
"94213099999","2005-12-05T06:00:00","-17.0166666","128.2166666","205.0","WARMUN, AS","FM-12","4","","73","78","","","","","85","","29.78","29.12","11.18","75","000","","0","","","","","","","","","","","","","","","","","","","","","","","","","","","","","","","","","","","","","","","","","","","","","","","","","","","","","","","","","","","","","","","","","","","","","","","","","","","","","","","","","","","","","","","","","","","SYN066AAXX  04224 94213 41468 80000 10255 20228 39860 40086 70262 84570;","","","","","","","","","",""
"94213099999","2005-12-05T09:00:00","-17.0166666","128.2166666","205.0","WARMUN, AS","FM-12","4","","71","88","","","","","57","","29.80","29.13","14.29","76","020","","6","","","","","","","","","","","","","","","","","","","","","","","","","","","","","","","","","","","","","","","","","","","","","","","","","","","","","","","","","","","","","","","","","","","","","","","","","","","","","","","","","","","","","","","","","","","SYN082AAXX  05014 94213 11673 30205 10310 20214 39864 40090 60064 70111 82608 333 70062;","","","","","","","","","",""
"94213099999","2005-12-05T15:00:00","-17.0166666","128.2166666","205.0","WARMUN, AS","FM-12","4","","69","97","","","","","40","","29.62","28.96","18.64","77","000","","0","","","","","","","","","","","","","","","","","","","","","","","","","","","","","","","","","","","","","","","","","","","","","","","","","","","","","","","","","","","","","","","","","","","","","","","","","","","","","","","","","","","","","","","","","","","SYN072AAXX  05074 94213 11780 70000 10360 20205 39806 40031 60001 70311 82920;","","","","","","","","","",""
"94213099999","2005-12-06T06:00:00","-17.0166666","128.2166666","205.0","WARMUN, AS","FM-12","4","","73","83","","||TS","","","70","","29.79","29.12","15.53","76","000","","0","","","","","","","","","","","","","","","","","","","","","","","","","","","","","","","","","","","","","","","","","","","","","","","","","","","","","","","","","","","","","","","","","","","","","","","","","","","","","","","","","","","","","","","","","","","SYN066AAXX  05224 94213 41575 70000 10286 20227 39861 40087 71722 8379/;","","","","","","","","","",""
"94213099999","2005-12-06T09:00:00","-17.0166666","128.2166666","205.0","WARMUN, AS","FM-12","4","","71","83","","","","","67","","29.83","29.16","15.53","75","020","","2","","","","","","","","","","","","","","","","","","","","","","","","","","","","","","","","","","","","","","","","","","","","","","","","","","","","","","","","","","","","","","","","","","","","","","","","","","","","","","","","","","","","","","","","","","","SYN082AAXX  06014 94213 11/75 80202 10285 20217 39876 40102 60004 71499 8807/ 333 70000;","","","","","","","","","",""
"94213099999","2005-12-06T15:00:00","-17.0166666","128.2166666","205.0","WARMUN, AS","FM-12","4","","71","93","","","","","48","","29.65","28.99","16.78","77","000","","0","","","","","","","","","","","","","","","","","","","","","","","","","","","","","","","","","","","","","","","","","","","","","","","","","","","","","","","","","","","","","","","","","","","","","","","","","","","","","","","","","","","","","","","","","","","SYN072AAXX  06074 94213 11/77 80000 10341 20216 39817 40042 60001 71522 8807/;","","","","","","","","","",""
"94213099999","2005-12-07T06:00:00","-17.0166666","128.2166666","205.0","WARMUN, AS","FM-12","4","","74","84","","","","","71","","29.76","29.09","11.18","77","000","","0","","","","","","","","","","","","","","","","","","","","","","","","","","","","","","","","","","","","","","","","","","","","","","","","","","","","","","","","","","","","","","","","","","","","","","","","","","","","","","","","","","","","","","","","","","","SYN066AAXX  06224 94213 41568 40000 10290 20232 39852 40078 70100 81188;","","","","","","","","","",""
"94213099999","2005-12-07T09:00:00","-17.0166666","128.2166666","205.0","WARMUN, AS","FM-12","4","","69","94","","","","","44","","29.78","29.11","16.78","76","160","","3","","","","","","","","","","","","","","","","","","","","","","","","","","","","","","","","","","","","","","","","","","","","","","","","","","","","","","","","","","","","","","","","","","","","","","","","","","","","","","","","","","","","","","","","","","","SYN082AAXX  07014 94213 11/77 21603 10345 20204 39859 40085 60004 70100 81058 333 70000;","","","","","","","","","",""
"94213099999","2005-12-07T15:00:00","-17.0166666","128.2166666","205.0","WARMUN, AS","FM-12","4","","67","100","","","","","34","","29.64","28.97","18.64","77","000","","0","","","","","","","","","","","","","","","","","","","","","","","","","","","","","","","","","","","","","","","","","","","","","","","","","","","","","","","","","","","","","","","","","","","","","","","","","","","","","","","","","","","","","","","","","","","SYN072AAXX  07074 94213 11880 40000 10379 20194 39812 40037 60001 70300 84920;","","","","","","","","","",""
"94213099999","2005-12-08T06:00:00","-17.0166666","128.2166666","205.0","WARMUN, AS","FM-12","4","","75","86","","","","","70","","29.78","29.11","12.43","78","000","","0","","","","","","","","","","","","","","","","","","","","","","","","","","","","","","","","","","","","","","","","","","","","","","","","","","","","","","","","","","","","","","","","","","","","","","","","","","","","","","","","","","","","","","","","","","","SYN066AAXX  07224 94213 41/70 60000 10300 20240 39859 40085 70322 83086;","","","","","","","","","",""
"94213099999","2005-12-08T09:00:00","-17.0166666","128.2166666","205.0","WARMUN, AS","FM-12","4","","73","95","","","","","49","","29.79","29.12","13.67","79","180","","3","","","","","","","","","","","","","","","","","","","","","","","","","","","","","","","","","","","","","","","","","","","","","","","","","","","","","","","","","","","","","","","","","","","","","","","","","","","","","","","","","","","","","","","","","","","SYN082AAXX  08014 94213 11/72 61803 10350 20227 39862 40088 60004 70322 81068 333 70000;","","","","","","","","","",""
"94213099999","2005-12-09T06:00:00","-17.0166666","128.2166666","205.0","WARMUN, AS","FM-12","4","","75","84","","","","","74","","29.78","29.11","16.16","78","000","","0","","","","","","","","","","","","","","","","","","","","","","","","","","","","","","","","","","","","","","","","","","","","","","","","","","","","","","","","","","","","","","","","","","","","","","","","","","","","","","","","","","","","","","","","","","","SYN066AAXX  08224 94213 41576 80000 10290 20240 39857 40083 70322 8658/;","","","","","","","","","",""
"94213099999","2005-12-09T09:00:00","-17.0166666","128.2166666","205.0","WARMUN, AS","FM-12","4","","72","75","","||DZ","","","89","","29.84","29.17","14.91","73","200","","11","","","","","","","","","","","","","","","","","","","","","","","","","","","","","","","","","","","","","","","","","","","","","","","","","","","","","","","","","","","","","","","","","","","","","","","","","","","","","","","","","","","","","","","","","","","SYN082AAXX  09014 94213 11374 82010 10241 20222 39877 40104 60084 75195 8472/ 333 70080;","","","","","","","","","",""
"94213099999","2005-12-09T15:00:00","-17.0166666","128.2166666","205.0","WARMUN, AS","FM-12","4","","73","88","","","","","61","","29.63","28.97","17.40","77","200","","2","","","","","","","","","","","","","","","","","","","","","","","","","","","","","","","","","","","","","","","","","","","","","","","","","","","","","","","","","","","","","","","","","","","","","","","","","","","","","","","","","","","","","","","","","","","SYN072AAXX  09074 94213 11578 62002 10312 20228 39809 40034 60011 70152 82722;","","","","","","","","","",""
"94213099999","2005-12-10T06:00:00","-17.0166666","128.2166666","205.0","WARMUN, AS","FM-12","4","","74","80","","","","","82","","29.72","29.06","14.91","76","000","","0","","","","","","","","","","","","","","","","","","","","","","","","","","","","","","","","","","","","","","","","","","","","","","","","","","","","","","","","","","","","","","","","","","","","","","","","","","","","","","","","","","","","","","","","","","","SYN066AAXX  09224 94213 41/74 70000 10267 20233 39840 40066 70322 87070;","","","","","","","","","",""
"94213099999","2005-12-10T09:00:00","-17.0166666","128.2166666","205.0","WARMUN, AS","FM-12","4","","70","94","","","","","46","","29.74","29.07","15.53","77","020","","2","","","","","","","","","","","","","","","","","","","","","","","","","","","","","","","","","","","","","","","","","","","","","","","","","","","","","","","","","","","","","","","","","","","","","","","","","","","","","","","","","","","","","","","","","","","SYN082AAXX  10014 94213 11/75 30202 10345 20213 39844 40070 60014 70100 81045 333 70010;","","","","","","","","","",""
"94213099999","2005-12-10T15:00:00","-17.0166666","128.2166666","205.0","WARMUN, AS","FM-12","4","","74","83","","","","","75","","29.64","28.97","15.53","77","160","","9","","","","","","","","","","","","","","","","","","","","","","","","","","","","","","","","","","","","","","","","","","","","","","","","","","","","","","","","","","","","","","","","","","","","","","","","","","","","","","","","","","","","","","","","","","","SYN072AAXX  10074 94213 11475 81608 10285 20236 39812 40037 60211 70362 81320;","","","","","","","","","",""
"94213099999","2005-12-11T06:00:00","-17.0166666","128.2166666","205.0","WARMUN, AS","FM-12","4","","77","78","","","","","96","","29.73","29.07","12.43","77","290","","5","","","","","","","","","","","","","","","","","","","","","","","","","","","","","","","","","","","","","","","","","","","","","","","","","","","","","","","","","","","","","","","","","","","","","","","","","","","","","","","","","","","","","","","","","","","SYN066AAXX  10224 94213 41/70 82904 10255 20248 39843 40069 70362 80007;","","","","","","","","","",""
"94213099999","2005-12-11T09:00:00","-17.0166666","128.2166666","205.0","WARMUN, AS","FM-12","4","","72","87","","","","","62","","29.75","29.08","15.53","76","360","","5","","","","","","","","","","","","","","","","","","","","","","","","","","","","","","","","","","","","","","","","","","","","","","","","","","","","","","","","","","","","","","","","","","","","","","","","","","","","","","","","","","","","","","","","","","","SYN082AAXX  11014 94213 11/75 43604 10305 20225 39847 40073 60304 70100 84060 333 70300;","","","","","","","","","",""
"94213099999","2005-12-11T15:00:00","-17.0166666","128.2166666","205.0","WARMUN, AS","FM-12","4","","68","98","","","","","38","","29.59","28.92","18.64","77","020","","5","","","","","","","","","","","","","","","","","","","","","","","","","","","","","","","","","","","","","","","","","","","","","","","","","","","","","","","","","","","","","","","","","","","","","","","","","","","","","","","","","","","","","","","","","","","SYN072AAXX  11074 94213 11680 60204 10368 20202 39795 40020 60001 70322 86900;","","","","","","","","","",""
"94213099999","2005-12-12T06:00:00","-17.0166666","128.2166666","205.0","WARMUN, AS","FM-12","4","","77","81","","","","","88","","29.74","29.07","11.18","78","000","","0","","","","","","","","","","","","","","","","","","","","","","","","","","","","","","","","","","","","","","","","","","","","","","","","","","","","","","","","","","","","","","","","","","","","","","","","","","","","","","","","","","","","","","","","","","","SYN066AAXX  11224 94213 41/68 80000 10270 20249 39845 40071 70322 88090;","","","","","","","","","",""
"94213099999","2005-12-12T09:00:00","-17.0166666","128.2166666","205.0","WARMUN, AS","FM-12","4","","75","86","","","","","69","","29.77","29.10","15.53","78","050","","8","","","","","","","","","","","","","","","","","","","","","","","","","","","","","","","","","","","","","","","","","","","","","","","","","","","","","","","","","","","","","","","","","","","","","","","","","","","","","","","","","","","","","","","","","","","SYN082AAXX  12014 94213 11575 70507 10300 20237 39855 40081 60004 70322 87500 333 70000;","","","","","","","","","",""
"94213099999","2005-12-12T15:00:00","-17.0166666","128.2166666","205.0","WARMUN, AS","FM-12","4","","74","97","","","","","47","","29.59","28.92","18.64","80","130","","2","","","","","","","","","","","","","","","","","","","","","","","","","","","","","","","","","","","","","","","","","","","","","","","","","","","","","","","","","","","","","","","","","","","","","","","","","","","","","","","","","","","","","","","","","","","SYN072AAXX  12074 94213 11780 51302 10360 20231 39794 40019 60001 71592 85900;","","","","","","","","","",""
"94213099999","2005-12-13T06:00:00","-17.0166666","128.2166666","205.0","WARMUN, AS","FM-12","4","","75","78","","","","","90","","29.73","29.06","14.29","76","000","","0","","","","","","","","","","","","","","","","","","","","","","","","","","","","","","","","","","","","","","","","","","","","","","","","","","","","","","","","","","","","","","","","","","","","","","","","","","","","","","","","","","","","","","","","","","","SYN066AAXX  12224 94213 41/73 60000 10257 20240 39841 40067 70362 86090;","","","","","","","","","",""
"94213099999","2005-12-13T09:00:00","-17.0166666","128.2166666","205.0","WARMUN, AS","FM-12","4","","72","84","","","","","68","","29.76","29.10","15.53","76","000","","0","","","","","","","","","","","","","","","","","","","","","","","","","","","","","","","","","","","","","","","","","","","","","","","","","","","","","","","","","","","","","","","","","","","","","","","","","","","","","","","","","","","","","","","","","","","SYN082AAXX  13014 94213 11/75 70000 10290 20224 39853 40079 60024 70322 87070 333 70015;","","","","","","","","","",""
"94213099999","2005-12-13T15:00:00","-17.0166666","128.2166666","205.0","WARMUN, AS","FM-12","4","","75","91","","","","","58","","29.62","28.95","17.40","79","310","","5","","","","","","","","","","","","","","","","","","","","","","","","","","","","","","","","","","","","","","","","","","","","","","","","","","","","","","","","","","","","","","","","","","","","","","","","","","","","","","","","","","","","","","","","","","","SYN072AAXX  13074 94213 11678 73104 10330 20237 39804 40029 60001 70322 83570;","","","","","","","","","",""
"94213099999","2005-12-14T06:00:00","-17.0166666","128.2166666","205.0","WARMUN, AS","FM-12","4","","75","79","","","","","89","","29.75","29.08","14.29","76","000","","0","","","","","","","","","","","","","","","","","","","","","","","","","","","","","","","","","","","","","","","","","","","","","","","","","","","","","","","","","","","","","","","","","","","","","","","","","","","","","","","","","","","","","","","","","","","SYN066AAXX  13224 94213 41373 50000 10260 20241 39848 40074 70322 82580;","","","","","","","","","",""
"94213099999","2005-12-14T09:00:00","-17.0166666","128.2166666","205.0","WARMUN, AS","FM-12","4","","74","87","","","","","65","","29.76","29.09","16.16","78","000","","0","","","","","","","","","","","","","","","","","","","","","","","","","","","","","","","","","","","","","","","","","","","","","","","","","","","","","","","","","","","","","","","","","","","","","","","","","","","","","","","","","","","","","","","","","","","SYN082AAXX  14014 94213 11/76 40000 10305 20233 39851 40077 69924 70100 82081 333 70002;","","","","","","","","","",""
"94213099999","2005-12-14T15:00:00","-17.0166666","128.2166666","205.0","WARMUN, AS","FM-12","4","","65","97","","","","","36","","29.60","28.94","18.64","75","360","","9","","","","","","","","","","","","","","","","","","","","","","","","","","","","","","","","","","","","","","","","","","","","","","","","","","","","","","","","","","","","","","","","","","","","","","","","","","","","","","","","","","","","","","","","","","","SYN072AAXX  14074 94213 11980 53608 10360 20185 39800 40025 60001 70322 83201;","","","","","","","","","",""
"94213099999","2005-12-15T06:00:00","-17.0166666","128.2166666","205.0","WARMUN, AS","FM-12","4","","72","84","","","","","68","","29.75","29.09","14.29","76","180","","2","","","","","","","","","","","","","","","","","","","","","","","","","","","","","","","","","","","","","","","","","","","","","","","","","","","","","","","","","","","","","","","","","","","","","","","","","","","","","","","","","","","","","","","","","","","SYN066AAXX  14224 94213 41/73 21802 10290 20224 39850 40076 70100 80001;","","","","","","","","","",""
"94213099999","2005-12-15T09:00:00","-17.0166666","128.2166666","205.0","WARMUN, AS","FM-12","4","","72","92","","","","","52","","29.77","29.10","16.16","78","180","","2","","","","","","","","","","","","","","","","","","","","","","","","","","","","","","","","","","","","","","","","","","","","","","","","","","","","","","","","","","","","","","","","","","","","","","","","","","","","","","","","","","","","","","","","","","","SYN082AAXX  15014 94213 11676 21802 10335 20223 39854 40080 60004 70300 81101 333 70000;","","","","","","","","","",""
"94213099999","2005-12-15T15:00:00","-17.0166666","128.2166666","205.0","WARMUN, AS","FM-12","4","","54","101","","","","","21","","29.63","28.97","18.64","71","050","","11","","","","","","","","","","","","","","","","","","","","","","","","","","","","","","","","","","","","","","","","","","","","","","","","","","","","","","","","","","","","","","","","","","","","","","","","","","","","","","","","","","","","","","","","","","","SYN072AAXX  15074 94213 11980 30510 10385 20122 39810 40035 60001 70300 82201;","","","","","","","","","",""
"94213099999","2005-12-16T06:00:00","-17.0166666","128.2166666","205.0","WARMUN, AS","FM-12","4","","71","86","","","","","61","","29.78","29.11","13.67","76","180","","11","","","","","","","","","","","","","","","","","","","","","","","","","","","","","","","","","","","","","","","","","","","","","","","","","","","","","","","","","","","","","","","","","","","","","","","","","","","","","","","","","","","","","","","","","","","SYN066AAXX  15224 94213 41/72 41810 10300 20216 39857 40083 70300 80002;","","","","","","","","","",""
"94213099999","2005-12-16T09:00:00","-17.0166666","128.2166666","205.0","WARMUN, AS","FM-12","4","","70","92","","","","","48","","29.78","29.11","15.53","77","130","","9","","","","","","","","","","","","","","","","","","","","","","","","","","","","","","","","","","","","","","","","","","","","","","","","","","","","","","","","","","","","","","","","","","","","","","","","","","","","","","","","","","","","","","","","","","","SYN082AAXX  16014 94213 11/75 21308 10335 20209 39858 40084 60004 70100 80001 333 70000;","","","","","","","","","",""
"94213099999","2005-12-16T15:00:00","-17.0166666","128.2166666","205.0","WARMUN, AS","FM-12","4","","64","101","","","","","30","","29.65","28.98","18.64","75","090","","5","","","","","","","","","","","","","","","","","","","","","","","","","","","","","","","","","","","","","","","","","","","","","","","","","","","","","","","","","","","","","","","","","","","","","","","","","","","","","","","","","","","","","","","","","","","SYN072AAXX  16074 94213 11880 50904 10385 20180 39814 40039 60001 70311 85200;","","","","","","","","","",""
"94213099999","2005-12-17T06:00:00","-17.0166666","128.2166666","205.0","WARMUN, AS","FM-12","4","","70","85","","","","","61","","29.76","29.09","14.29","75","000","","0","","","","","","","","","","","","","","","","","","","","","","","","","","","","","","","","","","","","","","","","","","","","","","","","","","","","","","","","","","","","","","","","","","","","","","","","","","","","","","","","","","","","","","","","","","","SYN066AAXX  16224 94213 41/73 40000 10295 20213 39852 40078 70300 83081;","","","","","","","","","",""
"94213099999","2005-12-17T09:00:00","-17.0166666","128.2166666","205.0","WARMUN, AS","FM-12","4","","68","96","","","","","40","","29.77","29.10","15.53","76","130","","6","","","","","","","","","","","","","","","","","","","","","","","","","","","","","","","","","","","","","","","","","","","","","","","","","","","","","","","","","","","","","","","","","","","","","","","","","","","","","","","","","","","","","","","","","","","SYN082AAXX  17014 94213 11875 41305 10355 20198 39855 40081 60004 70300 84200 333 70000;","","","","","","","","","",""
"94213099999","2005-12-17T15:00:00","-17.0166666","128.2166666","205.0","WARMUN, AS","FM-12","4","","65","100","","","","","32","","29.59","28.93","18.64","76","130","","8","","","","","","","","","","","","","","","","","","","","","","","","","","","","","","","","","","","","","","","","","","","","","","","","","","","","","","","","","","","","","","","","","","","","","","","","","","","","","","","","","","","","","","","","","","","SYN072AAXX  17074 94213 11880 61307 10378 20184 39797 40022 60001 70322 84201;","","","","","","","","","",""
"94213099999","2005-12-18T06:00:00","-17.0166666","128.2166666","205.0","WARMUN, AS","FM-12","4","","74","79","","","","","84","","29.75","29.08","14.29","76","180","","5","","","","","","","","","","","","","","","","","","","","","","","","","","","","","","","","","","","","","","","","","","","","","","","","","","","","","","","","","","","","","","","","","","","","","","","","","","","","","","","","","","","","","","","","","","","SYN066AAXX  17224 94213 41/73 71804 10260 20231 39849 40075 70322 87070;","","","","","","","","","",""
"94213099999","2005-12-18T09:00:00","-17.0166666","128.2166666","205.0","WARMUN, AS","FM-12","4","","71","88","","","","","57","","29.76","29.09","15.53","76","310","","7","","","","","","","","","","","","","","","","","","","","","","","","","","","","","","","","","","","","","","","","","","","","","","","","","","","","","","","","","","","","","","","","","","","","","","","","","","","","","","","","","","","","","","","","","","","SYN082AAXX  18014 94213 11/75 63106 10310 20214 39852 40078 60064 70122 85031 333 70060;","","","","","","","","","",""
"94213099999","2005-12-18T15:00:00","-17.0166666","128.2166666","205.0","WARMUN, AS","FM-12","4","","72","91","","","","","54","","29.64","28.97","17.40","77","180","","5","","","","","","","","","","","","","","","","","","","","","","","","","","","","","","","","","","","","","","","","","","","","","","","","","","","","","","","","","","","","","","","","","","","","","","","","","","","","","","","","","","","","","","","","","","","SYN072AAXX  18074 94213 11678 71804 10330 20224 39811 40036 60001 70322 85201;","","","","","","","","","",""
"94213099999","2005-12-19T06:00:00","-17.0166666","128.2166666","205.0","WARMUN, AS","FM-12","4","","74","81","","","","","81","","29.76","29.10","14.91","76","000","","0","","","","","","","","","","","","","","","","","","","","","","","","","","","","","","","","","","","","","","","","","","","","","","","","","","","","","","","","","","","","","","","","","","","","","","","","","","","","","","","","","","","","","","","","","","","SYN066AAXX  18224 94213 41/74 70000 10270 20234 39853 40079 70322 87050;","","","","","","","","","",""
"94213099999","2005-12-19T09:00:00","-17.0166666","128.2166666","205.0","WARMUN, AS","FM-12","4","","73","92","","","","","53","","29.77","29.10","15.53","78","130","","6","","","","","","","","","","","","","","","","","","","","","","","","","","","","","","","","","","","","","","","","","","","","","","","","","","","","","","","","","","","","","","","","","","","","","","","","","","","","","","","","","","","","","","","","","","","SYN082AAXX  19014 94213 11/75 31305 10335 20226 39854 40080 60004 70100 82081 333 70000;","","","","","","","","","",""
"94213099999","2005-12-19T15:00:00","-17.0166666","128.2166666","205.0","WARMUN, AS","FM-12","4","","69","90","","","","","52","","29.68","29.02","15.53","75","130","","6","","","","","","","","","","","","","","","","","","","","","","","","","","","","","","","","","","","","","","","","","","","","","","","","","","","","","","","","","","","","","","","","","","","","","","","","","","","","","","","","","","","","","","","","","","","SYN072AAXX  19074 94213 11675 71305 10320 20208 39827 40052 60001 70322 85450;","","","","","","","","","",""
"94213099999","2005-12-20T06:00:00","-17.0166666","128.2166666","205.0","WARMUN, AS","FM-12","4","","75","84","","","","","74","","29.83","29.16","14.29","78","000","","0","","","","","","","","","","","","","","","","","","","","","","","","","","","","","","","","","","","","","","","","","","","","","","","","","","","","","","","","","","","","","","","","","","","","","","","","","","","","","","","","","","","","","","","","","","","SYN066AAXX  19224 94213 41/73 40000 10290 20240 39874 40100 70300 82089;","","","","","","","","","",""
"94213099999","2005-12-20T09:00:00","-17.0166666","128.2166666","205.0","WARMUN, AS","FM-12","4","","69","93","","","","","45","CLR:00","29.82","29.15","16.16","76","000","","0","","","","","","","","","","","","","","","","","","","","","","","","","","","","","","","","","","","","","","","","","","","","","","","","","","","","","","","","","","","","","","","","","","","","","","","","","","","","","","","","","","","","","","","","","","","SYN076AAXX  20014 94213 11976 00000 10340 20206 39871 40097 60004 70100 333 70000;","","","","","","","","","",""
"94213099999","2005-12-20T15:00:00","-17.0166666","128.2166666","205.0","WARMUN, AS","FM-12","4","","56","102","","","","","21","","29.68","29.02","18.64","72","130","","9","","","","","","","","","","","","","","","","","","","","","","","","","","","","","","","","","","","","","","","","","","","","","","","","","","","","","","","","","","","","","","","","","","","","","","","","","","","","","","","","","","","","","","","","","","","SYN072AAXX  20074 94213 11980 41308 10390 20131 39827 40052 60001 70300 83109;","","","","","","","","","",""
"94213099999","2005-12-21T06:00:00","-17.0166666","128.2166666","205.0","WARMUN, AS","FM-12","4","","70","83","","","","","64","","29.84","29.17","14.29","74","000","","0","","","","","","","","","","","","","","","","","","","","","","","","","","","","","","","","","","","","","","","","","","","","","","","","","","","","","","","","","","","","","","","","","","","","","","","","","","","","","","","","","","","","","","","","","","","SYN066AAXX  20224 94213 41/73 10000 10285 20210 39879 40106 70100 80001;","","","","","","","","","",""
"94213099999","2005-12-21T09:00:00","-17.0166666","128.2166666","205.0","WARMUN, AS","FM-12","4","","68","98","","","","","38","CLR:00","29.85","29.18","17.40","77","000","","0","","","","","","","","","","","","","","","","","","","","","","","","","","","","","","","","","","","","","","","","","","","","","","","","","","","","","","","","","","","","","","","","","","","","","","","","","","","","","","","","","","","","","","","","","","","SYN076AAXX  21014 94213 11978 00000 10365 20202 39880 40107 60004 70000 333 70000;","","","","","","","","","",""
"94213099999","2005-12-21T15:00:00","-17.0166666","128.2166666","205.0","WARMUN, AS","FM-12","4","","53","105","","","","","18","","29.69","29.03","18.64","72","000","","0","","","","","","","","","","","","","","","","","","","","","","","","","","","","","","","","","","","","","","","","","","","","","","","","","","","","","","","","","","","","","","","","","","","","","","","","","","","","","","","","","","","","","","","","","","","SYN072AAXX  21074 94213 11980 40000 10405 20118 39829 40054 60001 70300 84200;","","","","","","","","","",""
"94213099999","2005-12-22T06:00:00","-17.0166666","128.2166666","205.0","WARMUN, AS","FM-12","4","","74","86","","","","","68","CLR:00","29.81","29.15","14.29","77","000","","0","","","","","","","","","","","","","","","","","","","","","","","","","","","","","","","","","","","","","","","","","","","","","","","","","","","","","","","","","","","","","","","","","","","","","","","","","","","","","","","","","","","","","","","","","","","SYN060AAXX  21224 94213 41973 00000 10300 20235 39870 40096 70000;","","","","","","","","","",""
"94213099999","2005-12-22T09:00:00","-17.0166666","128.2166666","205.0","WARMUN, AS","FM-12","4","","69","99","","","","","39","","29.81","29.14","15.53","78","230","","5","","","","","","","","","","","","","","","","","","","","","","","","","","","","","","","","","","","","","","","","","","","","","","","","","","","","","","","","","","","","","","","","","","","","","","","","","","","","","","","","","","","","","","","","","","","SYN082AAXX  22014 94213 11/75 62304 10370 20208 39868 40094 60004 70322 86080 333 70000;","","","","","","","","","",""
"94213099999","2005-12-22T15:00:00","-17.0166666","128.2166666","205.0","WARMUN, AS","FM-12","4","","63","106","","","","","25","","29.67","29.00","18.64","76","130","","5","","","","","","","","","","","","","","","","","","","","","","","","","","","","","","","","","","","","","","","","","","","","","","","","","","","","","","","","","","","","","","","","","","","","","","","","","","","","","","","","","","","","","","","","","","","SYN072AAXX  22074 94213 11980 41304 10410 20175 39821 40046 60001 70300 84200;","","","","","","","","","",""
"94213099999","2005-12-23T06:00:00","-17.0166666","128.2166666","205.0","WARMUN, AS","FM-12","4","","71","86","","","","","62","","29.80","29.14","14.29","76","000","","0","","","","","","","","","","","","","","","","","","","","","","","","","","","","","","","","","","","","","","","","","","","","","","","","","","","","","","","","","","","","","","","","","","","","","","","","","","","","","","","","","","","","","","","","","","","SYN066AAXX  22224 94213 41/73 20000 10299 20219 39867 40093 70300 82080;","","","","","","","","","",""
"94213099999","2005-12-23T09:00:00","-17.0166666","128.2166666","205.0","WARMUN, AS","FM-12","4","","69","99","","","","","39","","29.80","29.13","16.16","78","130","","5","","","","","","","","","","","","","","","","","","","","","","","","","","","","","","","","","","","","","","","","","","","","","","","","","","","","","","","","","","","","","","","","","","","","","","","","","","","","","","","","","","","","","","","","","","","SYN082AAXX  23014 94213 11/76 21304 10370 20208 39866 40092 60004 70300 82080 333 70000;","","","","","","","","","",""
"94213099999","2005-12-23T15:00:00","-17.0166666","128.2166666","205.0","WARMUN, AS","FM-12","4","","64","104","","","","","27","","29.64","28.97","18.64","76","270","","5","","","","","","","","","","","","","","","","","","","","","","","","","","","","","","","","","","","","","","","","","","","","","","","","","","","","","","","","","","","","","","","","","","","","","","","","","","","","","","","","","","","","","","","","","","","SYN072AAXX  23074 94213 11/80 42704 10402 20180 39812 40037 60001 70300 84080;","","","","","","","","","",""
"94213099999","2005-12-24T06:00:00","-17.0166666","128.2166666","205.0","WARMUN, AS","FM-12","4","","76","88","","","","","69","","29.78","29.11","14.29","79","000","","0","","","","","","","","","","","","","","","","","","","","","","","","","","","","","","","","","","","","","","","","","","","","","","","","","","","","","","","","","","","","","","","","","","","","","","","","","","","","","","","","","","","","","","","","","","","SYN066AAXX  23224 94213 41/73 50000 10310 20246 39858 40084 70322 82081;","","","","","","","","","",""
"94213099999","2005-12-24T09:00:00","-17.0166666","128.2166666","205.0","WARMUN, AS","FM-12","4","","71","99","","","","","41","","29.78","29.11","16.16","79","310","","7","","","","","","","","","","","","","","","","","","","","","","","","","","","","","","","","","","","","","","","","","","","","","","","","","","","","","","","","","","","","","","","","","","","","","","","","","","","","","","","","","","","","","","","","","","","SYN082AAXX  24014 94213 11/76 53106 10370 20217 39858 40084 60004 70322 80005 333 70000;","","","","","","","","","",""
"94213099999","2005-12-24T15:00:00","-17.0166666","128.2166666","205.0","WARMUN, AS","FM-12","4","","65","107","","","","","26","","29.62","28.96","18.64","77","000","","0","","","","","","","","","","","","","","","","","","","","","","","","","","","","","","","","","","","","","","","","","","","","","","","","","","","","","","","","","","","","","","","","","","","","","","","","","","","","","","","","","","","","","","","","","","","SYN072AAXX  24074 94213 11980 60000 10415 20182 39807 40032 60001 70322 84101;","","","","","","","","","",""
"94213099999","2005-12-25T06:00:00","-17.0166666","128.2166666","205.0","WARMUN, AS","FM-12","4","","74","77","","","","","91","","29.81","29.14","12.43","75","000","","0","","","","","","","","","","","","","","","","","","","","","","","","","","","","","","","","","","","","","","","","","","","","","","","","","","","","","","","","","","","","","","","","","","","","","","","","","","","","","","","","","","","","","","","","","","","SYN066AAXX  24224 94213 41270 80000 10250 20235 39869 40095 70322 88500;","","","","","","","","","",""
"94213099999","2005-12-25T09:00:00","-17.0166666","128.2166666","205.0","WARMUN, AS","FM-12","4","","73","89","","","","","60","","29.83","29.16","16.16","78","310","","5","","","","","","","","","","","","","","","","","","","","","","","","","","","","","","","","","","","","","","","","","","","","","","","","","","","","","","","","","","","","","","","","","","","","","","","","","","","","","","","","","","","","","","","","","","","SYN082AAXX  25014 94213 11576 73104 10315 20228 39874 40100 69984 70122 87500 333 70008;","","","","","","","","","",""
"94213099999","2005-12-25T15:00:00","-17.0166666","128.2166666","205.0","WARMUN, AS","FM-12","4","","69","99","","","","","37","","29.67","29.00","17.40","78","050","","7","","","","","","","","","","","","","","","","","","","","","","","","","","","","","","","","","","","","","","","","","","","","","","","","","","","","","","","","","","","","","","","","","","","","","","","","","","","","","","","","","","","","","","","","","","","SYN072AAXX  25074 94213 11/78 70506 10375 20206 39821 40046 60001 70322 81096;","","","","","","","","","",""
"94213099999","2005-12-26T06:00:00","-17.0166666","128.2166666","205.0","WARMUN, AS","FM-12","4","","73","77","","","","","88","","29.76","29.09","14.29","74","000","","0","","","","","","","","","","","","","","","","","","","","","","","","","","","","","","","","","","","","","","","","","","","","","","","","","","","","","","","","","","","","","","","","","","","","","","","","","","","","","","","","","","","","","","","","","","","SYN066AAXX  25224 94213 41/73 80000 10250 20228 39852 40078 70322 88090;","","","","","","","","","",""
"94213099999","2005-12-26T09:00:00","-17.0166666","128.2166666","205.0","WARMUN, AS","FM-12","4","","72","84","","","","","68","","29.81","29.14","15.53","76","360","","6","","","","","","","","","","","","","","","","","","","","","","","","","","","","","","","","","","","","","","","","","","","","","","","","","","","","","","","","","","","","","","","","","","","","","","","","","","","","","","","","","","","","","","","","","","","SYN082AAXX  26014 94213 11/75 53605 10290 20224 39868 40094 60074 70122 82096 333 70070;","","","","","","","","","",""
"94213099999","2005-12-26T15:00:00","-17.0166666","128.2166666","205.0","WARMUN, AS","FM-12","4","","70","94","","","","","46","","29.68","29.01","12.43","77","130","","2","","","","","","","","","","","","","","","","","","","","","","","","","","","","","","","","","","","","","","","","","","","","","","","","","","","","","","","","","","","","","","","","","","","","","","","","","","","","","","","","","","","","","","","","","","","SYN072AAXX  26074 94213 11770 71302 10345 20213 39825 40050 60001 70322 87200;","","","","","","","","","",""
"94213099999","2005-12-27T06:00:00","-17.0166666","128.2166666","205.0","WARMUN, AS","FM-12","4","","74","75","","||RA","","","96","","29.81","29.15","3.73","74","050","","8","","","","","","","","","","","","","","","","","","","","","","","","","","","","","","","","","","","","","","","","","","","","","","","","","","","","","","","","","","","","","","","","","","","","","","","","","","","","","","","","","","","","","","","","","","","SYN066AAXX  26224 94213 41156 80507 10240 20233 39870 40096 76122 88600;","","","","","","","","","",""
"94213099999","2005-12-27T09:00:00","-17.0166666","128.2166666","205.0","WARMUN, AS","FM-12","4","","74","76","","||RA","","","94","","29.86","29.19","1.24","75","050","","6","","","","","","","","","","","","","","","","","","","","","","","","","","","","","","","","","","","","","","","","","","","","","","","","","","","","","","","","","","","","","","","","","","","","","","","","","","","","","","","","","","","","","","","","","","","SYN082AAXX  27014 94213 11620 80505 10245 20235 39884 40111 60194 76162 88000 333 70185;","","","","","","","","","",""
"94213099999","2005-12-27T15:00:00","-17.0166666","128.2166666","205.0","WARMUN, AS","FM-12","4","","76","80","","||RA","","","88","","29.74","29.08","9.32","77","000","","0","","","","","","","","","","","","","","","","","","","","","","","","","","","","","","","","","","","","","","","","","","","","","","","","","","","","","","","","","","","","","","","","","","","","","","","","","","","","","","","","","","","","","","","","","","","SYN072AAXX  27074 94213 11365 80000 10265 20243 39846 40072 60031 76166 88700;","","","","","","","","","",""
"94213099999","2005-12-28T06:00:00","-17.0166666","128.2166666","205.0","WARMUN, AS","FM-12","4","","75","76","","||RA","","","96","","29.83","29.16","6.21","75","000","","0","","","","","","","","","","","","","","","","","","","","","","","","","","","","","","","","","","","","","","","","","","","","","","","","","","","","","","","","","","","","","","","","","","","","","","","","","","","","","","","","","","","","","","","","","","","SYN066AAXX  27224 94213 41/60 80000 10245 20238 39874 40100 76066 88010;","","","","","","","","","",""
"94213099999","2005-12-28T09:00:00","-17.0166666","128.2166666","205.0","WARMUN, AS","FM-12","4","","74","81","","","","","77","","29.83","29.16","12.43","76","050","","5","","","","","","","","","","","","","","","","","","","","","","","","","","","","","","","","","","","","","","","","","","","","","","","","","","","","","","","","","","","","","","","","","","","","","","","","","","","","","","","","","","","","","","","","","","","SYN082AAXX  28014 94213 11470 70504 10275 20231 39875 40101 60064 70166 82530 333 70057;","","","","","","","","","",""
"94213099999","2005-12-28T15:00:00","-17.0166666","128.2166666","205.0","WARMUN, AS","FM-12","4","","69","93","","","","","47","","29.68","29.01","18.64","76","050","","8","","","","","","","","","","","","","","","","","","","","","","","","","","","","","","","","","","","","","","","","","","","","","","","","","","","","","","","","","","","","","","","","","","","","","","","","","","","","","","","","","","","","","","","","","","","SYN072AAXX  28074 94213 11680 60507 10337 20208 39825 40050 60001 70322 83201;","","","","","","","","","",""
"94213099999","2005-12-29T06:00:00","-17.0166666","128.2166666","205.0","WARMUN, AS","FM-12","4","","75","78","","","","","92","","29.81","29.14","9.32","76","310","","5","","","","","","","","","","","","","","","","","","","","","","","","","","","","","","","","","","","","","","","","","","","","","","","","","","","","","","","","","","","","","","","","","","","","","","","","","","","","","","","","","","","","","","","","","","","SYN066AAXX  28224 94213 41365 73104 10255 20241 39869 40095 70122 86502;","","","","","","","","","",""
"94213099999","2005-12-29T09:00:00","-17.0166666","128.2166666","205.0","WARMUN, AS","FM-12","4","","76","83","","","","","78","","29.81","29.14","12.43","78","360","","5","","","","","","","","","","","","","","","","","","","","","","","","","","","","","","","","","","","","","","","","","","","","","","","","","","","","","","","","","","","","","","","","","","","","","","","","","","","","","","","","","","","","","","","","","","","SYN082AAXX  29014 94213 11470 73604 10285 20242 39868 40094 60044 70322 86280 333 70040;","","","","","","","","","",""
"94213099999","2005-12-29T15:00:00","-17.0166666","128.2166666","205.0","WARMUN, AS","FM-12","4","","73","88","","","","","62","","29.68","29.01","12.43","77","310","","6","","","","","","","","","","","","","","","","","","","","","","","","","","","","","","","","","","","","","","","","","","","","","","","","","","","","","","","","","","","","","","","","","","","","","","","","","","","","","","","","","","","","","","","","","","","SYN072AAXX  29074 94213 11570 73105 10310 20230 39825 40050 60001 70322 86250;","","","","","","","","","",""
"94213099999","2005-12-30T06:00:00","-17.0166666","128.2166666","205.0","WARMUN, AS","FM-12","4","","74","75","","","","","96","","29.82","29.15","12.43","74","000","","0","","","","","","","","","","","","","","","","","","","","","","","","","","","","","","","","","","","","","","","","","","","","","","","","","","","","","","","","","","","","","","","","","","","","","","","","","","","","","","","","","","","","","","","","","","","SYN066AAXX  29224 94213 41/70 70000 10240 20233 39873 40099 70322 87070;","","","","","","","","","",""
"94213099999","2005-12-30T09:00:00","-17.0166666","128.2166666","205.0","WARMUN, AS","FM-12","4","","75","82","","","","","78","","29.83","29.16","12.43","77","050","","7","","","","","","","","","","","","","","","","","","","","","","","","","","","","","","","","","","","","","","","","","","","","","","","","","","","","","","","","","","","","","","","","","","","","","","","","","","","","","","","","","","","","","","","","","","","SYN082AAXX  30014 94213 11470 60506 10280 20237 39874 40100 60344 70322 86200 333 70340;","","","","","","","","","",""
"94213099999","2005-12-30T15:00:00","-17.0166666","128.2166666","205.0","WARMUN, AS","FM-12","4","","71","90","","","","","54","","29.68","29.02","18.64","77","360","","7","","","","","","","","","","","","","","","","","","","","","","","","","","","","","","","","","","","","","","","","","","","","","","","","","","","","","","","","","","","","","","","","","","","","","","","","","","","","","","","","","","","","","","","","","","","SYN072AAXX  30074 94213 11680 63606 10320 20217 39826 40051 60001 70322 84204;","","","","","","","","","",""
"94213099999","2005-12-31T06:00:00","-17.0166666","128.2166666","205.0","WARMUN, AS","FM-12","4","","76","77","","","","","96","","29.78","29.11","11.18","76","340","","5","","","","","","","","","","","","","","","","","","","","","","","","","","","","","","","","","","","","","","","","","","","","","","","","","","","","","","","","","","","","","","","","","","","","","","","","","","","","","","","","","","","","","","","","","","","SYN066AAXX  30224 94213 41168 83404 10250 20243 39859 40085 70322 88600;","","","","","","","","","",""
"94213099999","2005-12-31T09:00:00","-17.0166666","128.2166666","205.0","WARMUN, AS","FM-12","4","","75","81","","","","","81","","29.80","29.13","11.18","77","310","","9","","","","","","","","","","","","","","","","","","","","","","","","","","","","","","","","","","","","","","","","","","","","","","","","","","","","","","","","","","","","","","","","","","","","","","","","","","","","","","","","","","","","","","","","","","","SYN082AAXX  31014 94213 11468 63108 10275 20239 39864 40090 60124 70122 84609 333 70120;","","","","","","","","","",""
"94213099999","2005-12-31T15:00:00","-17.0166666","128.2166666","205.0","WARMUN, AS","FM-12","4","","74","80","","||DZ","","","82","","29.72","29.06","6.21","76","090","","5","","","","","","","","","","","","","","","","","","","","","","","","","","","","","","","","","","","","","","","","","","","","","","","","","","","","","","","","","","","","","","","","","","","","","","","","","","","","","","","","","","","","","","","","","","","SYN072AAXX  31074 94213 11460 80904 10268 20234 39840 40066 60041 75022 88400;","","","","","","","","","",""
